kopru_ayakbilegi
version=1
nRows=607
nColumns=15
inDegrees=yes
endheader
time	sacrum_pitch	sacrum_roll	sacrum_yaw	sacrum_x	sacrum_y	sacrum_z	sacroiliac_flx	hip_flx	hip_add	hip_int	knee_flx	ankle_flx	ankle_add	ankle_int
0.000150	20.633716	0.000000	0.000000	0.000000	0.050000	0.000000	3.700000	39.941851	-10.000000	0.000000	-125.456028	18.891492	-5.000000	0.000000
0.005100	20.633716	0.000000	0.000000	0.000000	0.050000	0.000000	3.700000	39.941851	-10.000000	0.000000	-125.456028	16.905169	-5.000000	0.000000
0.010050	20.633716	0.000000	0.000000	0.000000	0.050000	0.000000	3.700000	39.941851	-10.000000	0.000000	-125.456028	15.813853	-5.000000	0.000000
0.015000	20.633716	0.000000	0.000000	0.000000	0.050000	0.000000	3.700000	39.941851	-10.000000	0.000000	-125.456028	15.053634	-5.000000	0.000000
0.019950	20.633716	0.000000	0.000000	0.000000	0.050000	0.000000	3.700000	39.941851	-10.000000	0.000000	-125.456028	14.955243	-5.000000	0.000000
0.024900	20.633716	0.000000	0.000000	0.000000	0.050000	0.000000	3.700000	39.941851	-10.000000	0.000000	-125.456028	15.120200	-5.000000	0.000000
0.029850	20.633716	0.000000	0.000000	0.000000	0.050000	0.000000	3.700000	39.941851	-10.000000	0.000000	-125.456028	15.381467	-5.000000	0.000000
0.034800	20.633716	0.000000	0.000000	0.000000	0.050000	0.000000	3.700000	39.941851	-10.000000	0.000000	-125.456028	15.678996	-5.000000	0.000000
0.039750	20.633716	0.000000	0.000000	0.000000	0.050000	0.000000	3.700000	39.941851	-10.000000	0.000000	-125.456028	16.009720	-5.000000	0.000000
0.044700	20.633716	0.000000	0.000000	0.000000	0.050000	0.000000	3.700000	39.941851	-10.000000	0.000000	-125.456028	16.470658	-5.000000	0.000000
0.049650	20.633716	0.000000	0.000000	0.000000	0.050000	0.000000	3.700000	39.941851	-10.000000	0.000000	-125.456028	17.072225	-5.000000	0.000000
0.054600	20.633716	0.000000	0.000000	0.000000	0.050000	0.000000	3.700000	39.941851	-10.000000	0.000000	-125.456028	17.811895	-5.000000	0.000000
0.059550	20.633716	0.000000	0.000000	0.000000	0.050000	0.000000	3.700000	39.941851	-10.000000	0.000000	-125.456028	18.786790	-5.000000	0.000000
0.064500	20.633716	0.000000	0.000000	0.000000	0.050000	0.000000	3.700000	39.941851	-10.000000	0.000000	-125.456028	20.104033	-5.000000	0.000000
0.069450	20.633716	0.000000	0.000000	0.000000	0.050000	0.000000	3.700000	39.941851	-10.000000	0.000000	-125.456028	21.666008	-5.000000	0.000000
0.074400	20.633716	0.000000	0.000000	0.000000	0.050000	0.000000	3.700000	39.941851	-10.000000	0.000000	-125.456028	23.331201	-5.000000	0.000000
0.079350	20.633716	0.000000	0.000000	0.000000	0.050000	0.000000	3.700000	39.941851	-10.000000	0.000000	-125.456028	25.026183	-5.000000	0.000000
0.084300	20.633716	0.000000	0.000000	0.000000	0.050000	0.000000	3.700000	39.941851	-10.000000	0.000000	-125.456028	26.738174	-5.000000	0.000000
0.089250	20.633716	0.000000	0.000000	0.000000	0.050000	0.000000	3.700000	39.941851	-10.000000	0.000000	-125.456028	28.452602	-5.000000	0.000000
0.094200	20.633716	0.000000	0.000000	0.000000	0.050000	0.000000	3.700000	39.941851	-10.000000	0.000000	-125.456028	30.156538	-5.000000	0.000000
0.099150	20.633716	0.000000	0.000000	0.000000	0.050000	0.000000	3.700000	39.941851	-10.000000	0.000000	-125.456028	32.005007	-5.000000	0.000000
0.104100	20.633716	0.000000	0.000000	0.000000	0.050000	0.000000	3.700000	39.941851	-10.000000	0.000000	-125.456028	34.171067	-5.000000	0.000000
0.109050	20.633716	0.000000	0.000000	0.000000	0.050000	0.000000	3.700000	39.941851	-10.000000	0.000000	-125.456028	36.464372	-5.000000	0.000000
0.114000	20.633716	0.000000	0.000000	0.000000	0.050000	0.000000	3.700000	39.941851	-10.000000	0.000000	-125.456028	38.779422	-5.000000	0.000000
0.118950	20.633716	0.000000	0.000000	0.000000	0.050000	0.000000	3.700000	39.941851	-10.000000	0.000000	-125.456028	40.653281	-5.000000	0.000000
0.123900	20.633716	0.000000	0.000000	0.000000	0.050000	0.000000	3.700000	39.941851	-10.000000	0.000000	-125.456028	41.879973	-5.000000	0.000000
0.128850	20.633716	0.000000	0.000000	0.000000	0.050000	0.000000	3.700000	39.941851	-10.000000	0.000000	-125.456028	42.805284	-5.000000	0.000000
0.133800	20.633716	0.000000	0.000000	0.000000	0.050000	0.000000	3.700000	39.941851	-10.000000	0.000000	-125.456028	43.628989	-5.000000	0.000000
0.138750	20.633716	0.000000	0.000000	0.000000	0.050000	0.000000	3.700000	39.941851	-10.000000	0.000000	-125.456028	44.388818	-5.000000	0.000000
0.143700	20.633716	0.000000	0.000000	0.000000	0.050000	0.000000	3.700000	39.941851	-10.000000	0.000000	-125.456028	45.123044	-5.000000	0.000000
0.148650	20.633716	0.000000	0.000000	0.000000	0.050000	0.000000	3.700000	39.941851	-10.000000	0.000000	-125.456028	45.798550	-5.000000	0.000000
0.153600	20.633716	0.000000	0.000000	0.000000	0.050000	0.000000	3.700000	39.941851	-10.000000	0.000000	-125.456028	46.389991	-5.000000	0.000000
0.158550	20.633716	0.000000	0.000000	0.000000	0.050000	0.000000	3.700000	39.941851	-10.000000	0.000000	-125.456028	46.902089	-5.000000	0.000000
0.163500	20.633716	0.000000	0.000000	0.000000	0.050000	0.000000	3.700000	39.941851	-10.000000	0.000000	-125.456028	47.350941	-5.000000	0.000000
0.168450	20.633716	0.000000	0.000000	0.000000	0.050000	0.000000	3.700000	39.941851	-10.000000	0.000000	-125.456028	47.743458	-5.000000	0.000000
0.173400	20.633716	0.000000	0.000000	0.000000	0.050000	0.000000	3.700000	39.941851	-10.000000	0.000000	-125.456028	48.085315	-5.000000	0.000000
0.178350	20.633716	0.000000	0.000000	0.000000	0.050000	0.000000	3.700000	39.941851	-10.000000	0.000000	-125.456028	48.383782	-5.000000	0.000000
0.183300	20.633716	0.000000	0.000000	0.000000	0.050000	0.000000	3.700000	39.941851	-10.000000	0.000000	-125.456028	48.646811	-5.000000	0.000000
0.188250	20.633716	0.000000	0.000000	0.000000	0.050000	0.000000	3.700000	39.941851	-10.000000	0.000000	-125.456028	48.882098	-5.000000	0.000000
0.193200	20.633716	0.000000	0.000000	0.000000	0.050000	0.000000	3.700000	39.941851	-10.000000	0.000000	-125.456028	49.094063	-5.000000	0.000000
0.198150	20.633716	0.000000	0.000000	0.000000	0.050000	0.000000	3.700000	39.941851	-10.000000	0.000000	-125.456028	49.283081	-5.000000	0.000000
0.203100	20.633716	0.000000	0.000000	0.000000	0.050000	0.000000	3.700000	39.941851	-10.000000	0.000000	-125.456028	49.074615	-5.000000	0.000000
0.208050	20.633716	0.000000	0.000000	0.000000	0.050000	0.000000	3.700000	39.941851	-10.000000	0.000000	-125.456028	48.290812	-5.000000	0.000000
0.213000	20.633716	0.000000	0.000000	0.000000	0.050000	0.000000	3.700000	39.941851	-10.000000	0.000000	-125.456028	47.014708	-5.000000	0.000000
0.217950	20.633716	0.000000	0.000000	0.000000	0.050000	0.000000	3.700000	39.941851	-10.000000	0.000000	-125.456028	45.266274	-5.000000	0.000000
0.222900	20.633716	0.000000	0.000000	0.000000	0.050000	0.000000	3.700000	39.941851	-10.000000	0.000000	-125.456028	43.402300	-5.000000	0.000000
0.227850	20.633716	0.000000	0.000000	0.000000	0.050000	0.000000	3.700000	39.941851	-10.000000	0.000000	-125.456028	41.506853	-5.000000	0.000000
0.232800	20.633716	0.000000	0.000000	0.000000	0.050000	0.000000	3.700000	39.941851	-10.000000	0.000000	-125.456028	39.600495	-5.000000	0.000000
0.237750	20.633716	0.000000	0.000000	0.000000	0.050000	0.000000	3.700000	39.941851	-10.000000	0.000000	-125.456028	37.692952	-5.000000	0.000000
0.242700	20.633716	0.000000	0.000000	0.000000	0.050000	0.000000	3.700000	39.941851	-10.000000	0.000000	-125.456028	35.790694	-5.000000	0.000000
0.247650	20.633716	0.000000	0.000000	0.000000	0.050000	0.000000	3.700000	39.941851	-10.000000	0.000000	-125.456028	33.898712	-5.000000	0.000000
0.252600	20.633716	0.000000	0.000000	0.000000	0.050000	0.000000	3.700000	39.941851	-10.000000	0.000000	-125.456028	32.020924	-5.000000	0.000000
0.257550	20.633716	0.000000	0.000000	0.000000	0.050000	0.000000	3.700000	39.941851	-10.000000	0.000000	-125.456028	30.160369	-5.000000	0.000000
0.262500	20.633716	0.000000	0.000000	0.000000	0.050000	0.000000	3.700000	39.941851	-10.000000	0.000000	-125.456028	28.319380	-5.000000	0.000000
0.267450	20.633716	0.000000	0.000000	0.000000	0.050000	0.000000	3.700000	39.941851	-10.000000	0.000000	-125.456028	26.423542	-5.000000	0.000000
0.272400	20.633716	0.000000	0.000000	0.000000	0.050000	0.000000	3.700000	39.941851	-10.000000	0.000000	-125.456028	23.980667	-5.000000	0.000000
0.277350	20.633716	0.000000	0.000000	0.000000	0.050000	0.000000	3.700000	39.941851	-10.000000	0.000000	-125.456028	21.186167	-5.000000	0.000000
0.282300	20.633716	0.000000	0.000000	0.000000	0.050000	0.000000	3.700000	39.941851	-10.000000	0.000000	-125.456028	18.216063	-5.000000	0.000000
0.287250	20.633716	0.000000	0.000000	0.000000	0.050000	0.000000	3.700000	39.941851	-10.000000	0.000000	-125.456028	15.159164	-5.000000	0.000000
0.292200	20.633716	0.000000	0.000000	0.000000	0.050000	0.000000	3.700000	39.941851	-10.000000	0.000000	-125.456028	12.049320	-5.000000	0.000000
0.297150	20.633716	0.000000	0.000000	0.000000	0.050000	0.000000	3.700000	39.941851	-10.000000	0.000000	-125.456028	8.902199	-5.000000	0.000000
0.302100	20.633716	0.000000	0.000000	0.000000	0.050000	0.000000	3.700000	39.941851	-10.000000	0.000000	-125.456028	5.728807	-5.000000	0.000000
0.307050	20.633716	0.000000	0.000000	0.000000	0.050000	0.000000	3.700000	39.941851	-10.000000	0.000000	-125.456028	3.832151	-5.000000	0.000000
0.312000	20.633716	0.000000	0.000000	0.000000	0.050000	0.000000	3.700000	39.941851	-10.000000	0.000000	-125.456028	2.463190	-5.000000	0.000000
0.316950	20.633716	0.000000	0.000000	0.000000	0.050000	0.000000	3.700000	39.941851	-10.000000	0.000000	-125.456028	1.362972	-5.000000	0.000000
0.321900	20.633716	0.000000	0.000000	0.000000	0.050000	0.000000	3.700000	39.941851	-10.000000	0.000000	-125.456028	0.755811	-5.000000	0.000000
0.326850	20.633716	0.000000	0.000000	0.000000	0.050000	0.000000	3.700000	39.941851	-10.000000	0.000000	-125.456028	0.231548	-5.000000	0.000000
0.331800	20.633716	0.000000	0.000000	0.000000	0.050000	0.000000	3.700000	39.941851	-10.000000	0.000000	-125.456028	-0.212854	-5.000000	0.000000
0.336750	20.633716	0.000000	0.000000	0.000000	0.050000	0.000000	3.700000	39.941851	-10.000000	0.000000	-125.456028	-0.579911	-5.000000	0.000000
0.341700	20.633716	0.000000	0.000000	0.000000	0.050000	0.000000	3.700000	39.941851	-10.000000	0.000000	-125.456028	-0.940775	-5.000000	0.000000
0.346650	20.633716	0.000000	0.000000	0.000000	0.050000	0.000000	3.700000	39.941851	-10.000000	0.000000	-125.456028	-1.294042	-5.000000	0.000000
0.351600	20.633716	0.000000	0.000000	0.000000	0.050000	0.000000	3.700000	39.941851	-10.000000	0.000000	-125.456028	-1.622623	-5.000000	0.000000
0.356550	20.633716	0.000000	0.000000	0.000000	0.050000	0.000000	3.700000	39.941851	-10.000000	0.000000	-125.456028	-1.925391	-5.000000	0.000000
0.361500	20.633716	0.000000	0.000000	0.000000	0.050000	0.000000	3.700000	39.941851	-10.000000	0.000000	-125.456028	-2.207871	-5.000000	0.000000
0.366450	20.633716	0.000000	0.000000	0.000000	0.050000	0.000000	3.700000	39.941851	-10.000000	0.000000	-125.456028	-2.374675	-5.000000	0.000000
0.371400	20.633716	0.000000	0.000000	0.000000	0.050000	0.000000	3.700000	39.941851	-10.000000	0.000000	-125.456028	-2.487479	-5.000000	0.000000
0.376350	20.633716	0.000000	0.000000	0.000000	0.050000	0.000000	3.700000	39.941851	-10.000000	0.000000	-125.456028	-2.572293	-5.000000	0.000000
0.381300	20.633716	0.000000	0.000000	0.000000	0.050000	0.000000	3.700000	39.941851	-10.000000	0.000000	-125.456028	-2.637115	-5.000000	0.000000
0.386250	20.633716	0.000000	0.000000	0.000000	0.050000	0.000000	3.700000	39.941851	-10.000000	0.000000	-125.456028	-2.686108	-5.000000	0.000000
0.391200	20.633716	0.000000	0.000000	0.000000	0.050000	0.000000	3.700000	39.941851	-10.000000	0.000000	-125.456028	-2.701708	-5.000000	0.000000
0.396150	20.633716	0.000000	0.000000	0.000000	0.050000	0.000000	3.700000	39.941851	-10.000000	0.000000	-125.456028	-2.661331	-5.000000	0.000000
0.401100	20.633716	0.000000	0.000000	0.000000	0.050000	0.000000	3.700000	39.941851	-10.000000	0.000000	-125.456028	-2.586741	-5.000000	0.000000
0.406050	20.633716	0.000000	0.000000	0.000000	0.050000	0.000000	3.700000	39.941851	-10.000000	0.000000	-125.456028	-2.483335	-5.000000	0.000000
0.411000	20.633716	0.000000	0.000000	0.000000	0.050000	0.000000	3.700000	39.941851	-10.000000	0.000000	-125.456028	-2.281562	-5.000000	0.000000
0.415950	20.633716	0.000000	0.000000	0.000000	0.050000	0.000000	3.700000	39.941851	-10.000000	0.000000	-125.456028	-1.907206	-5.000000	0.000000
0.420900	20.633716	0.000000	0.000000	0.000000	0.050000	0.000000	3.700000	39.941851	-10.000000	0.000000	-125.456028	-1.337235	-5.000000	0.000000
0.425850	20.633716	0.000000	0.000000	0.000000	0.050000	0.000000	3.700000	39.941851	-10.000000	0.000000	-125.456028	-0.651032	-5.000000	0.000000
0.430800	20.633716	0.000000	0.000000	0.000000	0.050000	0.000000	3.700000	39.941851	-10.000000	0.000000	-125.456028	0.107612	-5.000000	0.000000
0.435750	20.633716	0.000000	0.000000	0.000000	0.050000	0.000000	3.700000	39.941851	-10.000000	0.000000	-125.456028	0.920035	-5.000000	0.000000
0.440700	20.633716	0.000000	0.000000	0.000000	0.050000	0.000000	3.700000	39.941851	-10.000000	0.000000	-125.456028	1.809215	-5.000000	0.000000
0.445650	20.633716	0.000000	0.000000	0.000000	0.050000	0.000000	3.700000	39.941851	-10.000000	0.000000	-125.456028	2.768619	-5.000000	0.000000
0.450600	20.633716	0.000000	0.000000	0.000000	0.050000	0.000000	3.700000	39.941851	-10.000000	0.000000	-125.456028	3.777762	-5.000000	0.000000
0.455550	20.633716	0.000000	0.000000	0.000000	0.050000	0.000000	3.700000	39.941851	-10.000000	0.000000	-125.456028	4.867529	-5.000000	0.000000
0.460500	20.633716	0.000000	0.000000	0.000000	0.050000	0.000000	3.700000	39.941851	-10.000000	0.000000	-125.456028	6.056982	-5.000000	0.000000
0.465450	20.633716	0.000000	0.000000	0.000000	0.050000	0.000000	3.700000	39.941851	-10.000000	0.000000	-125.456028	7.304639	-5.000000	0.000000
0.470400	20.633716	0.000000	0.000000	0.000000	0.050000	0.000000	3.700000	39.941851	-10.000000	0.000000	-125.456028	8.591130	-5.000000	0.000000
0.475350	20.633716	0.000000	0.000000	0.000000	0.050000	0.000000	3.700000	39.941851	-10.000000	0.000000	-125.456028	9.951897	-5.000000	0.000000
0.480300	20.633716	0.000000	0.000000	0.000000	0.050000	0.000000	3.700000	39.941851	-10.000000	0.000000	-125.456028	11.384880	-5.000000	0.000000
0.485250	20.633716	0.000000	0.000000	0.000000	0.050000	0.000000	3.700000	39.941851	-10.000000	0.000000	-125.456028	12.867387	-5.000000	0.000000
0.490200	20.633716	0.000000	0.000000	0.000000	0.050000	0.000000	3.700000	39.941851	-10.000000	0.000000	-125.456028	14.413382	-5.000000	0.000000
0.495150	20.633716	0.000000	0.000000	0.000000	0.050000	0.000000	3.700000	39.941851	-10.000000	0.000000	-125.456028	16.085558	-5.000000	0.000000
0.500100	20.633716	0.000000	0.000000	0.000000	0.050000	0.000000	3.700000	39.941851	-10.000000	0.000000	-125.456028	17.866297	-5.000000	0.000000
0.505050	20.633716	0.000000	0.000000	0.000000	0.050000	0.000000	3.700000	39.941851	-10.000000	0.000000	-125.456028	19.771138	-5.000000	0.000000
0.510000	20.633716	0.000000	0.000000	0.000000	0.050000	0.000000	3.700000	39.941851	-10.000000	0.000000	-125.456028	21.764504	-5.000000	0.000000
0.514950	20.633716	0.000000	0.000000	0.000000	0.050000	0.000000	3.700000	39.941851	-10.000000	0.000000	-125.456028	23.804892	-5.000000	0.000000
0.519900	20.633716	0.000000	0.000000	0.000000	0.050000	0.000000	3.700000	39.941851	-10.000000	0.000000	-125.456028	25.852373	-5.000000	0.000000
0.524850	20.633716	0.000000	0.000000	0.000000	0.050000	0.000000	3.700000	39.941851	-10.000000	0.000000	-125.456028	26.855855	-5.000000	0.000000
0.529800	20.633716	0.000000	0.000000	0.000000	0.050000	0.000000	3.700000	39.941851	-10.000000	0.000000	-125.456028	27.197895	-5.000000	0.000000
0.534750	20.633716	0.000000	0.000000	0.000000	0.050000	0.000000	3.700000	39.941851	-10.000000	0.000000	-125.456028	26.940872	-5.000000	0.000000
0.539700	20.633716	0.000000	0.000000	0.000000	0.050000	0.000000	3.700000	39.941851	-10.000000	0.000000	-125.456028	26.807802	-5.000000	0.000000
0.544650	20.633716	0.000000	0.000000	0.000000	0.050000	0.000000	3.700000	39.941851	-10.000000	0.000000	-125.456028	26.626433	-5.000000	0.000000
0.549600	20.633716	0.000000	0.000000	0.000000	0.050000	0.000000	3.700000	39.941851	-10.000000	0.000000	-125.456028	26.379785	-5.000000	0.000000
0.554550	20.633716	0.000000	0.000000	0.000000	0.050000	0.000000	3.700000	39.941851	-10.000000	0.000000	-125.456028	26.093350	-5.000000	0.000000
0.559500	20.633716	0.000000	0.000000	0.000000	0.050000	0.000000	3.700000	39.941851	-10.000000	0.000000	-125.456028	25.779438	-5.000000	0.000000
0.564450	20.633716	0.000000	0.000000	0.000000	0.050000	0.000000	3.700000	39.941851	-10.000000	0.000000	-125.456028	25.433740	-5.000000	0.000000
0.569400	20.633716	0.000000	0.000000	0.000000	0.050000	0.000000	3.700000	39.941851	-10.000000	0.000000	-125.456028	25.033079	-5.000000	0.000000
0.574350	20.633716	0.000000	0.000000	0.000000	0.050000	0.000000	3.700000	39.941851	-10.000000	0.000000	-125.456028	24.578922	-5.000000	0.000000
0.579300	20.633716	0.000000	0.000000	0.000000	0.050000	0.000000	3.700000	39.941851	-10.000000	0.000000	-125.456028	24.087672	-5.000000	0.000000
0.584250	20.633716	0.000000	0.000000	0.000000	0.050000	0.000000	3.700000	39.941851	-10.000000	0.000000	-125.456028	23.572756	-5.000000	0.000000
0.589200	20.633716	0.000000	0.000000	0.000000	0.050000	0.000000	3.700000	39.941851	-10.000000	0.000000	-125.456028	23.041023	-5.000000	0.000000
0.594150	20.633716	0.000000	0.000000	0.000000	0.050000	0.000000	3.700000	39.941851	-10.000000	0.000000	-125.456028	22.493844	-5.000000	0.000000
0.599100	20.633716	0.000000	0.000000	0.000000	0.050000	0.000000	3.700000	39.941851	-10.000000	0.000000	-125.456028	21.888640	-5.000000	0.000000
0.604050	20.633716	0.000000	0.000000	0.000000	0.050000	0.000000	3.700000	39.941851	-10.000000	0.000000	-125.456028	21.177933	-5.000000	0.000000
0.609000	20.633716	0.000000	0.000000	0.000000	0.050000	0.000000	3.700000	39.941851	-10.000000	0.000000	-125.456028	20.392967	-5.000000	0.000000
0.613950	20.633716	0.000000	0.000000	0.000000	0.050000	0.000000	3.700000	39.941851	-10.000000	0.000000	-125.456028	19.556145	-5.000000	0.000000
0.618900	20.633716	0.000000	0.000000	0.000000	0.050000	0.000000	3.700000	39.941851	-10.000000	0.000000	-125.456028	18.680619	-5.000000	0.000000
0.623850	20.633716	0.000000	0.000000	0.000000	0.050000	0.000000	3.700000	39.941851	-10.000000	0.000000	-125.456028	17.771219	-5.000000	0.000000
0.628800	20.633716	0.000000	0.000000	0.000000	0.050000	0.000000	3.700000	39.941851	-10.000000	0.000000	-125.456028	16.830981	-5.000000	0.000000
0.633750	20.633716	0.000000	0.000000	0.000000	0.050000	0.000000	3.700000	39.941851	-10.000000	0.000000	-125.456028	15.863039	-5.000000	0.000000
0.638700	20.633716	0.000000	0.000000	0.000000	0.050000	0.000000	3.700000	39.941851	-10.000000	0.000000	-125.456028	14.869986	-5.000000	0.000000
0.643650	20.633716	0.000000	0.000000	0.000000	0.050000	0.000000	3.700000	39.941851	-10.000000	0.000000	-125.456028	13.854564	-5.000000	0.000000
0.648600	20.633716	0.000000	0.000000	0.000000	0.050000	0.000000	3.700000	39.941851	-10.000000	0.000000	-125.456028	12.803450	-5.000000	0.000000
0.653550	20.633716	0.000000	0.000000	0.000000	0.050000	0.000000	3.700000	39.941851	-10.000000	0.000000	-125.456028	11.308377	-5.000000	0.000000
0.658500	20.633716	0.000000	0.000000	0.000000	0.050000	0.000000	3.700000	39.941851	-10.000000	0.000000	-125.456028	9.445345	-5.000000	0.000000
0.663450	20.633716	0.000000	0.000000	0.000000	0.050000	0.000000	3.700000	39.941851	-10.000000	0.000000	-125.456028	7.386651	-5.000000	0.000000
0.668400	20.633716	0.000000	0.000000	0.000000	0.050000	0.000000	3.700000	39.941851	-10.000000	0.000000	-125.456028	5.236234	-5.000000	0.000000
0.673350	20.633716	0.000000	0.000000	0.000000	0.050000	0.000000	3.700000	39.941851	-10.000000	0.000000	-125.456028	3.037414	-5.000000	0.000000
0.678300	20.633716	0.000000	0.000000	0.000000	0.050000	0.000000	3.700000	39.941851	-10.000000	0.000000	-125.456028	0.809423	-5.000000	0.000000
0.683250	20.633716	0.000000	0.000000	0.000000	0.050000	0.000000	3.700000	39.941851	-10.000000	0.000000	-125.456028	-1.442292	-5.000000	0.000000
0.688200	20.633716	0.000000	0.000000	0.000000	0.050000	0.000000	3.700000	39.941851	-10.000000	0.000000	-125.456028	-3.711434	-5.000000	0.000000
0.693150	20.633716	0.000000	0.000000	0.000000	0.050000	0.000000	3.700000	39.941851	-10.000000	0.000000	-125.456028	-5.994116	-5.000000	0.000000
0.698100	20.633716	0.000000	0.000000	0.000000	0.050000	0.000000	3.700000	39.941851	-10.000000	0.000000	-125.456028	-7.421195	-5.000000	0.000000
0.703050	20.633716	0.000000	0.000000	0.000000	0.050000	0.000000	3.700000	39.941851	-10.000000	0.000000	-125.456028	-8.412550	-5.000000	0.000000
0.708000	20.633716	0.000000	0.000000	0.000000	0.050000	0.000000	3.700000	39.941851	-10.000000	0.000000	-125.456028	-9.251211	-5.000000	0.000000
0.712950	20.633716	0.000000	0.000000	0.000000	0.050000	0.000000	3.700000	39.941851	-10.000000	0.000000	-125.456028	-9.666447	-5.000000	0.000000
0.717900	20.633716	0.000000	0.000000	0.000000	0.050000	0.000000	3.700000	39.941851	-10.000000	0.000000	-125.456028	-10.032441	-5.000000	0.000000
0.722850	20.633716	0.000000	0.000000	0.000000	0.050000	0.000000	3.700000	39.941851	-10.000000	0.000000	-125.456028	-10.296669	-5.000000	0.000000
0.727800	20.633716	0.000000	0.000000	0.000000	0.050000	0.000000	3.700000	39.941851	-10.000000	0.000000	-125.456028	-10.562425	-5.000000	0.000000
0.732750	20.633716	0.000000	0.000000	0.000000	0.050000	0.000000	3.700000	39.941851	-10.000000	0.000000	-125.456028	-10.760162	-5.000000	0.000000
0.737700	20.633716	0.000000	0.000000	0.000000	0.050000	0.000000	3.700000	39.941851	-10.000000	0.000000	-125.456028	-11.023408	-5.000000	0.000000
0.742650	20.633716	0.000000	0.000000	0.000000	0.050000	0.000000	3.700000	39.941851	-10.000000	0.000000	-125.456028	-11.226859	-5.000000	0.000000
0.747600	20.633716	0.000000	0.000000	0.000000	0.050000	0.000000	3.700000	39.941851	-10.000000	0.000000	-125.456028	-11.453591	-5.000000	0.000000
0.752550	20.633716	0.000000	0.000000	0.000000	0.050000	0.000000	3.700000	39.941851	-10.000000	0.000000	-125.456028	-11.657979	-5.000000	0.000000
0.757500	20.633716	0.000000	0.000000	0.000000	0.050000	0.000000	3.700000	39.941851	-10.000000	0.000000	-125.456028	-11.758744	-5.000000	0.000000
0.762450	20.633716	0.000000	0.000000	0.000000	0.050000	0.000000	3.700000	39.941851	-10.000000	0.000000	-125.456028	-11.832152	-5.000000	0.000000
0.767400	20.633716	0.000000	0.000000	0.000000	0.050000	0.000000	3.700000	39.941851	-10.000000	0.000000	-125.456028	-11.862695	-5.000000	0.000000
0.772350	20.633716	0.000000	0.000000	0.000000	0.050000	0.000000	3.700000	39.941851	-10.000000	0.000000	-125.456028	-11.865999	-5.000000	0.000000
0.777300	20.633716	0.000000	0.000000	0.000000	0.050000	0.000000	3.700000	39.941851	-10.000000	0.000000	-125.456028	-11.777019	-5.000000	0.000000
0.782250	20.633716	0.000000	0.000000	0.000000	0.050000	0.000000	3.700000	39.941851	-10.000000	0.000000	-125.456028	-11.647532	-5.000000	0.000000
0.787200	20.633716	0.000000	0.000000	0.000000	0.050000	0.000000	3.700000	39.941851	-10.000000	0.000000	-125.456028	-11.477796	-5.000000	0.000000
0.792150	20.633716	0.000000	0.000000	0.000000	0.050000	0.000000	3.700000	39.941851	-10.000000	0.000000	-125.456028	-11.247730	-5.000000	0.000000
0.797100	20.633716	0.000000	0.000000	0.000000	0.050000	0.000000	3.700000	39.941851	-10.000000	0.000000	-125.456028	-10.956937	-5.000000	0.000000
0.802050	20.633716	0.000000	0.000000	0.000000	0.050000	0.000000	3.700000	39.941851	-10.000000	0.000000	-125.456028	-10.521813	-5.000000	0.000000
0.807000	20.633716	0.000000	0.000000	0.000000	0.050000	0.000000	3.700000	39.941851	-10.000000	0.000000	-125.456028	-9.901482	-5.000000	0.000000
0.811950	20.633716	0.000000	0.000000	0.000000	0.050000	0.000000	3.700000	39.941851	-10.000000	0.000000	-125.456028	-9.140791	-5.000000	0.000000
0.816900	20.633716	0.000000	0.000000	0.000000	0.050000	0.000000	3.700000	39.941851	-10.000000	0.000000	-125.456028	-8.281401	-5.000000	0.000000
0.821850	20.633716	0.000000	0.000000	0.000000	0.050000	0.000000	3.700000	39.941851	-10.000000	0.000000	-125.456028	-7.290424	-5.000000	0.000000
0.826800	20.633716	0.000000	0.000000	0.000000	0.050000	0.000000	3.700000	39.941851	-10.000000	0.000000	-125.456028	-6.146868	-5.000000	0.000000
0.831750	20.633716	0.000000	0.000000	0.000000	0.050000	0.000000	3.700000	39.941851	-10.000000	0.000000	-125.456028	-4.824406	-5.000000	0.000000
0.836700	20.633716	0.000000	0.000000	0.000000	0.050000	0.000000	3.700000	39.941851	-10.000000	0.000000	-125.456028	-3.395588	-5.000000	0.000000
0.841650	20.633716	0.000000	0.000000	0.000000	0.050000	0.000000	3.700000	39.941851	-10.000000	0.000000	-125.456028	-1.910580	-5.000000	0.000000
0.846600	20.633716	0.000000	0.000000	0.000000	0.050000	0.000000	3.700000	39.941851	-10.000000	0.000000	-125.456028	-0.396491	-5.000000	0.000000
0.851550	20.633716	0.000000	0.000000	0.000000	0.050000	0.000000	3.700000	39.941851	-10.000000	0.000000	-125.456028	1.139975	-5.000000	0.000000
0.856500	20.633716	0.000000	0.000000	0.000000	0.050000	0.000000	3.700000	39.941851	-10.000000	0.000000	-125.456028	2.835871	-5.000000	0.000000
0.861450	20.633716	0.000000	0.000000	0.000000	0.050000	0.000000	3.700000	39.941851	-10.000000	0.000000	-125.456028	4.671688	-5.000000	0.000000
0.866400	20.633716	0.000000	0.000000	0.000000	0.050000	0.000000	3.700000	39.941851	-10.000000	0.000000	-125.456028	6.590171	-5.000000	0.000000
0.871350	20.633716	0.000000	0.000000	0.000000	0.050000	0.000000	3.700000	39.941851	-10.000000	0.000000	-125.456028	8.611067	-5.000000	0.000000
0.876300	20.633716	0.000000	0.000000	0.000000	0.050000	0.000000	3.700000	39.941851	-10.000000	0.000000	-125.456028	10.879392	-5.000000	0.000000
0.881250	20.633716	0.000000	0.000000	0.000000	0.050000	0.000000	3.700000	39.941851	-10.000000	0.000000	-125.456028	13.316195	-5.000000	0.000000
0.886200	20.633716	0.000000	0.000000	0.000000	0.050000	0.000000	3.700000	39.941851	-10.000000	0.000000	-125.456028	15.849302	-5.000000	0.000000
0.891150	20.633716	0.000000	0.000000	0.000000	0.050000	0.000000	3.700000	39.941851	-10.000000	0.000000	-125.456028	18.440565	-5.000000	0.000000
0.896100	20.633716	0.000000	0.000000	0.000000	0.050000	0.000000	3.700000	39.941851	-10.000000	0.000000	-125.456028	21.062420	-5.000000	0.000000
0.901050	20.633716	0.000000	0.000000	0.000000	0.050000	0.000000	3.700000	39.941851	-10.000000	0.000000	-125.456028	23.680947	-5.000000	0.000000
0.906000	20.633716	0.000000	0.000000	0.000000	0.050000	0.000000	3.700000	39.941851	-10.000000	0.000000	-125.456028	26.250834	-5.000000	0.000000
0.910950	20.633716	0.000000	0.000000	0.000000	0.050000	0.000000	3.700000	39.941851	-10.000000	0.000000	-125.456028	28.454119	-5.000000	0.000000
0.915900	20.633716	0.000000	0.000000	0.000000	0.050000	0.000000	3.700000	39.941851	-10.000000	0.000000	-125.456028	28.680721	-5.000000	0.000000
0.920850	20.633716	0.000000	0.000000	0.000000	0.050000	0.000000	3.700000	39.941851	-10.000000	0.000000	-125.456028	29.007316	-5.000000	0.000000
0.925800	20.633716	0.000000	0.000000	0.000000	0.050000	0.000000	3.700000	39.941851	-10.000000	0.000000	-125.456028	28.889458	-5.000000	0.000000
0.930750	20.633716	0.000000	0.000000	0.000000	0.050000	0.000000	3.700000	39.941851	-10.000000	0.000000	-125.456028	28.746386	-5.000000	0.000000
0.935700	20.633716	0.000000	0.000000	0.000000	0.050000	0.000000	3.700000	39.941851	-10.000000	0.000000	-125.456028	28.620537	-5.000000	0.000000
0.940650	20.633716	0.000000	0.000000	0.000000	0.050000	0.000000	3.700000	39.941851	-10.000000	0.000000	-125.456028	28.493884	-5.000000	0.000000
0.945600	20.633716	0.000000	0.000000	0.000000	0.050000	0.000000	3.700000	39.941851	-10.000000	0.000000	-125.456028	28.350742	-5.000000	0.000000
0.950550	20.633716	0.000000	0.000000	0.000000	0.050000	0.000000	3.700000	39.941851	-10.000000	0.000000	-125.456028	28.188873	-5.000000	0.000000
0.955500	20.633716	0.000000	0.000000	0.000000	0.050000	0.000000	3.700000	39.941851	-10.000000	0.000000	-125.456028	28.009784	-5.000000	0.000000
0.960450	20.633716	0.000000	0.000000	0.000000	0.050000	0.000000	3.700000	39.941851	-10.000000	0.000000	-125.456028	27.807971	-5.000000	0.000000
0.965400	20.633716	0.000000	0.000000	0.000000	0.050000	0.000000	3.700000	39.941851	-10.000000	0.000000	-125.456028	27.571293	-5.000000	0.000000
0.970350	20.633716	0.000000	0.000000	0.000000	0.050000	0.000000	3.700000	39.941851	-10.000000	0.000000	-125.456028	27.292861	-5.000000	0.000000
0.975300	20.633716	0.000000	0.000000	0.000000	0.050000	0.000000	3.700000	39.941851	-10.000000	0.000000	-125.456028	26.981529	-5.000000	0.000000
0.980250	20.633716	0.000000	0.000000	0.000000	0.050000	0.000000	3.700000	39.941851	-10.000000	0.000000	-125.456028	26.650628	-5.000000	0.000000
0.985200	20.633716	0.000000	0.000000	0.000000	0.050000	0.000000	3.700000	39.941851	-10.000000	0.000000	-125.456028	26.300957	-5.000000	0.000000
0.990150	20.633716	0.000000	0.000000	0.000000	0.050000	0.000000	3.700000	39.941851	-10.000000	0.000000	-125.456028	25.915473	-5.000000	0.000000
0.995100	20.633716	0.000000	0.000000	0.000000	0.050000	0.000000	3.700000	39.941851	-10.000000	0.000000	-125.456028	25.494092	-5.000000	0.000000
1.000050	20.633716	0.000000	0.000000	0.000000	0.050000	0.000000	3.700000	39.941851	-10.000000	0.000000	-125.456028	25.041214	-5.000000	0.000000
1.005000	20.633716	0.000000	0.000000	0.000000	0.050000	0.000000	3.700000	39.941851	-10.000000	0.000000	-125.456028	24.510451	-5.000000	0.000000
1.009950	20.633716	0.000000	0.000000	0.000000	0.050000	0.000000	3.700000	39.941851	-10.000000	0.000000	-125.456028	23.900934	-5.000000	0.000000
1.014900	20.633716	0.000000	0.000000	0.000000	0.050000	0.000000	3.700000	39.941851	-10.000000	0.000000	-125.456028	23.237812	-5.000000	0.000000
1.019850	20.633716	0.000000	0.000000	0.000000	0.050000	0.000000	3.700000	39.941851	-10.000000	0.000000	-125.456028	22.538952	-5.000000	0.000000
1.024800	20.633716	0.000000	0.000000	0.000000	0.050000	0.000000	3.700000	39.941851	-10.000000	0.000000	-125.456028	21.814392	-5.000000	0.000000
1.029750	20.633716	0.000000	0.000000	0.000000	0.050000	0.000000	3.700000	39.941851	-10.000000	0.000000	-125.456028	21.067382	-5.000000	0.000000
1.034700	20.633716	0.000000	0.000000	0.000000	0.050000	0.000000	3.700000	39.941851	-10.000000	0.000000	-125.456028	20.299909	-5.000000	0.000000
1.039650	20.633716	0.000000	0.000000	0.000000	0.050000	0.000000	3.700000	39.941851	-10.000000	0.000000	-125.456028	19.514210	-5.000000	0.000000
1.044600	20.633716	0.000000	0.000000	0.000000	0.050000	0.000000	3.700000	39.941851	-10.000000	0.000000	-125.456028	18.711622	-5.000000	0.000000
1.049550	20.633716	0.000000	0.000000	0.000000	0.050000	0.000000	3.700000	39.941851	-10.000000	0.000000	-125.456028	17.564471	-5.000000	0.000000
1.054500	20.633716	0.000000	0.000000	0.000000	0.050000	0.000000	3.700000	39.941851	-10.000000	0.000000	-125.456028	15.989615	-5.000000	0.000000
1.059450	20.633716	0.000000	0.000000	0.000000	0.050000	0.000000	3.700000	39.941851	-10.000000	0.000000	-125.456028	14.185530	-5.000000	0.000000
1.064400	20.633716	0.000000	0.000000	0.000000	0.050000	0.000000	3.700000	39.941851	-10.000000	0.000000	-125.456028	12.272904	-5.000000	0.000000
1.069350	20.633716	0.000000	0.000000	0.000000	0.050000	0.000000	3.700000	39.941851	-10.000000	0.000000	-125.456028	10.310726	-5.000000	0.000000
1.074300	20.633716	0.000000	0.000000	0.000000	0.050000	0.000000	3.700000	39.941851	-10.000000	0.000000	-125.456028	8.315734	-5.000000	0.000000
1.079250	20.633716	0.000000	0.000000	0.000000	0.050000	0.000000	3.700000	39.941851	-10.000000	0.000000	-125.456028	6.296847	-5.000000	0.000000
1.084200	20.633716	0.000000	0.000000	0.000000	0.050000	0.000000	3.700000	39.941851	-10.000000	0.000000	-125.456028	4.939566	-5.000000	0.000000
1.089150	20.633716	0.000000	0.000000	0.000000	0.050000	0.000000	3.700000	39.941851	-10.000000	0.000000	-125.456028	4.040576	-5.000000	0.000000
1.094100	20.633716	0.000000	0.000000	0.000000	0.050000	0.000000	3.700000	39.941851	-10.000000	0.000000	-125.456028	3.382375	-5.000000	0.000000
1.099050	20.633716	0.000000	0.000000	0.000000	0.050000	0.000000	3.700000	39.941851	-10.000000	0.000000	-125.456028	2.790886	-5.000000	0.000000
1.104000	20.633716	0.000000	0.000000	0.000000	0.050000	0.000000	3.700000	39.941851	-10.000000	0.000000	-125.456028	2.264028	-5.000000	0.000000
1.108950	20.633716	0.000000	0.000000	0.000000	0.050000	0.000000	3.700000	39.941851	-10.000000	0.000000	-125.456028	1.934092	-5.000000	0.000000
1.113900	20.633716	0.000000	0.000000	0.000000	0.050000	0.000000	3.700000	39.941851	-10.000000	0.000000	-125.456028	1.725407	-5.000000	0.000000
1.118850	20.633716	0.000000	0.000000	0.000000	0.050000	0.000000	3.700000	39.941851	-10.000000	0.000000	-125.456028	1.538448	-5.000000	0.000000
1.123800	20.633716	0.000000	0.000000	0.000000	0.050000	0.000000	3.700000	39.941851	-10.000000	0.000000	-125.456028	1.377908	-5.000000	0.000000
1.128750	20.633716	0.000000	0.000000	0.000000	0.050000	0.000000	3.700000	39.941851	-10.000000	0.000000	-125.456028	1.251126	-5.000000	0.000000
1.133700	20.633716	0.000000	0.000000	0.000000	0.050000	0.000000	3.700000	39.941851	-10.000000	0.000000	-125.456028	1.137101	-5.000000	0.000000
1.138650	20.633716	0.000000	0.000000	0.000000	0.050000	0.000000	3.700000	39.941851	-10.000000	0.000000	-125.456028	1.025057	-5.000000	0.000000
1.143600	20.633716	0.000000	0.000000	0.000000	0.050000	0.000000	3.700000	39.941851	-10.000000	0.000000	-125.456028	0.924703	-5.000000	0.000000
1.148550	20.633716	0.000000	0.000000	0.000000	0.050000	0.000000	3.700000	39.941851	-10.000000	0.000000	-125.456028	0.860403	-5.000000	0.000000
1.153500	20.633716	0.000000	0.000000	0.000000	0.050000	0.000000	3.700000	39.941851	-10.000000	0.000000	-125.456028	0.853329	-5.000000	0.000000
1.158450	20.633716	0.000000	0.000000	0.000000	0.050000	0.000000	3.700000	39.941851	-10.000000	0.000000	-125.456028	0.872712	-5.000000	0.000000
1.163400	20.633716	0.000000	0.000000	0.000000	0.050000	0.000000	3.700000	39.941851	-10.000000	0.000000	-125.456028	0.914638	-5.000000	0.000000
1.168350	20.633716	0.000000	0.000000	0.000000	0.050000	0.000000	3.700000	39.941851	-10.000000	0.000000	-125.456028	1.016867	-5.000000	0.000000
1.173300	20.633716	0.000000	0.000000	0.000000	0.050000	0.000000	3.700000	39.941851	-10.000000	0.000000	-125.456028	1.224506	-5.000000	0.000000
1.178250	20.633716	0.000000	0.000000	0.000000	0.050000	0.000000	3.700000	39.941851	-10.000000	0.000000	-125.456028	1.568954	-5.000000	0.000000
1.183200	20.633716	0.000000	0.000000	0.000000	0.050000	0.000000	3.700000	39.941851	-10.000000	0.000000	-125.456028	2.075591	-5.000000	0.000000
1.188150	20.633716	0.000000	0.000000	0.000000	0.050000	0.000000	3.700000	39.941851	-10.000000	0.000000	-125.456028	2.675831	-5.000000	0.000000
1.193100	20.633716	0.000000	0.000000	0.000000	0.050000	0.000000	3.700000	39.941851	-10.000000	0.000000	-125.456028	3.333331	-5.000000	0.000000
1.198050	20.633716	0.000000	0.000000	0.000000	0.050000	0.000000	3.700000	39.941851	-10.000000	0.000000	-125.456028	4.151223	-5.000000	0.000000
1.203000	20.633716	0.000000	0.000000	0.000000	0.050000	0.000000	3.700000	39.941851	-10.000000	0.000000	-125.456028	5.134574	-5.000000	0.000000
1.207950	20.633716	0.000000	0.000000	0.000000	0.050000	0.000000	3.700000	39.941851	-10.000000	0.000000	-125.456028	6.221714	-5.000000	0.000000
1.212900	20.633716	0.000000	0.000000	0.000000	0.050000	0.000000	3.700000	39.941851	-10.000000	0.000000	-125.456028	7.390568	-5.000000	0.000000
1.217850	20.633716	0.000000	0.000000	0.000000	0.050000	0.000000	3.700000	39.941851	-10.000000	0.000000	-125.456028	8.674887	-5.000000	0.000000
1.222800	20.633716	0.000000	0.000000	0.000000	0.050000	0.000000	3.700000	39.941851	-10.000000	0.000000	-125.456028	10.054253	-5.000000	0.000000
1.227750	20.633716	0.000000	0.000000	0.000000	0.050000	0.000000	3.700000	39.941851	-10.000000	0.000000	-125.456028	11.498025	-5.000000	0.000000
1.232700	20.633716	0.000000	0.000000	0.000000	0.050000	0.000000	3.700000	39.941851	-10.000000	0.000000	-125.456028	13.038809	-5.000000	0.000000
1.237650	20.633716	0.000000	0.000000	0.000000	0.050000	0.000000	3.700000	39.941851	-10.000000	0.000000	-125.456028	14.696991	-5.000000	0.000000
1.242600	20.633716	0.000000	0.000000	0.000000	0.050000	0.000000	3.700000	39.941851	-10.000000	0.000000	-125.456028	16.416639	-5.000000	0.000000
1.247550	20.633716	0.000000	0.000000	0.000000	0.050000	0.000000	3.700000	39.941851	-10.000000	0.000000	-125.456028	18.172342	-5.000000	0.000000
1.252500	20.633716	0.000000	0.000000	0.000000	0.050000	0.000000	3.700000	39.941851	-10.000000	0.000000	-125.456028	20.005651	-5.000000	0.000000
1.257450	20.633716	0.000000	0.000000	0.000000	0.050000	0.000000	3.700000	39.941851	-10.000000	0.000000	-125.456028	21.914472	-5.000000	0.000000
1.262400	20.633716	0.000000	0.000000	0.000000	0.050000	0.000000	3.700000	39.941851	-10.000000	0.000000	-125.456028	23.864336	-5.000000	0.000000
1.267350	20.633716	0.000000	0.000000	0.000000	0.050000	0.000000	3.700000	39.941851	-10.000000	0.000000	-125.456028	25.852157	-5.000000	0.000000
1.272300	20.633716	0.000000	0.000000	0.000000	0.050000	0.000000	3.700000	39.941851	-10.000000	0.000000	-125.456028	27.945315	-5.000000	0.000000
1.277250	20.633716	0.000000	0.000000	0.000000	0.050000	0.000000	3.700000	39.941851	-10.000000	0.000000	-125.456028	30.126414	-5.000000	0.000000
1.282200	20.633716	0.000000	0.000000	0.000000	0.050000	0.000000	3.700000	39.941851	-10.000000	0.000000	-125.456028	32.408794	-5.000000	0.000000
1.287150	20.633716	0.000000	0.000000	0.000000	0.050000	0.000000	3.700000	39.941851	-10.000000	0.000000	-125.456028	34.745253	-5.000000	0.000000
1.292100	20.633716	0.000000	0.000000	0.000000	0.050000	0.000000	3.700000	39.941851	-10.000000	0.000000	-125.456028	37.097892	-5.000000	0.000000
1.297050	20.633716	0.000000	0.000000	0.000000	0.050000	0.000000	3.700000	39.941851	-10.000000	0.000000	-125.456028	39.438813	-5.000000	0.000000
1.302000	20.633716	0.000000	0.000000	0.000000	0.050000	0.000000	3.700000	39.941851	-10.000000	0.000000	-125.456028	41.743453	-5.000000	0.000000
1.306950	20.633716	0.000000	0.000000	0.000000	0.050000	0.000000	3.700000	39.941851	-10.000000	0.000000	-125.456028	43.990525	-5.000000	0.000000
1.311900	20.633716	0.000000	0.000000	0.000000	0.050000	0.000000	3.700000	39.941851	-10.000000	0.000000	-125.456028	46.162181	-5.000000	0.000000
1.316850	20.633716	0.000000	0.000000	0.000000	0.050000	0.000000	3.700000	39.941851	-10.000000	0.000000	-125.456028	48.269413	-5.000000	0.000000
1.321800	20.633716	0.000000	0.000000	0.000000	0.050000	0.000000	3.700000	39.941851	-10.000000	0.000000	-125.456028	50.298887	-5.000000	0.000000
1.326750	20.633716	0.000000	0.000000	0.000000	0.050000	0.000000	3.700000	39.941851	-10.000000	0.000000	-125.456028	52.225037	-5.000000	0.000000
1.331700	20.633716	0.000000	0.000000	0.000000	0.050000	0.000000	3.700000	39.941851	-10.000000	0.000000	-125.456028	54.028124	-5.000000	0.000000
1.336650	20.633716	0.000000	0.000000	0.000000	0.050000	0.000000	3.700000	39.941851	-10.000000	0.000000	-125.456028	55.691721	-5.000000	0.000000
1.341600	20.633716	0.000000	0.000000	0.000000	0.050000	0.000000	3.700000	39.941851	-10.000000	0.000000	-125.456028	57.203409	-5.000000	0.000000
1.346550	20.633716	0.000000	0.000000	0.000000	0.050000	0.000000	3.700000	39.941851	-10.000000	0.000000	-125.456028	58.556078	-5.000000	0.000000
1.351500	20.633716	0.000000	0.000000	0.000000	0.050000	0.000000	3.700000	39.941851	-10.000000	0.000000	-125.456028	58.836981	-5.000000	0.000000
1.356450	20.633716	0.000000	0.000000	0.000000	0.050000	0.000000	3.700000	39.941851	-10.000000	0.000000	-125.456028	58.237215	-5.000000	0.000000
1.361400	20.633716	0.000000	0.000000	0.000000	0.050000	0.000000	3.700000	39.941851	-10.000000	0.000000	-125.456028	57.438770	-5.000000	0.000000
1.366350	20.633716	0.000000	0.000000	0.000000	0.050000	0.000000	3.700000	39.941851	-10.000000	0.000000	-125.456028	56.663933	-5.000000	0.000000
1.371300	20.633716	0.000000	0.000000	0.000000	0.050000	0.000000	3.700000	39.941851	-10.000000	0.000000	-125.456028	55.847861	-5.000000	0.000000
1.376250	20.633716	0.000000	0.000000	0.000000	0.050000	0.000000	3.700000	39.941851	-10.000000	0.000000	-125.456028	54.743609	-5.000000	0.000000
1.381200	20.633716	0.000000	0.000000	0.000000	0.050000	0.000000	3.700000	39.941851	-10.000000	0.000000	-125.456028	53.551782	-5.000000	0.000000
1.386150	20.633716	0.000000	0.000000	0.000000	0.050000	0.000000	3.700000	39.941851	-10.000000	0.000000	-125.456028	52.338285	-5.000000	0.000000
1.391100	20.633716	0.000000	0.000000	0.000000	0.050000	0.000000	3.700000	39.941851	-10.000000	0.000000	-125.456028	51.115438	-5.000000	0.000000
1.396050	20.633716	0.000000	0.000000	0.000000	0.050000	0.000000	3.700000	39.941851	-10.000000	0.000000	-125.456028	49.886647	-5.000000	0.000000
1.401000	20.633716	0.000000	0.000000	0.000000	0.050000	0.000000	3.700000	39.941851	-10.000000	0.000000	-125.456028	48.656076	-5.000000	0.000000
1.405950	20.633716	0.000000	0.000000	0.000000	0.050000	0.000000	3.700000	39.941851	-10.000000	0.000000	-125.456028	47.427269	-5.000000	0.000000
1.410900	20.633716	0.000000	0.000000	0.000000	0.050000	0.000000	3.700000	39.941851	-10.000000	0.000000	-125.456028	46.202962	-5.000000	0.000000
1.415850	20.633716	0.000000	0.000000	0.000000	0.050000	0.000000	3.700000	39.941851	-10.000000	0.000000	-125.456028	44.878493	-5.000000	0.000000
1.420800	20.633716	0.000000	0.000000	0.000000	0.050000	0.000000	3.700000	39.941851	-10.000000	0.000000	-125.456028	43.006769	-5.000000	0.000000
1.425750	20.633716	0.000000	0.000000	0.000000	0.050000	0.000000	3.700000	39.941851	-10.000000	0.000000	-125.456028	40.801387	-5.000000	0.000000
1.430700	20.633716	0.000000	0.000000	0.000000	0.050000	0.000000	3.700000	39.941851	-10.000000	0.000000	-125.456028	38.442556	-5.000000	0.000000
1.435650	20.633716	0.000000	0.000000	0.000000	0.050000	0.000000	3.700000	39.941851	-10.000000	0.000000	-125.456028	36.028008	-5.000000	0.000000
1.440600	20.633716	0.000000	0.000000	0.000000	0.050000	0.000000	3.700000	39.941851	-10.000000	0.000000	-125.456028	33.589987	-5.000000	0.000000
1.445550	20.633716	0.000000	0.000000	0.000000	0.050000	0.000000	3.700000	39.941851	-10.000000	0.000000	-125.456028	31.143448	-5.000000	0.000000
1.450500	20.633716	0.000000	0.000000	0.000000	0.050000	0.000000	3.700000	39.941851	-10.000000	0.000000	-125.456028	28.699657	-5.000000	0.000000
1.455450	20.633716	0.000000	0.000000	0.000000	0.050000	0.000000	3.700000	39.941851	-10.000000	0.000000	-125.456028	26.267280	-5.000000	0.000000
1.460400	20.633716	0.000000	0.000000	0.000000	0.050000	0.000000	3.700000	39.941851	-10.000000	0.000000	-125.456028	23.852868	-5.000000	0.000000
1.465350	20.633716	0.000000	0.000000	0.000000	0.050000	0.000000	3.700000	39.941851	-10.000000	0.000000	-125.456028	21.460402	-5.000000	0.000000
1.470300	20.633716	0.000000	0.000000	0.000000	0.050000	0.000000	3.700000	39.941851	-10.000000	0.000000	-125.456028	19.641955	-5.000000	0.000000
1.475250	20.633716	0.000000	0.000000	0.000000	0.050000	0.000000	3.700000	39.941851	-10.000000	0.000000	-125.456028	18.764073	-5.000000	0.000000
1.480200	20.633716	0.000000	0.000000	0.000000	0.050000	0.000000	3.700000	39.941851	-10.000000	0.000000	-125.456028	17.945709	-5.000000	0.000000
1.485150	20.633716	0.000000	0.000000	0.000000	0.050000	0.000000	3.700000	39.941851	-10.000000	0.000000	-125.456028	17.404761	-5.000000	0.000000
1.490100	20.633716	0.000000	0.000000	0.000000	0.050000	0.000000	3.700000	39.941851	-10.000000	0.000000	-125.456028	16.849654	-5.000000	0.000000
1.495050	20.633716	0.000000	0.000000	0.000000	0.050000	0.000000	3.700000	39.941851	-10.000000	0.000000	-125.456028	16.385825	-5.000000	0.000000
1.500000	20.633716	0.000000	0.000000	0.000000	0.050000	0.000000	3.700000	39.941851	-10.000000	0.000000	-125.456028	16.001783	-5.000000	0.000000
1.504950	20.633716	0.000000	0.000000	0.000000	0.050000	0.000000	3.700000	39.941851	-10.000000	0.000000	-125.456028	15.639424	-5.000000	0.000000
1.509900	20.633716	0.000000	0.000000	0.000000	0.050000	0.000000	3.700000	39.941851	-10.000000	0.000000	-125.456028	15.310126	-5.000000	0.000000
1.514850	20.633716	0.000000	0.000000	0.000000	0.050000	0.000000	3.700000	39.941851	-10.000000	0.000000	-125.456028	15.007445	-5.000000	0.000000
1.519800	20.633716	0.000000	0.000000	0.000000	0.050000	0.000000	3.700000	39.941851	-10.000000	0.000000	-125.456028	14.703275	-5.000000	0.000000
1.524750	20.633716	0.000000	0.000000	0.000000	0.050000	0.000000	3.700000	39.941851	-10.000000	0.000000	-125.456028	14.409149	-5.000000	0.000000
1.529700	20.633716	0.000000	0.000000	0.000000	0.050000	0.000000	3.700000	39.941851	-10.000000	0.000000	-125.456028	14.217782	-5.000000	0.000000
1.534650	20.633716	0.000000	0.000000	0.000000	0.050000	0.000000	3.700000	39.941851	-10.000000	0.000000	-125.456028	14.090536	-5.000000	0.000000
1.539600	20.633716	0.000000	0.000000	0.000000	0.050000	0.000000	3.700000	39.941851	-10.000000	0.000000	-125.456028	14.022102	-5.000000	0.000000
1.544550	20.633716	0.000000	0.000000	0.000000	0.050000	0.000000	3.700000	39.941851	-10.000000	0.000000	-125.456028	13.996982	-5.000000	0.000000
1.549500	20.633716	0.000000	0.000000	0.000000	0.050000	0.000000	3.700000	39.941851	-10.000000	0.000000	-125.456028	14.051288	-5.000000	0.000000
1.554450	20.633716	0.000000	0.000000	0.000000	0.050000	0.000000	3.700000	39.941851	-10.000000	0.000000	-125.456028	14.147825	-5.000000	0.000000
1.559400	20.633716	0.000000	0.000000	0.000000	0.050000	0.000000	3.700000	39.941851	-10.000000	0.000000	-125.456028	14.289533	-5.000000	0.000000
1.564350	20.633716	0.000000	0.000000	0.000000	0.050000	0.000000	3.700000	39.941851	-10.000000	0.000000	-125.456028	14.488360	-5.000000	0.000000
1.569300	20.633716	0.000000	0.000000	0.000000	0.050000	0.000000	3.700000	39.941851	-10.000000	0.000000	-125.456028	14.775503	-5.000000	0.000000
1.574250	20.633716	0.000000	0.000000	0.000000	0.050000	0.000000	3.700000	39.941851	-10.000000	0.000000	-125.456028	15.158178	-5.000000	0.000000
1.579200	20.633716	0.000000	0.000000	0.000000	0.050000	0.000000	3.700000	39.941851	-10.000000	0.000000	-125.456028	15.607481	-5.000000	0.000000
1.584150	20.633716	0.000000	0.000000	0.000000	0.050000	0.000000	3.700000	39.941851	-10.000000	0.000000	-125.456028	16.169612	-5.000000	0.000000
1.589100	20.633716	0.000000	0.000000	0.000000	0.050000	0.000000	3.700000	39.941851	-10.000000	0.000000	-125.456028	16.837762	-5.000000	0.000000
1.594050	20.633716	0.000000	0.000000	0.000000	0.050000	0.000000	3.700000	39.941851	-10.000000	0.000000	-125.456028	17.616799	-5.000000	0.000000
1.599000	20.633716	0.000000	0.000000	0.000000	0.050000	0.000000	3.700000	39.941851	-10.000000	0.000000	-125.456028	18.484607	-5.000000	0.000000
1.603950	20.633716	0.000000	0.000000	0.000000	0.050000	0.000000	3.700000	39.941851	-10.000000	0.000000	-125.456028	19.416485	-5.000000	0.000000
1.608900	20.633716	0.000000	0.000000	0.000000	0.050000	0.000000	3.700000	39.941851	-10.000000	0.000000	-125.456028	20.420070	-5.000000	0.000000
1.613850	20.633716	0.000000	0.000000	0.000000	0.050000	0.000000	3.700000	39.941851	-10.000000	0.000000	-125.456028	21.568296	-5.000000	0.000000
1.618800	20.633716	0.000000	0.000000	0.000000	0.050000	0.000000	3.700000	39.941851	-10.000000	0.000000	-125.456028	22.847597	-5.000000	0.000000
1.623750	20.633716	0.000000	0.000000	0.000000	0.050000	0.000000	3.700000	39.941851	-10.000000	0.000000	-125.456028	24.249923	-5.000000	0.000000
1.628700	20.633716	0.000000	0.000000	0.000000	0.050000	0.000000	3.700000	39.941851	-10.000000	0.000000	-125.456028	25.730484	-5.000000	0.000000
1.633650	20.633716	0.000000	0.000000	0.000000	0.050000	0.000000	3.700000	39.941851	-10.000000	0.000000	-125.456028	27.261344	-5.000000	0.000000
1.638600	20.633716	0.000000	0.000000	0.000000	0.050000	0.000000	3.700000	39.941851	-10.000000	0.000000	-125.456028	28.822191	-5.000000	0.000000
1.643550	20.633716	0.000000	0.000000	0.000000	0.050000	0.000000	3.700000	39.941851	-10.000000	0.000000	-125.456028	30.417234	-5.000000	0.000000
1.648500	20.633716	0.000000	0.000000	0.000000	0.050000	0.000000	3.700000	39.941851	-10.000000	0.000000	-125.456028	32.201930	-5.000000	0.000000
1.653450	20.633716	0.000000	0.000000	0.000000	0.050000	0.000000	3.700000	39.941851	-10.000000	0.000000	-125.456028	34.127609	-5.000000	0.000000
1.658400	20.633716	0.000000	0.000000	0.000000	0.050000	0.000000	3.700000	39.941851	-10.000000	0.000000	-125.456028	36.128006	-5.000000	0.000000
1.663350	20.633716	0.000000	0.000000	0.000000	0.050000	0.000000	3.700000	39.941851	-10.000000	0.000000	-125.456028	38.210431	-5.000000	0.000000
1.668300	20.633716	0.000000	0.000000	0.000000	0.050000	0.000000	3.700000	39.941851	-10.000000	0.000000	-125.456028	40.461170	-5.000000	0.000000
1.673250	20.633716	0.000000	0.000000	0.000000	0.050000	0.000000	3.700000	39.941851	-10.000000	0.000000	-125.456028	42.787902	-5.000000	0.000000
1.678200	20.633716	0.000000	0.000000	0.000000	0.050000	0.000000	3.700000	39.941851	-10.000000	0.000000	-125.456028	45.121499	-5.000000	0.000000
1.683150	20.633716	0.000000	0.000000	0.000000	0.050000	0.000000	3.700000	39.941851	-10.000000	0.000000	-125.456028	47.424690	-5.000000	0.000000
1.688100	20.633716	0.000000	0.000000	0.000000	0.050000	0.000000	3.700000	39.941851	-10.000000	0.000000	-125.456028	49.385903	-5.000000	0.000000
1.693050	20.633716	0.000000	0.000000	0.000000	0.050000	0.000000	3.700000	39.941851	-10.000000	0.000000	-125.456028	50.768072	-5.000000	0.000000
1.698000	20.633716	0.000000	0.000000	0.000000	0.050000	0.000000	3.700000	39.941851	-10.000000	0.000000	-125.456028	51.838386	-5.000000	0.000000
1.702950	20.633716	0.000000	0.000000	0.000000	0.050000	0.000000	3.700000	39.941851	-10.000000	0.000000	-125.456028	52.741984	-5.000000	0.000000
1.707900	20.633716	0.000000	0.000000	0.000000	0.050000	0.000000	3.700000	39.941851	-10.000000	0.000000	-125.456028	53.539025	-5.000000	0.000000
1.712850	20.633716	0.000000	0.000000	0.000000	0.050000	0.000000	3.700000	39.941851	-10.000000	0.000000	-125.456028	54.253521	-5.000000	0.000000
1.717800	20.633716	0.000000	0.000000	0.000000	0.050000	0.000000	3.700000	39.941851	-10.000000	0.000000	-125.456028	54.873460	-5.000000	0.000000
1.722750	20.633716	0.000000	0.000000	0.000000	0.050000	0.000000	3.700000	39.941851	-10.000000	0.000000	-125.456028	55.403591	-5.000000	0.000000
1.727700	20.633716	0.000000	0.000000	0.000000	0.050000	0.000000	3.700000	39.941851	-10.000000	0.000000	-125.456028	55.855369	-5.000000	0.000000
1.732650	20.633716	0.000000	0.000000	0.000000	0.050000	0.000000	3.700000	39.941851	-10.000000	0.000000	-125.456028	56.238623	-5.000000	0.000000
1.737600	20.633716	0.000000	0.000000	0.000000	0.050000	0.000000	3.700000	39.941851	-10.000000	0.000000	-125.456028	56.471740	-5.000000	0.000000
1.742550	20.633716	0.000000	0.000000	0.000000	0.050000	0.000000	3.700000	39.941851	-10.000000	0.000000	-125.456028	55.982937	-5.000000	0.000000
1.747500	20.633716	0.000000	0.000000	0.000000	0.050000	0.000000	3.700000	39.941851	-10.000000	0.000000	-125.456028	55.322500	-5.000000	0.000000
1.752450	20.633716	0.000000	0.000000	0.000000	0.050000	0.000000	3.700000	39.941851	-10.000000	0.000000	-125.456028	54.526593	-5.000000	0.000000
1.757400	20.633716	0.000000	0.000000	0.000000	0.050000	0.000000	3.700000	39.941851	-10.000000	0.000000	-125.456028	53.414306	-5.000000	0.000000
1.762350	20.633716	0.000000	0.000000	0.000000	0.050000	0.000000	3.700000	39.941851	-10.000000	0.000000	-125.456028	52.221668	-5.000000	0.000000
1.767300	20.633716	0.000000	0.000000	0.000000	0.050000	0.000000	3.700000	39.941851	-10.000000	0.000000	-125.456028	51.010892	-5.000000	0.000000
1.772250	20.633716	0.000000	0.000000	0.000000	0.050000	0.000000	3.700000	39.941851	-10.000000	0.000000	-125.456028	49.797062	-5.000000	0.000000
1.777200	20.633716	0.000000	0.000000	0.000000	0.050000	0.000000	3.700000	39.941851	-10.000000	0.000000	-125.456028	48.586132	-5.000000	0.000000
1.782150	20.633716	0.000000	0.000000	0.000000	0.050000	0.000000	3.700000	39.941851	-10.000000	0.000000	-125.456028	47.376264	-5.000000	0.000000
1.787100	20.633716	0.000000	0.000000	0.000000	0.050000	0.000000	3.700000	39.941851	-10.000000	0.000000	-125.456028	46.074782	-5.000000	0.000000
1.792050	20.633716	0.000000	0.000000	0.000000	0.050000	0.000000	3.700000	39.941851	-10.000000	0.000000	-125.456028	44.695575	-5.000000	0.000000
1.797000	20.633716	0.000000	0.000000	0.000000	0.050000	0.000000	3.700000	39.941851	-10.000000	0.000000	-125.456028	43.272926	-5.000000	0.000000
1.801950	20.633716	0.000000	0.000000	0.000000	0.050000	0.000000	3.700000	39.941851	-10.000000	0.000000	-125.456028	41.828971	-5.000000	0.000000
1.806900	20.633716	0.000000	0.000000	0.000000	0.050000	0.000000	3.700000	39.941851	-10.000000	0.000000	-125.456028	40.375987	-5.000000	0.000000
1.811850	20.633716	0.000000	0.000000	0.000000	0.050000	0.000000	3.700000	39.941851	-10.000000	0.000000	-125.456028	38.918314	-5.000000	0.000000
1.816800	20.633716	0.000000	0.000000	0.000000	0.050000	0.000000	3.700000	39.941851	-10.000000	0.000000	-125.456028	37.458819	-5.000000	0.000000
1.821750	20.633716	0.000000	0.000000	0.000000	0.050000	0.000000	3.700000	39.941851	-10.000000	0.000000	-125.456028	36.000233	-5.000000	0.000000
1.826700	20.633716	0.000000	0.000000	0.000000	0.050000	0.000000	3.700000	39.941851	-10.000000	0.000000	-125.456028	34.544974	-5.000000	0.000000
1.831650	20.633716	0.000000	0.000000	0.000000	0.050000	0.000000	3.700000	39.941851	-10.000000	0.000000	-125.456028	33.074290	-5.000000	0.000000
1.836600	20.633716	0.000000	0.000000	0.000000	0.050000	0.000000	3.700000	39.941851	-10.000000	0.000000	-125.456028	31.418897	-5.000000	0.000000
1.841550	20.633716	0.000000	0.000000	0.000000	0.050000	0.000000	3.700000	39.941851	-10.000000	0.000000	-125.456028	29.629416	-5.000000	0.000000
1.846500	20.633716	0.000000	0.000000	0.000000	0.050000	0.000000	3.700000	39.941851	-10.000000	0.000000	-125.456028	27.769600	-5.000000	0.000000
1.851450	20.633716	0.000000	0.000000	0.000000	0.050000	0.000000	3.700000	39.941851	-10.000000	0.000000	-125.456028	25.885437	-5.000000	0.000000
1.856400	20.633716	0.000000	0.000000	0.000000	0.050000	0.000000	3.700000	39.941851	-10.000000	0.000000	-125.456028	24.294995	-5.000000	0.000000
1.861350	20.633716	0.000000	0.000000	0.000000	0.050000	0.000000	3.700000	39.941851	-10.000000	0.000000	-125.456028	23.719994	-5.000000	0.000000
1.866300	20.633716	0.000000	0.000000	0.000000	0.050000	0.000000	3.700000	39.941851	-10.000000	0.000000	-125.456028	23.136319	-5.000000	0.000000
1.871250	20.633716	0.000000	0.000000	0.000000	0.050000	0.000000	3.700000	39.941851	-10.000000	0.000000	-125.456028	22.742451	-5.000000	0.000000
1.876200	20.633716	0.000000	0.000000	0.000000	0.050000	0.000000	3.700000	39.941851	-10.000000	0.000000	-125.456028	22.438544	-5.000000	0.000000
1.881150	20.633716	0.000000	0.000000	0.000000	0.050000	0.000000	3.700000	39.941851	-10.000000	0.000000	-125.456028	22.194871	-5.000000	0.000000
1.886100	20.633716	0.000000	0.000000	0.000000	0.050000	0.000000	3.700000	39.941851	-10.000000	0.000000	-125.456028	21.970426	-5.000000	0.000000
1.891050	20.633716	0.000000	0.000000	0.000000	0.050000	0.000000	3.700000	39.941851	-10.000000	0.000000	-125.456028	21.829697	-5.000000	0.000000
1.896000	20.633716	0.000000	0.000000	0.000000	0.050000	0.000000	3.700000	39.941851	-10.000000	0.000000	-125.456028	21.664214	-5.000000	0.000000
1.900950	20.633716	0.000000	0.000000	0.000000	0.050000	0.000000	3.700000	39.941851	-10.000000	0.000000	-125.456028	21.534514	-5.000000	0.000000
1.905900	20.633716	0.000000	0.000000	0.000000	0.050000	0.000000	3.700000	39.941851	-10.000000	0.000000	-125.456028	21.430454	-5.000000	0.000000
1.910850	20.633716	0.000000	0.000000	0.000000	0.050000	0.000000	3.700000	39.941851	-10.000000	0.000000	-125.456028	21.317243	-5.000000	0.000000
1.915800	20.633716	0.000000	0.000000	0.000000	0.050000	0.000000	3.700000	39.941851	-10.000000	0.000000	-125.456028	21.290579	-5.000000	0.000000
1.920750	20.633716	0.000000	0.000000	0.000000	0.050000	0.000000	3.700000	39.941851	-10.000000	0.000000	-125.456028	21.296707	-5.000000	0.000000
1.925700	20.633716	0.000000	0.000000	0.000000	0.050000	0.000000	3.700000	39.941851	-10.000000	0.000000	-125.456028	21.336354	-5.000000	0.000000
1.930650	20.633716	0.000000	0.000000	0.000000	0.050000	0.000000	3.700000	39.941851	-10.000000	0.000000	-125.456028	21.412579	-5.000000	0.000000
1.935600	20.633716	0.000000	0.000000	0.000000	0.050000	0.000000	3.700000	39.941851	-10.000000	0.000000	-125.456028	21.498726	-5.000000	0.000000
1.940550	20.633716	0.000000	0.000000	0.000000	0.050000	0.000000	3.700000	39.941851	-10.000000	0.000000	-125.456028	21.634397	-5.000000	0.000000
1.945500	20.633716	0.000000	0.000000	0.000000	0.050000	0.000000	3.700000	39.941851	-10.000000	0.000000	-125.456028	21.892862	-5.000000	0.000000
1.950450	20.633716	0.000000	0.000000	0.000000	0.050000	0.000000	3.700000	39.941851	-10.000000	0.000000	-125.456028	22.294446	-5.000000	0.000000
1.955400	20.633716	0.000000	0.000000	0.000000	0.050000	0.000000	3.700000	39.941851	-10.000000	0.000000	-125.456028	22.852853	-5.000000	0.000000
1.960350	20.633716	0.000000	0.000000	0.000000	0.050000	0.000000	3.700000	39.941851	-10.000000	0.000000	-125.456028	23.505370	-5.000000	0.000000
1.965300	20.633716	0.000000	0.000000	0.000000	0.050000	0.000000	3.700000	39.941851	-10.000000	0.000000	-125.456028	24.220709	-5.000000	0.000000
1.970250	20.633716	0.000000	0.000000	0.000000	0.050000	0.000000	3.700000	39.941851	-10.000000	0.000000	-125.456028	24.980836	-5.000000	0.000000
1.975200	20.633716	0.000000	0.000000	0.000000	0.050000	0.000000	3.700000	39.941851	-10.000000	0.000000	-125.456028	25.779394	-5.000000	0.000000
1.980150	20.633716	0.000000	0.000000	0.000000	0.050000	0.000000	3.700000	39.941851	-10.000000	0.000000	-125.456028	26.753418	-5.000000	0.000000
1.985100	20.633716	0.000000	0.000000	0.000000	0.050000	0.000000	3.700000	39.941851	-10.000000	0.000000	-125.456028	27.900745	-5.000000	0.000000
1.990050	20.633716	0.000000	0.000000	0.000000	0.050000	0.000000	3.700000	39.941851	-10.000000	0.000000	-125.456028	29.149171	-5.000000	0.000000
1.995000	20.633716	0.000000	0.000000	0.000000	0.050000	0.000000	3.700000	39.941851	-10.000000	0.000000	-125.456028	30.463384	-5.000000	0.000000
1.999950	20.633716	0.000000	0.000000	0.000000	0.050000	0.000000	3.700000	39.941851	-10.000000	0.000000	-125.456028	31.846684	-5.000000	0.000000
2.004900	20.633716	0.000000	0.000000	0.000000	0.050000	0.000000	3.700000	39.941851	-10.000000	0.000000	-125.456028	33.277332	-5.000000	0.000000
2.009850	20.633716	0.000000	0.000000	0.000000	0.050000	0.000000	3.700000	39.941851	-10.000000	0.000000	-125.456028	34.731394	-5.000000	0.000000
2.014800	20.633716	0.000000	0.000000	0.000000	0.050000	0.000000	3.700000	39.941851	-10.000000	0.000000	-125.456028	36.264480	-5.000000	0.000000
2.019750	20.633716	0.000000	0.000000	0.000000	0.050000	0.000000	3.700000	39.941851	-10.000000	0.000000	-125.456028	37.969048	-5.000000	0.000000
2.024700	20.633716	0.000000	0.000000	0.000000	0.050000	0.000000	3.700000	39.941851	-10.000000	0.000000	-125.456028	39.762499	-5.000000	0.000000
2.029650	20.633716	0.000000	0.000000	0.000000	0.050000	0.000000	3.700000	39.941851	-10.000000	0.000000	-125.456028	41.594112	-5.000000	0.000000
2.034600	20.633716	0.000000	0.000000	0.000000	0.050000	0.000000	3.700000	39.941851	-10.000000	0.000000	-125.456028	43.463069	-5.000000	0.000000
2.039550	20.633716	0.000000	0.000000	0.000000	0.050000	0.000000	3.700000	39.941851	-10.000000	0.000000	-125.456028	45.346004	-5.000000	0.000000
2.044500	20.633716	0.000000	0.000000	0.000000	0.050000	0.000000	3.700000	39.941851	-10.000000	0.000000	-125.456028	47.211894	-5.000000	0.000000
2.049450	20.633716	0.000000	0.000000	0.000000	0.050000	0.000000	3.700000	39.941851	-10.000000	0.000000	-125.456028	49.071189	-5.000000	0.000000
2.054400	20.633716	0.000000	0.000000	0.000000	0.050000	0.000000	3.700000	39.941851	-10.000000	0.000000	-125.456028	51.095608	-5.000000	0.000000
2.059350	20.633716	0.000000	0.000000	0.000000	0.050000	0.000000	3.700000	39.941851	-10.000000	0.000000	-125.456028	53.168388	-5.000000	0.000000
2.064300	20.633716	0.000000	0.000000	0.000000	0.050000	0.000000	3.700000	39.941851	-10.000000	0.000000	-125.456028	55.202525	-5.000000	0.000000
2.069250	20.633716	0.000000	0.000000	0.000000	0.050000	0.000000	3.700000	39.941851	-10.000000	0.000000	-125.456028	57.146388	-5.000000	0.000000
2.074200	20.633716	0.000000	0.000000	0.000000	0.050000	0.000000	3.700000	39.941851	-10.000000	0.000000	-125.456028	58.951240	-5.000000	0.000000
2.079150	20.633716	0.000000	0.000000	0.000000	0.050000	0.000000	3.700000	39.941851	-10.000000	0.000000	-125.456028	60.577711	-5.000000	0.000000
2.084100	20.633716	0.000000	0.000000	0.000000	0.050000	0.000000	3.700000	39.941851	-10.000000	0.000000	-125.456028	62.002755	-5.000000	0.000000
2.089050	20.633716	0.000000	0.000000	0.000000	0.050000	0.000000	3.700000	39.941851	-10.000000	0.000000	-125.456028	63.221564	-5.000000	0.000000
2.094000	20.633716	0.000000	0.000000	0.000000	0.050000	0.000000	3.700000	39.941851	-10.000000	0.000000	-125.456028	64.231523	-5.000000	0.000000
2.098950	20.633716	0.000000	0.000000	0.000000	0.050000	0.000000	3.700000	39.941851	-10.000000	0.000000	-125.456028	65.072425	-5.000000	0.000000
2.103900	20.633716	0.000000	0.000000	0.000000	0.050000	0.000000	3.700000	39.941851	-10.000000	0.000000	-125.456028	65.764486	-5.000000	0.000000
2.108850	20.633716	0.000000	0.000000	0.000000	0.050000	0.000000	3.700000	39.941851	-10.000000	0.000000	-125.456028	66.339097	-5.000000	0.000000
2.113800	20.633716	0.000000	0.000000	0.000000	0.050000	0.000000	3.700000	39.941851	-10.000000	0.000000	-125.456028	66.817782	-5.000000	0.000000
2.118750	20.633716	0.000000	0.000000	0.000000	0.050000	0.000000	3.700000	39.941851	-10.000000	0.000000	-125.456028	67.214913	-5.000000	0.000000
2.123700	20.633716	0.000000	0.000000	0.000000	0.050000	0.000000	3.700000	39.941851	-10.000000	0.000000	-125.456028	67.435975	-5.000000	0.000000
2.128650	20.633716	0.000000	0.000000	0.000000	0.050000	0.000000	3.700000	39.941851	-10.000000	0.000000	-125.456028	66.485483	-5.000000	0.000000
2.133600	20.633716	0.000000	0.000000	0.000000	0.050000	0.000000	3.700000	39.941851	-10.000000	0.000000	-125.456028	65.446879	-5.000000	0.000000
2.138550	20.633716	0.000000	0.000000	0.000000	0.050000	0.000000	3.700000	39.941851	-10.000000	0.000000	-125.456028	63.797640	-5.000000	0.000000
2.143500	20.633716	0.000000	0.000000	0.000000	0.050000	0.000000	3.700000	39.941851	-10.000000	0.000000	-125.456028	62.060966	-5.000000	0.000000
2.148450	20.633716	0.000000	0.000000	0.000000	0.050000	0.000000	3.700000	39.941851	-10.000000	0.000000	-125.456028	60.357359	-5.000000	0.000000
2.153400	20.633716	0.000000	0.000000	0.000000	0.050000	0.000000	3.700000	39.941851	-10.000000	0.000000	-125.456028	58.693024	-5.000000	0.000000
2.158350	20.633716	0.000000	0.000000	0.000000	0.050000	0.000000	3.700000	39.941851	-10.000000	0.000000	-125.456028	57.066993	-5.000000	0.000000
2.163300	20.633716	0.000000	0.000000	0.000000	0.050000	0.000000	3.700000	39.941851	-10.000000	0.000000	-125.456028	55.476606	-5.000000	0.000000
2.168250	20.633716	0.000000	0.000000	0.000000	0.050000	0.000000	3.700000	39.941851	-10.000000	0.000000	-125.456028	53.919730	-5.000000	0.000000
2.173200	20.633716	0.000000	0.000000	0.000000	0.050000	0.000000	3.700000	39.941851	-10.000000	0.000000	-125.456028	52.394439	-5.000000	0.000000
2.178150	20.633716	0.000000	0.000000	0.000000	0.050000	0.000000	3.700000	39.941851	-10.000000	0.000000	-125.456028	50.898870	-5.000000	0.000000
2.183100	20.633716	0.000000	0.000000	0.000000	0.050000	0.000000	3.700000	39.941851	-10.000000	0.000000	-125.456028	49.431397	-5.000000	0.000000
2.188050	20.633716	0.000000	0.000000	0.000000	0.050000	0.000000	3.700000	39.941851	-10.000000	0.000000	-125.456028	47.941308	-5.000000	0.000000
2.193000	20.633716	0.000000	0.000000	0.000000	0.050000	0.000000	3.700000	39.941851	-10.000000	0.000000	-125.456028	45.906545	-5.000000	0.000000
2.197950	20.633716	0.000000	0.000000	0.000000	0.050000	0.000000	3.700000	39.941851	-10.000000	0.000000	-125.456028	43.505368	-5.000000	0.000000
2.202900	20.633716	0.000000	0.000000	0.000000	0.050000	0.000000	3.700000	39.941851	-10.000000	0.000000	-125.456028	40.947292	-5.000000	0.000000
2.207850	20.633716	0.000000	0.000000	0.000000	0.050000	0.000000	3.700000	39.941851	-10.000000	0.000000	-125.456028	38.343769	-5.000000	0.000000
2.212800	20.633716	0.000000	0.000000	0.000000	0.050000	0.000000	3.700000	39.941851	-10.000000	0.000000	-125.456028	35.731514	-5.000000	0.000000
2.217750	20.633716	0.000000	0.000000	0.000000	0.050000	0.000000	3.700000	39.941851	-10.000000	0.000000	-125.456028	33.124268	-5.000000	0.000000
2.222700	20.633716	0.000000	0.000000	0.000000	0.050000	0.000000	3.700000	39.941851	-10.000000	0.000000	-125.456028	30.531730	-5.000000	0.000000
2.227650	20.633716	0.000000	0.000000	0.000000	0.050000	0.000000	3.700000	39.941851	-10.000000	0.000000	-125.456028	27.961172	-5.000000	0.000000
2.232600	20.633716	0.000000	0.000000	0.000000	0.050000	0.000000	3.700000	39.941851	-10.000000	0.000000	-125.456028	25.418030	-5.000000	0.000000
2.237550	20.633716	0.000000	0.000000	0.000000	0.050000	0.000000	3.700000	39.941851	-10.000000	0.000000	-125.456028	22.906105	-5.000000	0.000000
2.242500	20.633716	0.000000	0.000000	0.000000	0.050000	0.000000	3.700000	39.941851	-10.000000	0.000000	-125.456028	20.581811	-5.000000	0.000000
2.247450	20.633716	0.000000	0.000000	0.000000	0.050000	0.000000	3.700000	39.941851	-10.000000	0.000000	-125.456028	19.724012	-5.000000	0.000000
2.252400	20.633716	0.000000	0.000000	0.000000	0.050000	0.000000	3.700000	39.941851	-10.000000	0.000000	-125.456028	18.948478	-5.000000	0.000000
2.257350	20.633716	0.000000	0.000000	0.000000	0.050000	0.000000	3.700000	39.941851	-10.000000	0.000000	-125.456028	18.245446	-5.000000	0.000000
2.262300	20.633716	0.000000	0.000000	0.000000	0.050000	0.000000	3.700000	39.941851	-10.000000	0.000000	-125.456028	17.574406	-5.000000	0.000000
2.267250	20.633716	0.000000	0.000000	0.000000	0.050000	0.000000	3.700000	39.941851	-10.000000	0.000000	-125.456028	17.037065	-5.000000	0.000000
2.272200	20.633716	0.000000	0.000000	0.000000	0.050000	0.000000	3.700000	39.941851	-10.000000	0.000000	-125.456028	16.567828	-5.000000	0.000000
2.277150	20.633716	0.000000	0.000000	0.000000	0.050000	0.000000	3.700000	39.941851	-10.000000	0.000000	-125.456028	16.180741	-5.000000	0.000000
2.282100	20.633716	0.000000	0.000000	0.000000	0.050000	0.000000	3.700000	39.941851	-10.000000	0.000000	-125.456028	15.830071	-5.000000	0.000000
2.287050	20.633716	0.000000	0.000000	0.000000	0.050000	0.000000	3.700000	39.941851	-10.000000	0.000000	-125.456028	15.505133	-5.000000	0.000000
2.292000	20.633716	0.000000	0.000000	0.000000	0.050000	0.000000	3.700000	39.941851	-10.000000	0.000000	-125.456028	15.203883	-5.000000	0.000000
2.296950	20.633716	0.000000	0.000000	0.000000	0.050000	0.000000	3.700000	39.941851	-10.000000	0.000000	-125.456028	14.907381	-5.000000	0.000000
2.301900	20.633716	0.000000	0.000000	0.000000	0.050000	0.000000	3.700000	39.941851	-10.000000	0.000000	-125.456028	14.706657	-5.000000	0.000000
2.306850	20.633716	0.000000	0.000000	0.000000	0.050000	0.000000	3.700000	39.941851	-10.000000	0.000000	-125.456028	14.557904	-5.000000	0.000000
2.311800	20.633716	0.000000	0.000000	0.000000	0.050000	0.000000	3.700000	39.941851	-10.000000	0.000000	-125.456028	14.492375	-5.000000	0.000000
2.316750	20.633716	0.000000	0.000000	0.000000	0.050000	0.000000	3.700000	39.941851	-10.000000	0.000000	-125.456028	14.456478	-5.000000	0.000000
2.321700	20.633716	0.000000	0.000000	0.000000	0.050000	0.000000	3.700000	39.941851	-10.000000	0.000000	-125.456028	14.437151	-5.000000	0.000000
2.326650	20.633716	0.000000	0.000000	0.000000	0.050000	0.000000	3.700000	39.941851	-10.000000	0.000000	-125.456028	14.440249	-5.000000	0.000000
2.331600	20.633716	0.000000	0.000000	0.000000	0.050000	0.000000	3.700000	39.941851	-10.000000	0.000000	-125.456028	14.502724	-5.000000	0.000000
2.336550	20.633716	0.000000	0.000000	0.000000	0.050000	0.000000	3.700000	39.941851	-10.000000	0.000000	-125.456028	14.613582	-5.000000	0.000000
2.341500	20.633716	0.000000	0.000000	0.000000	0.050000	0.000000	3.700000	39.941851	-10.000000	0.000000	-125.456028	14.790248	-5.000000	0.000000
2.346450	20.633716	0.000000	0.000000	0.000000	0.050000	0.000000	3.700000	39.941851	-10.000000	0.000000	-125.456028	15.056446	-5.000000	0.000000
2.351400	20.633716	0.000000	0.000000	0.000000	0.050000	0.000000	3.700000	39.941851	-10.000000	0.000000	-125.456028	15.426237	-5.000000	0.000000
2.356350	20.633716	0.000000	0.000000	0.000000	0.050000	0.000000	3.700000	39.941851	-10.000000	0.000000	-125.456028	15.870822	-5.000000	0.000000
2.361300	20.633716	0.000000	0.000000	0.000000	0.050000	0.000000	3.700000	39.941851	-10.000000	0.000000	-125.456028	16.362479	-5.000000	0.000000
2.366250	20.633716	0.000000	0.000000	0.000000	0.050000	0.000000	3.700000	39.941851	-10.000000	0.000000	-125.456028	17.004403	-5.000000	0.000000
2.371200	20.633716	0.000000	0.000000	0.000000	0.050000	0.000000	3.700000	39.941851	-10.000000	0.000000	-125.456028	17.813374	-5.000000	0.000000
2.376150	20.633716	0.000000	0.000000	0.000000	0.050000	0.000000	3.700000	39.941851	-10.000000	0.000000	-125.456028	18.728864	-5.000000	0.000000
2.381100	20.633716	0.000000	0.000000	0.000000	0.050000	0.000000	3.700000	39.941851	-10.000000	0.000000	-125.456028	19.731344	-5.000000	0.000000
2.386050	20.633716	0.000000	0.000000	0.000000	0.050000	0.000000	3.700000	39.941851	-10.000000	0.000000	-125.456028	20.911106	-5.000000	0.000000
2.391000	20.633716	0.000000	0.000000	0.000000	0.050000	0.000000	3.700000	39.941851	-10.000000	0.000000	-125.456028	22.241700	-5.000000	0.000000
2.395950	20.633716	0.000000	0.000000	0.000000	0.050000	0.000000	3.700000	39.941851	-10.000000	0.000000	-125.456028	23.714058	-5.000000	0.000000
2.400900	20.633716	0.000000	0.000000	0.000000	0.050000	0.000000	3.700000	39.941851	-10.000000	0.000000	-125.456028	25.280938	-5.000000	0.000000
2.405850	20.633716	0.000000	0.000000	0.000000	0.050000	0.000000	3.700000	39.941851	-10.000000	0.000000	-125.456028	26.904634	-5.000000	0.000000
2.410800	20.633716	0.000000	0.000000	0.000000	0.050000	0.000000	3.700000	39.941851	-10.000000	0.000000	-125.456028	28.563858	-5.000000	0.000000
2.415750	20.633716	0.000000	0.000000	0.000000	0.050000	0.000000	3.700000	39.941851	-10.000000	0.000000	-125.456028	30.239925	-5.000000	0.000000
2.420700	20.633716	0.000000	0.000000	0.000000	0.050000	0.000000	3.700000	39.941851	-10.000000	0.000000	-125.456028	32.055317	-5.000000	0.000000
2.425650	20.633716	0.000000	0.000000	0.000000	0.050000	0.000000	3.700000	39.941851	-10.000000	0.000000	-125.456028	34.039143	-5.000000	0.000000
2.430600	20.633716	0.000000	0.000000	0.000000	0.050000	0.000000	3.700000	39.941851	-10.000000	0.000000	-125.456028	36.112095	-5.000000	0.000000
2.435550	20.633716	0.000000	0.000000	0.000000	0.050000	0.000000	3.700000	39.941851	-10.000000	0.000000	-125.456028	38.232860	-5.000000	0.000000
2.440500	20.633716	0.000000	0.000000	0.000000	0.050000	0.000000	3.700000	39.941851	-10.000000	0.000000	-125.456028	40.401408	-5.000000	0.000000
2.445450	20.633716	0.000000	0.000000	0.000000	0.050000	0.000000	3.700000	39.941851	-10.000000	0.000000	-125.456028	42.587400	-5.000000	0.000000
2.450400	20.633716	0.000000	0.000000	0.000000	0.050000	0.000000	3.700000	39.941851	-10.000000	0.000000	-125.456028	44.756498	-5.000000	0.000000
2.455350	20.633716	0.000000	0.000000	0.000000	0.050000	0.000000	3.700000	39.941851	-10.000000	0.000000	-125.456028	46.880620	-5.000000	0.000000
2.460300	20.633716	0.000000	0.000000	0.000000	0.050000	0.000000	3.700000	39.941851	-10.000000	0.000000	-125.456028	48.935411	-5.000000	0.000000
2.465250	20.633716	0.000000	0.000000	0.000000	0.050000	0.000000	3.700000	39.941851	-10.000000	0.000000	-125.456028	50.898569	-5.000000	0.000000
2.470200	20.633716	0.000000	0.000000	0.000000	0.050000	0.000000	3.700000	39.941851	-10.000000	0.000000	-125.456028	52.750138	-5.000000	0.000000
2.475150	20.633716	0.000000	0.000000	0.000000	0.050000	0.000000	3.700000	39.941851	-10.000000	0.000000	-125.456028	54.593729	-5.000000	0.000000
2.480100	20.633716	0.000000	0.000000	0.000000	0.050000	0.000000	3.700000	39.941851	-10.000000	0.000000	-125.456028	56.467768	-5.000000	0.000000
2.485050	20.633716	0.000000	0.000000	0.000000	0.050000	0.000000	3.700000	39.941851	-10.000000	0.000000	-125.456028	58.262578	-5.000000	0.000000
2.490000	20.633716	0.000000	0.000000	0.000000	0.050000	0.000000	3.700000	39.941851	-10.000000	0.000000	-125.456028	59.925358	-5.000000	0.000000
2.494950	20.633716	0.000000	0.000000	0.000000	0.050000	0.000000	3.700000	39.941851	-10.000000	0.000000	-125.456028	61.420661	-5.000000	0.000000
2.499900	20.633716	0.000000	0.000000	0.000000	0.050000	0.000000	3.700000	39.941851	-10.000000	0.000000	-125.456028	62.729008	-5.000000	0.000000
2.504850	20.633716	0.000000	0.000000	0.000000	0.050000	0.000000	3.700000	39.941851	-10.000000	0.000000	-125.456028	63.849742	-5.000000	0.000000
2.509800	20.633716	0.000000	0.000000	0.000000	0.050000	0.000000	3.700000	39.941851	-10.000000	0.000000	-125.456028	64.641710	-5.000000	0.000000
2.514750	20.633716	0.000000	0.000000	0.000000	0.050000	0.000000	3.700000	39.941851	-10.000000	0.000000	-125.456028	63.981643	-5.000000	0.000000
2.519700	20.633716	0.000000	0.000000	0.000000	0.050000	0.000000	3.700000	39.941851	-10.000000	0.000000	-125.456028	63.209562	-5.000000	0.000000
2.524650	20.633716	0.000000	0.000000	0.000000	0.050000	0.000000	3.700000	39.941851	-10.000000	0.000000	-125.456028	62.489394	-5.000000	0.000000
2.529600	20.633716	0.000000	0.000000	0.000000	0.050000	0.000000	3.700000	39.941851	-10.000000	0.000000	-125.456028	61.636747	-5.000000	0.000000
2.534550	20.633716	0.000000	0.000000	0.000000	0.050000	0.000000	3.700000	39.941851	-10.000000	0.000000	-125.456028	60.497832	-5.000000	0.000000
2.539500	20.633716	0.000000	0.000000	0.000000	0.050000	0.000000	3.700000	39.941851	-10.000000	0.000000	-125.456028	59.355897	-5.000000	0.000000
2.544450	20.633716	0.000000	0.000000	0.000000	0.050000	0.000000	3.700000	39.941851	-10.000000	0.000000	-125.456028	58.218490	-5.000000	0.000000
2.549400	20.633716	0.000000	0.000000	0.000000	0.050000	0.000000	3.700000	39.941851	-10.000000	0.000000	-125.456028	57.085908	-5.000000	0.000000
2.554350	20.633716	0.000000	0.000000	0.000000	0.050000	0.000000	3.700000	39.941851	-10.000000	0.000000	-125.456028	55.960801	-5.000000	0.000000
2.559300	20.633716	0.000000	0.000000	0.000000	0.050000	0.000000	3.700000	39.941851	-10.000000	0.000000	-125.456028	54.845989	-5.000000	0.000000
2.564250	20.633716	0.000000	0.000000	0.000000	0.050000	0.000000	3.700000	39.941851	-10.000000	0.000000	-125.456028	53.743065	-5.000000	0.000000
2.569200	20.633716	0.000000	0.000000	0.000000	0.050000	0.000000	3.700000	39.941851	-10.000000	0.000000	-125.456028	52.652758	-5.000000	0.000000
2.574150	20.633716	0.000000	0.000000	0.000000	0.050000	0.000000	3.700000	39.941851	-10.000000	0.000000	-125.456028	51.548936	-5.000000	0.000000
2.579100	20.633716	0.000000	0.000000	0.000000	0.050000	0.000000	3.700000	39.941851	-10.000000	0.000000	-125.456028	49.955234	-5.000000	0.000000
2.584050	20.633716	0.000000	0.000000	0.000000	0.050000	0.000000	3.700000	39.941851	-10.000000	0.000000	-125.456028	47.979387	-5.000000	0.000000
2.589000	20.633716	0.000000	0.000000	0.000000	0.050000	0.000000	3.700000	39.941851	-10.000000	0.000000	-125.456028	45.832535	-5.000000	0.000000
2.593950	20.633716	0.000000	0.000000	0.000000	0.050000	0.000000	3.700000	39.941851	-10.000000	0.000000	-125.456028	43.628824	-5.000000	0.000000
2.598900	20.633716	0.000000	0.000000	0.000000	0.050000	0.000000	3.700000	39.941851	-10.000000	0.000000	-125.456028	41.408280	-5.000000	0.000000
2.603850	20.633716	0.000000	0.000000	0.000000	0.050000	0.000000	3.700000	39.941851	-10.000000	0.000000	-125.456028	39.185090	-5.000000	0.000000
2.608800	20.633716	0.000000	0.000000	0.000000	0.050000	0.000000	3.700000	39.941851	-10.000000	0.000000	-125.456028	36.969294	-5.000000	0.000000
2.613750	20.633716	0.000000	0.000000	0.000000	0.050000	0.000000	3.700000	39.941851	-10.000000	0.000000	-125.456028	34.768502	-5.000000	0.000000
2.618700	20.633716	0.000000	0.000000	0.000000	0.050000	0.000000	3.700000	39.941851	-10.000000	0.000000	-125.456028	32.588277	-5.000000	0.000000
2.623650	20.633716	0.000000	0.000000	0.000000	0.050000	0.000000	3.700000	39.941851	-10.000000	0.000000	-125.456028	30.432696	-5.000000	0.000000
2.628600	20.633716	0.000000	0.000000	0.000000	0.050000	0.000000	3.700000	39.941851	-10.000000	0.000000	-125.456028	28.336455	-5.000000	0.000000
2.633550	20.633716	0.000000	0.000000	0.000000	0.050000	0.000000	3.700000	39.941851	-10.000000	0.000000	-125.456028	27.474387	-5.000000	0.000000
2.638500	20.633716	0.000000	0.000000	0.000000	0.050000	0.000000	3.700000	39.941851	-10.000000	0.000000	-125.456028	26.806047	-5.000000	0.000000
2.643450	20.633716	0.000000	0.000000	0.000000	0.050000	0.000000	3.700000	39.941851	-10.000000	0.000000	-125.456028	26.177842	-5.000000	0.000000
2.648400	20.633716	0.000000	0.000000	0.000000	0.050000	0.000000	3.700000	39.941851	-10.000000	0.000000	-125.456028	25.534474	-5.000000	0.000000
2.653350	20.633716	0.000000	0.000000	0.000000	0.050000	0.000000	3.700000	39.941851	-10.000000	0.000000	-125.456028	25.227843	-5.000000	0.000000
2.658300	20.633716	0.000000	0.000000	0.000000	0.050000	0.000000	3.700000	39.941851	-10.000000	0.000000	-125.456028	24.991071	-5.000000	0.000000
2.663250	20.633716	0.000000	0.000000	0.000000	0.050000	0.000000	3.700000	39.941851	-10.000000	0.000000	-125.456028	24.800718	-5.000000	0.000000
2.668200	20.633716	0.000000	0.000000	0.000000	0.050000	0.000000	3.700000	39.941851	-10.000000	0.000000	-125.456028	24.660286	-5.000000	0.000000
2.673150	20.633716	0.000000	0.000000	0.000000	0.050000	0.000000	3.700000	39.941851	-10.000000	0.000000	-125.456028	24.555329	-5.000000	0.000000
2.678100	20.633716	0.000000	0.000000	0.000000	0.050000	0.000000	3.700000	39.941851	-10.000000	0.000000	-125.456028	24.468609	-5.000000	0.000000
2.683050	20.633716	0.000000	0.000000	0.000000	0.050000	0.000000	3.700000	39.941851	-10.000000	0.000000	-125.456028	24.388721	-5.000000	0.000000
2.688000	20.633716	0.000000	0.000000	0.000000	0.050000	0.000000	3.700000	39.941851	-10.000000	0.000000	-125.456028	24.310502	-5.000000	0.000000
2.692950	20.633716	0.000000	0.000000	0.000000	0.050000	0.000000	3.700000	39.941851	-10.000000	0.000000	-125.456028	24.235009	-5.000000	0.000000
2.697900	20.633716	0.000000	0.000000	0.000000	0.050000	0.000000	3.700000	39.941851	-10.000000	0.000000	-125.456028	24.216921	-5.000000	0.000000
2.702850	20.633716	0.000000	0.000000	0.000000	0.050000	0.000000	3.700000	39.941851	-10.000000	0.000000	-125.456028	24.244620	-5.000000	0.000000
2.707800	20.633716	0.000000	0.000000	0.000000	0.050000	0.000000	3.700000	39.941851	-10.000000	0.000000	-125.456028	24.299641	-5.000000	0.000000
2.712750	20.633716	0.000000	0.000000	0.000000	0.050000	0.000000	3.700000	39.941851	-10.000000	0.000000	-125.456028	24.379226	-5.000000	0.000000
2.717700	20.633716	0.000000	0.000000	0.000000	0.050000	0.000000	3.700000	39.941851	-10.000000	0.000000	-125.456028	24.567454	-5.000000	0.000000
2.722650	20.633716	0.000000	0.000000	0.000000	0.050000	0.000000	3.700000	39.941851	-10.000000	0.000000	-125.456028	24.906101	-5.000000	0.000000
2.727600	20.633716	0.000000	0.000000	0.000000	0.050000	0.000000	3.700000	39.941851	-10.000000	0.000000	-125.456028	25.401338	-5.000000	0.000000
2.732550	20.633716	0.000000	0.000000	0.000000	0.050000	0.000000	3.700000	39.941851	-10.000000	0.000000	-125.456028	25.984132	-5.000000	0.000000
2.737500	20.633716	0.000000	0.000000	0.000000	0.050000	0.000000	3.700000	39.941851	-10.000000	0.000000	-125.456028	26.620612	-5.000000	0.000000
2.742450	20.633716	0.000000	0.000000	0.000000	0.050000	0.000000	3.700000	39.941851	-10.000000	0.000000	-125.456028	27.294701	-5.000000	0.000000
2.747400	20.633716	0.000000	0.000000	0.000000	0.050000	0.000000	3.700000	39.941851	-10.000000	0.000000	-125.456028	27.995101	-5.000000	0.000000
2.752350	20.633716	0.000000	0.000000	0.000000	0.050000	0.000000	3.700000	39.941851	-10.000000	0.000000	-125.456028	28.819821	-5.000000	0.000000
2.757300	20.633716	0.000000	0.000000	0.000000	0.050000	0.000000	3.700000	39.941851	-10.000000	0.000000	-125.456028	29.789191	-5.000000	0.000000
2.762250	20.633716	0.000000	0.000000	0.000000	0.050000	0.000000	3.700000	39.941851	-10.000000	0.000000	-125.456028	30.846587	-5.000000	0.000000
2.767200	20.633716	0.000000	0.000000	0.000000	0.050000	0.000000	3.700000	39.941851	-10.000000	0.000000	-125.456028	31.967038	-5.000000	0.000000
2.772150	20.633716	0.000000	0.000000	0.000000	0.050000	0.000000	3.700000	39.941851	-10.000000	0.000000	-125.456028	33.216827	-5.000000	0.000000
2.777100	20.633716	0.000000	0.000000	0.000000	0.050000	0.000000	3.700000	39.941851	-10.000000	0.000000	-125.456028	34.599452	-5.000000	0.000000
2.782050	20.633716	0.000000	0.000000	0.000000	0.050000	0.000000	3.700000	39.941851	-10.000000	0.000000	-125.456028	36.143527	-5.000000	0.000000
2.787000	20.633716	0.000000	0.000000	0.000000	0.050000	0.000000	3.700000	39.941851	-10.000000	0.000000	-125.456028	37.785059	-5.000000	0.000000
2.791950	20.633716	0.000000	0.000000	0.000000	0.050000	0.000000	3.700000	39.941851	-10.000000	0.000000	-125.456028	39.473350	-5.000000	0.000000
2.796900	20.633716	0.000000	0.000000	0.000000	0.050000	0.000000	3.700000	39.941851	-10.000000	0.000000	-125.456028	41.180335	-5.000000	0.000000
2.801850	20.633716	0.000000	0.000000	0.000000	0.050000	0.000000	3.700000	39.941851	-10.000000	0.000000	-125.456028	42.883914	-5.000000	0.000000
2.806800	20.633716	0.000000	0.000000	0.000000	0.050000	0.000000	3.700000	39.941851	-10.000000	0.000000	-125.456028	44.635711	-5.000000	0.000000
2.811750	20.633716	0.000000	0.000000	0.000000	0.050000	0.000000	3.700000	39.941851	-10.000000	0.000000	-125.456028	46.467349	-5.000000	0.000000
2.816700	20.633716	0.000000	0.000000	0.000000	0.050000	0.000000	3.700000	39.941851	-10.000000	0.000000	-125.456028	48.410682	-5.000000	0.000000
2.821650	20.633716	0.000000	0.000000	0.000000	0.050000	0.000000	3.700000	39.941851	-10.000000	0.000000	-125.456028	50.402431	-5.000000	0.000000
2.826600	20.633716	0.000000	0.000000	0.000000	0.050000	0.000000	3.700000	39.941851	-10.000000	0.000000	-125.456028	52.379973	-5.000000	0.000000
2.831550	20.633716	0.000000	0.000000	0.000000	0.050000	0.000000	3.700000	39.941851	-10.000000	0.000000	-125.456028	54.300397	-5.000000	0.000000
2.836500	20.633716	0.000000	0.000000	0.000000	0.050000	0.000000	3.700000	39.941851	-10.000000	0.000000	-125.456028	56.123612	-5.000000	0.000000
2.841450	20.633716	0.000000	0.000000	0.000000	0.050000	0.000000	3.700000	39.941851	-10.000000	0.000000	-125.456028	57.813682	-5.000000	0.000000
2.846400	20.633716	0.000000	0.000000	0.000000	0.050000	0.000000	3.700000	39.941851	-10.000000	0.000000	-125.456028	59.342135	-5.000000	0.000000
2.851350	20.633716	0.000000	0.000000	0.000000	0.050000	0.000000	3.700000	39.941851	-10.000000	0.000000	-125.456028	60.691817	-5.000000	0.000000
2.856300	20.633716	0.000000	0.000000	0.000000	0.050000	0.000000	3.700000	39.941851	-10.000000	0.000000	-125.456028	61.859246	-5.000000	0.000000
2.861250	20.633716	0.000000	0.000000	0.000000	0.050000	0.000000	3.700000	39.941851	-10.000000	0.000000	-125.456028	62.944143	-5.000000	0.000000
2.866200	20.633716	0.000000	0.000000	0.000000	0.050000	0.000000	3.700000	39.941851	-10.000000	0.000000	-125.456028	63.997677	-5.000000	0.000000
2.871150	20.633716	0.000000	0.000000	0.000000	0.050000	0.000000	3.700000	39.941851	-10.000000	0.000000	-125.456028	64.963203	-5.000000	0.000000
2.876100	20.633716	0.000000	0.000000	0.000000	0.050000	0.000000	3.700000	39.941851	-10.000000	0.000000	-125.456028	65.826660	-5.000000	0.000000
2.881050	20.633716	0.000000	0.000000	0.000000	0.050000	0.000000	3.700000	39.941851	-10.000000	0.000000	-125.456028	66.592694	-5.000000	0.000000
2.886000	20.633716	0.000000	0.000000	0.000000	0.050000	0.000000	3.700000	39.941851	-10.000000	0.000000	-125.456028	67.266424	-5.000000	0.000000
2.890950	20.633716	0.000000	0.000000	0.000000	0.050000	0.000000	3.700000	39.941851	-10.000000	0.000000	-125.456028	67.854330	-5.000000	0.000000
2.895900	20.633716	0.000000	0.000000	0.000000	0.050000	0.000000	3.700000	39.941851	-10.000000	0.000000	-125.456028	68.362390	-5.000000	0.000000
2.900850	20.633716	0.000000	0.000000	0.000000	0.050000	0.000000	3.700000	39.941851	-10.000000	0.000000	-125.456028	67.747149	-5.000000	0.000000
2.905800	20.633716	0.000000	0.000000	0.000000	0.050000	0.000000	3.700000	39.941851	-10.000000	0.000000	-125.456028	66.929131	-5.000000	0.000000
2.910750	20.633716	0.000000	0.000000	0.000000	0.050000	0.000000	3.700000	39.941851	-10.000000	0.000000	-125.456028	66.040201	-5.000000	0.000000
2.915700	20.633716	0.000000	0.000000	0.000000	0.050000	0.000000	3.700000	39.941851	-10.000000	0.000000	-125.456028	64.633830	-5.000000	0.000000
2.920650	20.633716	0.000000	0.000000	0.000000	0.050000	0.000000	3.700000	39.941851	-10.000000	0.000000	-125.456028	63.172018	-5.000000	0.000000
2.925600	20.633716	0.000000	0.000000	0.000000	0.050000	0.000000	3.700000	39.941851	-10.000000	0.000000	-125.456028	61.731320	-5.000000	0.000000
2.930550	20.633716	0.000000	0.000000	0.000000	0.050000	0.000000	3.700000	39.941851	-10.000000	0.000000	-125.456028	60.314835	-5.000000	0.000000
2.935500	20.633716	0.000000	0.000000	0.000000	0.050000	0.000000	3.700000	39.941851	-10.000000	0.000000	-125.456028	58.923486	-5.000000	0.000000
2.940450	20.633716	0.000000	0.000000	0.000000	0.050000	0.000000	3.700000	39.941851	-10.000000	0.000000	-125.456028	57.557337	-5.000000	0.000000
2.945400	20.633716	0.000000	0.000000	0.000000	0.050000	0.000000	3.700000	39.941851	-10.000000	0.000000	-125.456028	56.215600	-5.000000	0.000000
2.950350	20.633716	0.000000	0.000000	0.000000	0.050000	0.000000	3.700000	39.941851	-10.000000	0.000000	-125.456028	54.897306	-5.000000	0.000000
2.955300	20.633716	0.000000	0.000000	0.000000	0.050000	0.000000	3.700000	39.941851	-10.000000	0.000000	-125.456028	53.601526	-5.000000	0.000000
2.960250	20.633716	0.000000	0.000000	0.000000	0.050000	0.000000	3.700000	39.941851	-10.000000	0.000000	-125.456028	52.317263	-5.000000	0.000000
2.965200	20.633716	0.000000	0.000000	0.000000	0.050000	0.000000	3.700000	39.941851	-10.000000	0.000000	-125.456028	50.573898	-5.000000	0.000000
2.970150	20.633716	0.000000	0.000000	0.000000	0.050000	0.000000	3.700000	39.941851	-10.000000	0.000000	-125.456028	48.404844	-5.000000	0.000000
2.975100	20.633716	0.000000	0.000000	0.000000	0.050000	0.000000	3.700000	39.941851	-10.000000	0.000000	-125.456028	46.047779	-5.000000	0.000000
2.980050	20.633716	0.000000	0.000000	0.000000	0.050000	0.000000	3.700000	39.941851	-10.000000	0.000000	-125.456028	43.632133	-5.000000	0.000000
2.985000	20.633716	0.000000	0.000000	0.000000	0.050000	0.000000	3.700000	39.941851	-10.000000	0.000000	-125.456028	41.204949	-5.000000	0.000000
2.989950	20.633716	0.000000	0.000000	0.000000	0.050000	0.000000	3.700000	39.941851	-10.000000	0.000000	-125.456028	38.780750	-5.000000	0.000000
2.994900	20.633716	0.000000	0.000000	0.000000	0.050000	0.000000	3.700000	39.941851	-10.000000	0.000000	-125.456028	36.369367	-5.000000	0.000000
2.999850	20.633716	0.000000	0.000000	0.000000	0.050000	0.000000	3.700000	39.941851	-10.000000	0.000000	-125.456028	33.978217	-5.000000	0.000000
