kopru_tumbacak
version=1
nRows=607
nColumns=15
inDegrees=yes
endheader
time	sacrum_pitch	sacrum_roll	sacrum_yaw	sacrum_x	sacrum_y	sacrum_z	sacroiliac_flx	hip_flx	hip_add	hip_int	knee_flx	ankle_flx	ankle_add	ankle_int
0.000150	20.633716	0.000000	0.000000	0.000000	0.050000	0.000000	3.700000	37.200327	-10.000000	0.000000	-123.701329	13.976773	-5.000000	0.000000
0.005100	20.633716	0.000000	0.000000	0.000000	0.050000	0.000000	3.700000	37.002736	-10.000000	0.000000	-124.491140	12.325260	-5.000000	0.000000
0.010050	20.633716	0.000000	0.000000	0.000000	0.050000	0.000000	3.700000	36.725182	-10.000000	0.000000	-124.619957	11.678052	-5.000000	0.000000
0.015000	20.633716	0.000000	0.000000	0.000000	0.050000	0.000000	3.700000	36.494850	-10.000000	0.000000	-124.870633	11.360237	-5.000000	0.000000
0.019950	20.633716	0.000000	0.000000	0.000000	0.050000	0.000000	3.700000	36.173022	-10.000000	0.000000	-124.941426	11.365103	-5.000000	0.000000
0.024900	20.633716	0.000000	0.000000	0.000000	0.050000	0.000000	3.700000	35.901315	-10.000000	0.000000	-124.887364	11.391667	-5.000000	0.000000
0.029850	20.633716	0.000000	0.000000	0.000000	0.050000	0.000000	3.700000	35.602180	-10.000000	0.000000	-124.746105	10.957221	-5.000000	0.000000
0.034800	20.633716	0.000000	0.000000	0.000000	0.050000	0.000000	3.700000	35.311705	-10.000000	0.000000	-124.623839	10.735923	-5.000000	0.000000
0.039750	20.633716	0.000000	0.000000	0.000000	0.050000	0.000000	3.700000	35.031133	-10.000000	0.000000	-124.409262	10.483873	-5.000000	0.000000
0.044700	20.633716	0.000000	0.000000	0.000000	0.050000	0.000000	3.700000	34.749570	-10.000000	0.000000	-124.127484	10.321880	-5.000000	0.000000
0.049650	20.633716	0.000000	0.000000	0.000000	0.050000	0.000000	3.700000	34.478978	-10.000000	0.000000	-123.765821	10.182209	-5.000000	0.000000
0.054600	20.633716	0.000000	0.000000	0.000000	0.050000	0.000000	3.700000	34.208565	-10.000000	0.000000	-123.280043	10.018710	-5.000000	0.000000
0.059550	20.633716	0.000000	0.000000	0.000000	0.050000	0.000000	3.700000	33.943442	-10.000000	0.000000	-122.695999	9.831352	-5.000000	0.000000
0.064500	20.633716	0.000000	0.000000	0.000000	0.050000	0.000000	3.700000	33.687245	-10.000000	0.000000	-122.048808	9.653029	-5.000000	0.000000
0.069450	20.633716	0.000000	0.000000	0.000000	0.050000	0.000000	3.700000	33.437472	-10.000000	0.000000	-121.425361	9.610060	-5.000000	0.000000
0.074400	20.633716	0.000000	0.000000	0.000000	0.050000	0.000000	3.700000	33.219955	-10.000000	0.000000	-121.307281	9.913616	-5.000000	0.000000
0.079350	20.633716	0.000000	0.000000	0.000000	0.050000	0.000000	3.700000	32.988138	-10.000000	0.000000	-121.221162	10.170396	-5.000000	0.000000
0.084300	20.633716	0.000000	0.000000	0.000000	0.050000	0.000000	3.700000	32.757206	-10.000000	0.000000	-121.136794	10.218330	-5.000000	0.000000
0.089250	20.633716	0.000000	0.000000	0.000000	0.050000	0.000000	3.700000	32.528637	-10.000000	0.000000	-121.045462	10.214092	-5.000000	0.000000
0.094200	20.633716	0.000000	0.000000	0.000000	0.050000	0.000000	3.700000	32.305834	-10.000000	0.000000	-120.932446	10.176334	-5.000000	0.000000
0.099150	20.633716	0.000000	0.000000	0.000000	0.050000	0.000000	3.700000	32.088761	-10.000000	0.000000	-120.805622	10.150873	-5.000000	0.000000
0.104100	20.633716	0.000000	0.000000	0.000000	0.050000	0.000000	3.700000	31.877984	-10.000000	0.000000	-120.666103	10.127676	-5.000000	0.000000
0.109050	20.633716	0.000000	0.000000	0.000000	0.050000	0.000000	3.700000	31.672955	-10.000000	0.000000	-120.514194	10.109178	-5.000000	0.000000
0.114000	20.633716	0.000000	0.000000	0.000000	0.050000	0.000000	3.700000	31.472098	-10.000000	0.000000	-120.350273	10.112071	-5.000000	0.000000
0.118950	20.633716	0.000000	0.000000	0.000000	0.050000	0.000000	3.700000	31.275843	-10.000000	0.000000	-120.181593	10.144928	-5.000000	0.000000
0.123900	20.633716	0.000000	0.000000	0.000000	0.050000	0.000000	3.700000	31.081721	-10.000000	0.000000	-120.004292	10.232862	-5.000000	0.000000
0.128850	20.633716	0.000000	0.000000	0.000000	0.050000	0.000000	3.700000	30.886649	-10.000000	0.000000	-119.809184	10.403990	-5.000000	0.000000
0.133800	20.633716	0.000000	0.000000	0.000000	0.050000	0.000000	3.700000	30.687201	-10.000000	0.000000	-119.583506	10.685462	-5.000000	0.000000
0.138750	20.633716	0.000000	0.000000	0.000000	0.050000	0.000000	3.700000	30.480086	-10.000000	0.000000	-119.310988	11.076329	-5.000000	0.000000
0.143700	20.633716	0.000000	0.000000	0.000000	0.050000	0.000000	3.700000	30.264084	-10.000000	0.000000	-118.978042	11.554136	-5.000000	0.000000
0.148650	20.633716	0.000000	0.000000	0.000000	0.050000	0.000000	3.700000	30.040192	-10.000000	0.000000	-118.576693	12.084030	-5.000000	0.000000
0.153600	20.633716	0.000000	0.000000	0.000000	0.050000	0.000000	3.700000	29.806596	-10.000000	0.000000	-118.089852	12.638198	-5.000000	0.000000
0.158550	20.633716	0.000000	0.000000	0.000000	0.050000	0.000000	3.700000	29.563198	-10.000000	0.000000	-117.519144	13.206216	-5.000000	0.000000
0.163500	20.633716	0.000000	0.000000	0.000000	0.050000	0.000000	3.700000	29.307240	-10.000000	0.000000	-116.874798	13.781921	-5.000000	0.000000
0.168450	20.633716	0.000000	0.000000	0.000000	0.050000	0.000000	3.700000	29.033234	-10.000000	0.000000	-116.165075	14.359482	-5.000000	0.000000
0.173400	20.633716	0.000000	0.000000	0.000000	0.050000	0.000000	3.700000	28.726050	-10.000000	0.000000	-115.384130	14.931803	-5.000000	0.000000
0.178350	20.633716	0.000000	0.000000	0.000000	0.050000	0.000000	3.700000	28.386912	-10.000000	0.000000	-114.600603	14.932669	-5.000000	0.000000
0.183300	20.633716	0.000000	0.000000	0.000000	0.050000	0.000000	3.700000	28.019939	-10.000000	0.000000	-113.937912	14.652983	-5.000000	0.000000
0.188250	20.633716	0.000000	0.000000	0.000000	0.050000	0.000000	3.700000	27.587380	-10.000000	0.000000	-113.228577	14.231206	-5.000000	0.000000
0.193200	20.633716	0.000000	0.000000	0.000000	0.050000	0.000000	3.700000	27.070361	-10.000000	0.000000	-112.460127	13.745822	-5.000000	0.000000
0.198150	20.633716	0.000000	0.000000	0.000000	0.050000	0.000000	3.700000	26.449810	-10.000000	0.000000	-111.582968	13.089785	-5.000000	0.000000
0.203100	20.633716	0.000000	0.000000	0.000000	0.050000	0.000000	3.700000	25.707457	-10.000000	0.000000	-110.564567	12.258447	-5.000000	0.000000
0.208050	20.633716	0.000000	0.000000	0.000000	0.050000	0.000000	3.700000	24.828007	-10.000000	0.000000	-109.375904	11.188159	-5.000000	0.000000
0.213000	20.633716	0.000000	0.000000	0.000000	0.050000	0.000000	3.700000	23.802827	-10.000000	0.000000	-108.016325	9.828251	-5.000000	0.000000
0.217950	20.633716	0.000000	0.000000	0.000000	0.050000	0.000000	3.700000	22.633424	-10.000000	0.000000	-106.492618	8.102364	-5.000000	0.000000
0.222900	20.633716	0.000000	0.000000	0.000000	0.050000	0.000000	3.700000	21.283210	-10.000000	0.000000	-104.745559	6.037756	-5.000000	0.000000
0.227850	20.633716	0.000000	0.000000	0.000000	0.050000	0.000000	3.700000	19.761320	-10.000000	0.000000	-102.778676	3.680364	-5.000000	0.000000
0.232800	20.633716	0.000000	0.000000	0.000000	0.050000	0.000000	3.700000	18.045257	-10.000000	0.000000	-100.533665	1.014051	-5.000000	0.000000
0.237750	20.633716	0.000000	0.000000	0.000000	0.050000	0.000000	3.700000	16.130103	-10.000000	0.000000	-98.028915	-1.946187	-5.000000	0.000000
0.242700	20.633716	0.000000	0.000000	0.000000	0.050000	0.000000	3.700000	14.017822	-10.000000	0.000000	-95.292337	-5.384547	-5.000000	0.000000
0.247650	20.633716	0.000000	0.000000	0.000000	0.050000	0.000000	3.700000	11.701920	-10.000000	0.000000	-92.310646	-9.329664	-5.000000	0.000000
0.252600	20.633716	0.000000	0.000000	0.000000	0.050000	0.000000	3.700000	9.047899	-10.000000	0.000000	-91.488286	-13.107367	-5.000000	0.000000
0.257550	20.633716	0.000000	0.000000	0.000000	0.050000	0.000000	3.700000	4.889873	-10.000000	0.000000	-91.484592	-16.550120	-5.000000	0.000000
0.262500	20.633716	0.000000	0.000000	0.000000	0.050000	0.000000	3.700000	-1.057136	-10.000000	0.000000	-91.218463	-20.707465	-5.000000	0.000000
0.267450	20.633716	0.000000	0.000000	0.000000	0.050000	0.000000	3.700000	-8.500000	-10.000000	0.000000	-91.479025	-25.758101	-5.000000	0.000000
0.272400	20.633716	0.000000	0.000000	0.000000	0.050000	0.000000	3.700000	-8.557784	-10.000000	0.000000	-91.113812	-28.700344	-5.000000	0.000000
0.277350	20.633716	0.000000	0.000000	0.000000	0.050000	0.000000	3.700000	-8.500000	-10.000000	0.000000	-91.401315	-33.238045	-5.000000	0.000000
0.282300	20.633716	0.000000	0.000000	0.000000	0.050000	0.000000	3.700000	-8.835791	-10.000000	0.000000	-91.468916	-33.576927	-5.000000	0.000000
0.287250	20.633716	0.000000	0.000000	0.000000	0.050000	0.000000	3.700000	-8.624241	-10.000000	0.000000	-91.464837	-33.983175	-5.000000	0.000000
0.292200	20.633716	0.000000	0.000000	0.000000	0.050000	0.000000	3.700000	-8.514123	-10.000000	0.000000	-91.353121	-33.500000	-5.000000	0.000000
0.297150	20.633716	0.000000	0.000000	0.000000	0.050000	0.000000	3.700000	-8.933804	-10.000000	0.000000	-91.151399	-33.703867	-5.000000	0.000000
0.302100	20.633716	0.000000	0.000000	0.000000	0.050000	0.000000	3.700000	-8.701865	-10.000000	0.000000	-91.500000	-33.500000	-5.000000	0.000000
0.307050	20.633716	0.000000	0.000000	0.000000	0.050000	0.000000	3.700000	-8.551859	-10.000000	0.000000	-91.457039	-33.721313	-5.000000	0.000000
0.312000	20.633716	0.000000	0.000000	0.000000	0.050000	0.000000	3.700000	-8.500000	-10.000000	0.000000	-91.337169	-33.500000	-5.000000	0.000000
0.316950	20.633716	0.000000	0.000000	0.000000	0.050000	0.000000	3.700000	-8.772516	-10.000000	0.000000	-91.148505	-33.736724	-5.000000	0.000000
0.321900	20.633716	0.000000	0.000000	0.000000	0.050000	0.000000	3.700000	-8.511871	-10.000000	0.000000	-91.500000	-33.500000	-5.000000	0.000000
0.326850	20.633716	0.000000	0.000000	0.000000	0.050000	0.000000	3.700000	-8.544401	-10.000000	0.000000	-91.461494	-33.714269	-5.000000	0.000000
0.331800	20.633716	0.000000	0.000000	0.000000	0.050000	0.000000	3.700000	-8.594367	-10.000000	0.000000	-91.354112	-33.500000	-5.000000	0.000000
0.336750	20.633716	0.000000	0.000000	0.000000	0.050000	0.000000	3.700000	-8.657737	-10.000000	0.000000	-91.191036	-33.692914	-5.000000	0.000000
0.341700	20.633716	0.000000	0.000000	0.000000	0.050000	0.000000	3.700000	-8.731349	-10.000000	0.000000	-91.500000	-33.500000	-5.000000	0.000000
0.346650	20.633716	0.000000	0.000000	0.000000	0.050000	0.000000	3.700000	-8.810577	-10.000000	0.000000	-91.193344	-33.677467	-5.000000	0.000000
0.351600	20.633716	0.000000	0.000000	0.000000	0.050000	0.000000	3.700000	-8.904547	-10.000000	0.000000	-91.000546	-33.662650	-5.000000	0.000000
0.356550	20.633716	0.000000	0.000000	0.000000	0.050000	0.000000	3.700000	-8.906135	-10.000000	0.000000	-91.216255	-33.647152	-5.000000	0.000000
0.361500	20.633716	0.000000	0.000000	0.000000	0.050000	0.000000	3.700000	-8.808779	-10.000000	0.000000	-91.470958	-33.500000	-5.000000	0.000000
0.366450	20.633716	0.000000	0.000000	0.000000	0.050000	0.000000	3.700000	-8.793081	-10.000000	0.000000	-91.043337	-33.608869	-5.000000	0.000000
0.371400	20.633716	0.000000	0.000000	0.000000	0.050000	0.000000	3.700000	-8.577341	-10.000000	0.000000	-91.393168	-33.583746	-5.000000	0.000000
0.376350	20.633716	0.000000	0.000000	0.000000	0.050000	0.000000	3.700000	-8.500000	-10.000000	0.000000	-91.119233	-33.583661	-5.000000	0.000000
0.381300	20.633716	0.000000	0.000000	0.000000	0.050000	0.000000	3.700000	-8.676298	-10.000000	0.000000	-91.017577	-33.756541	-5.000000	0.000000
0.386250	20.633716	0.000000	0.000000	0.000000	0.050000	0.000000	3.700000	-8.869309	-10.000000	0.000000	-91.416589	-33.559326	-5.000000	0.000000
0.391200	20.633716	0.000000	0.000000	0.000000	0.050000	0.000000	3.700000	-8.889312	-10.000000	0.000000	-91.319657	-32.976158	-5.000000	0.000000
0.396150	20.633716	0.000000	0.000000	0.000000	0.050000	0.000000	3.700000	-8.796865	-10.000000	0.000000	-91.029275	-32.143072	-5.000000	0.000000
0.401100	20.633716	0.000000	0.000000	0.000000	0.050000	0.000000	3.700000	-8.576234	-10.000000	0.000000	-91.385377	-32.618647	-5.000000	0.000000
0.406050	20.633716	0.000000	0.000000	0.000000	0.050000	0.000000	3.700000	-8.803453	-10.000000	0.000000	-91.480461	-29.642137	-5.000000	0.000000
0.411000	20.633716	0.000000	0.000000	0.000000	0.050000	0.000000	3.700000	-8.867545	-10.000000	0.000000	-91.500000	-28.435137	-5.000000	0.000000
0.415950	20.633716	0.000000	0.000000	0.000000	0.050000	0.000000	3.700000	-8.618063	-10.000000	0.000000	-91.134080	-26.106548	-5.000000	0.000000
0.420900	20.633716	0.000000	0.000000	0.000000	0.050000	0.000000	3.700000	-8.864158	-10.000000	0.000000	-91.256457	-25.655418	-5.000000	0.000000
0.425850	20.633716	0.000000	0.000000	0.000000	0.050000	0.000000	3.700000	-8.816727	-10.000000	0.000000	-91.397006	-23.522277	-5.000000	0.000000
0.430800	20.633716	0.000000	0.000000	0.000000	0.050000	0.000000	3.700000	-8.592320	-10.000000	0.000000	-91.430460	-20.479411	-5.000000	0.000000
0.435750	20.633716	0.000000	0.000000	0.000000	0.050000	0.000000	3.700000	-8.326132	-10.000000	0.000000	-91.868808	-17.809541	-5.000000	0.000000
0.440700	20.633716	0.000000	0.000000	0.000000	0.050000	0.000000	3.700000	-7.931008	-10.000000	0.000000	-92.436230	-14.922183	-5.000000	0.000000
0.445650	20.633716	0.000000	0.000000	0.000000	0.050000	0.000000	3.700000	-7.360590	-10.000000	0.000000	-93.169594	-11.861051	-5.000000	0.000000
0.450600	20.633716	0.000000	0.000000	0.000000	0.050000	0.000000	3.700000	-6.584114	-10.000000	0.000000	-94.099504	-8.661811	-5.000000	0.000000
0.455550	20.633716	0.000000	0.000000	0.000000	0.050000	0.000000	3.700000	-5.587579	-10.000000	0.000000	-95.236560	-5.330452	-5.000000	0.000000
0.460500	20.633716	0.000000	0.000000	0.000000	0.050000	0.000000	3.700000	-4.368563	-10.000000	0.000000	-96.583943	-1.873770	-5.000000	0.000000
0.465450	20.633716	0.000000	0.000000	0.000000	0.050000	0.000000	3.700000	-2.940704	-10.000000	0.000000	-98.126377	1.699112	-5.000000	0.000000
0.470400	20.633716	0.000000	0.000000	0.000000	0.050000	0.000000	3.700000	-1.302131	-10.000000	0.000000	-99.864666	5.404759	-5.000000	0.000000
0.475350	20.633716	0.000000	0.000000	0.000000	0.050000	0.000000	3.700000	0.557031	-10.000000	0.000000	-101.806564	9.254071	-5.000000	0.000000
0.480300	20.633716	0.000000	0.000000	0.000000	0.050000	0.000000	3.700000	2.623859	-10.000000	0.000000	-103.930291	13.244809	-5.000000	0.000000
0.485250	20.633716	0.000000	0.000000	0.000000	0.050000	0.000000	3.700000	4.858637	-10.000000	0.000000	-106.188354	17.372226	-5.000000	0.000000
0.490200	20.633716	0.000000	0.000000	0.000000	0.050000	0.000000	3.700000	7.239396	-10.000000	0.000000	-108.550175	21.640689	-5.000000	0.000000
0.495150	20.633716	0.000000	0.000000	0.000000	0.050000	0.000000	3.700000	9.759117	-10.000000	0.000000	-111.001793	26.059369	-5.000000	0.000000
0.500100	20.633716	0.000000	0.000000	0.000000	0.050000	0.000000	3.700000	12.410410	-10.000000	0.000000	-113.684699	30.683606	-5.000000	0.000000
0.505050	20.633716	0.000000	0.000000	0.000000	0.050000	0.000000	3.700000	14.738127	-10.000000	0.000000	-116.148033	34.006035	-5.000000	0.000000
0.510000	20.633716	0.000000	0.000000	0.000000	0.050000	0.000000	3.700000	16.426182	-10.000000	0.000000	-118.073817	36.090327	-5.000000	0.000000
0.514950	20.633716	0.000000	0.000000	0.000000	0.050000	0.000000	3.700000	17.607689	-10.000000	0.000000	-119.498724	37.709994	-5.000000	0.000000
0.519900	20.633716	0.000000	0.000000	0.000000	0.050000	0.000000	3.700000	18.225024	-10.000000	0.000000	-120.377353	38.882652	-5.000000	0.000000
0.524850	20.633716	0.000000	0.000000	0.000000	0.050000	0.000000	3.700000	18.608481	-10.000000	0.000000	-121.008002	39.834029	-5.000000	0.000000
0.529800	20.633716	0.000000	0.000000	0.000000	0.050000	0.000000	3.700000	18.868298	-10.000000	0.000000	-121.487569	40.636501	-5.000000	0.000000
0.534750	20.633716	0.000000	0.000000	0.000000	0.050000	0.000000	3.700000	19.006270	-10.000000	0.000000	-121.814908	41.335927	-5.000000	0.000000
0.539700	20.633716	0.000000	0.000000	0.000000	0.050000	0.000000	3.700000	19.081343	-10.000000	0.000000	-122.045997	42.041652	-5.000000	0.000000
0.544650	20.633716	0.000000	0.000000	0.000000	0.050000	0.000000	3.700000	19.094984	-10.000000	0.000000	-122.179545	42.800619	-5.000000	0.000000
0.549600	20.633716	0.000000	0.000000	0.000000	0.050000	0.000000	3.700000	19.050456	-10.000000	0.000000	-122.213954	43.632984	-5.000000	0.000000
0.554550	20.633716	0.000000	0.000000	0.000000	0.050000	0.000000	3.700000	18.960478	-10.000000	0.000000	-122.164134	44.488908	-5.000000	0.000000
0.559500	20.633716	0.000000	0.000000	0.000000	0.050000	0.000000	3.700000	18.847052	-10.000000	0.000000	-122.069207	44.943088	-5.000000	0.000000
0.564450	20.633716	0.000000	0.000000	0.000000	0.050000	0.000000	3.700000	18.716958	-10.000000	0.000000	-121.954363	45.025698	-5.000000	0.000000
0.569400	20.633716	0.000000	0.000000	0.000000	0.050000	0.000000	3.700000	18.553204	-10.000000	0.000000	-121.794331	44.979269	-5.000000	0.000000
0.574350	20.633716	0.000000	0.000000	0.000000	0.050000	0.000000	3.700000	18.344777	-10.000000	0.000000	-121.579345	44.854031	-5.000000	0.000000
0.579300	20.633716	0.000000	0.000000	0.000000	0.050000	0.000000	3.700000	18.079719	-10.000000	0.000000	-121.295584	44.659490	-5.000000	0.000000
0.584250	20.633716	0.000000	0.000000	0.000000	0.050000	0.000000	3.700000	17.743967	-10.000000	0.000000	-120.928948	44.385538	-5.000000	0.000000
0.589200	20.633716	0.000000	0.000000	0.000000	0.050000	0.000000	3.700000	17.317734	-10.000000	0.000000	-120.459780	44.006364	-5.000000	0.000000
0.594150	20.633716	0.000000	0.000000	0.000000	0.050000	0.000000	3.700000	16.778850	-10.000000	0.000000	-119.868164	43.467288	-5.000000	0.000000
0.599100	20.633716	0.000000	0.000000	0.000000	0.050000	0.000000	3.700000	16.105812	-10.000000	0.000000	-119.130642	42.570220	-5.000000	0.000000
0.604050	20.633716	0.000000	0.000000	0.000000	0.050000	0.000000	3.700000	15.278140	-10.000000	0.000000	-118.216952	41.292394	-5.000000	0.000000
0.609000	20.633716	0.000000	0.000000	0.000000	0.050000	0.000000	3.700000	14.283942	-10.000000	0.000000	-117.111780	39.725235	-5.000000	0.000000
0.613950	20.633716	0.000000	0.000000	0.000000	0.050000	0.000000	3.700000	13.119150	-10.000000	0.000000	-115.819581	37.931999	-5.000000	0.000000
0.618900	20.633716	0.000000	0.000000	0.000000	0.050000	0.000000	3.700000	11.785377	-10.000000	0.000000	-114.348055	35.934764	-5.000000	0.000000
0.623850	20.633716	0.000000	0.000000	0.000000	0.050000	0.000000	3.700000	10.300933	-10.000000	0.000000	-112.718323	33.793869	-5.000000	0.000000
0.628800	20.633716	0.000000	0.000000	0.000000	0.050000	0.000000	3.700000	8.629321	-10.000000	0.000000	-110.891468	31.471826	-5.000000	0.000000
0.633750	20.633716	0.000000	0.000000	0.000000	0.050000	0.000000	3.700000	6.774987	-10.000000	0.000000	-108.876864	28.973561	-5.000000	0.000000
0.638700	20.633716	0.000000	0.000000	0.000000	0.050000	0.000000	3.700000	4.723940	-10.000000	0.000000	-106.638135	26.257142	-5.000000	0.000000
0.643650	20.633716	0.000000	0.000000	0.000000	0.050000	0.000000	3.700000	2.465048	-10.000000	0.000000	-104.153320	23.165464	-5.000000	0.000000
0.648600	20.633716	0.000000	0.000000	0.000000	0.050000	0.000000	3.700000	-0.022225	-10.000000	0.000000	-101.374856	19.683998	-5.000000	0.000000
0.653550	20.633716	0.000000	0.000000	0.000000	0.050000	0.000000	3.700000	-2.765559	-10.000000	0.000000	-98.246622	15.853789	-5.000000	0.000000
0.658500	20.633716	0.000000	0.000000	0.000000	0.050000	0.000000	3.700000	-5.768992	-10.000000	0.000000	-94.809448	11.743796	-5.000000	0.000000
0.663450	20.633716	0.000000	0.000000	0.000000	0.050000	0.000000	3.700000	-8.500000	-10.000000	0.000000	-91.052662	7.326553	-5.000000	0.000000
0.668400	20.633716	0.000000	0.000000	0.000000	0.050000	0.000000	3.700000	-8.512653	-10.000000	0.000000	-91.228887	5.465987	-5.000000	0.000000
0.673350	20.633716	0.000000	0.000000	0.000000	0.050000	0.000000	3.700000	-8.926123	-10.000000	0.000000	-91.413657	3.174999	-5.000000	0.000000
0.678300	20.633716	0.000000	0.000000	0.000000	0.050000	0.000000	3.700000	-8.716646	-10.000000	0.000000	-91.500000	0.322683	-5.000000	0.000000
0.683250	20.633716	0.000000	0.000000	0.000000	0.050000	0.000000	3.700000	-8.559205	-10.000000	0.000000	-91.288435	-2.793137	-5.000000	0.000000
0.688200	20.633716	0.000000	0.000000	0.000000	0.050000	0.000000	3.700000	-8.500000	-10.000000	0.000000	-91.475536	-5.925953	-5.000000	0.000000
0.693150	20.633716	0.000000	0.000000	0.000000	0.050000	0.000000	3.700000	-8.848806	-10.000000	0.000000	-91.081820	-9.277151	-5.000000	0.000000
0.698100	20.633716	0.000000	0.000000	0.000000	0.050000	0.000000	3.700000	-8.632504	-10.000000	0.000000	-91.392747	-12.148551	-5.000000	0.000000
0.703050	20.633716	0.000000	0.000000	0.000000	0.050000	0.000000	3.700000	-8.515620	-10.000000	0.000000	-91.500000	-14.948071	-5.000000	0.000000
0.708000	20.633716	0.000000	0.000000	0.000000	0.050000	0.000000	3.700000	-8.971394	-10.000000	0.000000	-91.282440	-16.679590	-5.000000	0.000000
0.712950	20.633716	0.000000	0.000000	0.000000	0.050000	0.000000	3.700000	-8.710821	-10.000000	0.000000	-91.040574	-18.213794	-5.000000	0.000000
0.717900	20.633716	0.000000	0.000000	0.000000	0.050000	0.000000	3.700000	-8.551384	-10.000000	0.000000	-91.175224	-19.750297	-5.000000	0.000000
0.722850	20.633716	0.000000	0.000000	0.000000	0.050000	0.000000	3.700000	-8.500000	-10.000000	0.000000	-91.300236	-21.194008	-5.000000	0.000000
0.727800	20.633716	0.000000	0.000000	0.000000	0.050000	0.000000	3.700000	-8.675328	-10.000000	0.000000	-91.477943	-22.503868	-5.000000	0.000000
0.732750	20.633716	0.000000	0.000000	0.000000	0.050000	0.000000	3.700000	-8.881772	-10.000000	0.000000	-91.500000	-23.551147	-5.000000	0.000000
0.737700	20.633716	0.000000	0.000000	0.000000	0.050000	0.000000	3.700000	-8.952912	-10.000000	0.000000	-91.162088	-25.011923	-5.000000	0.000000
0.742650	20.633716	0.000000	0.000000	0.000000	0.050000	0.000000	3.700000	-8.500000	-10.000000	0.000000	-91.290643	-25.351838	-5.000000	0.000000
0.747600	20.633716	0.000000	0.000000	0.000000	0.050000	0.000000	3.700000	-8.510842	-10.000000	0.000000	-91.418479	-26.677531	-5.000000	0.000000
0.752550	20.633716	0.000000	0.000000	0.000000	0.050000	0.000000	3.700000	-8.538997	-10.000000	0.000000	-91.035891	-27.515785	-5.000000	0.000000
0.757500	20.633716	0.000000	0.000000	0.000000	0.050000	0.000000	3.700000	-8.587785	-10.000000	0.000000	-91.237383	-28.229370	-5.000000	0.000000
0.762450	20.633716	0.000000	0.000000	0.000000	0.050000	0.000000	3.700000	-8.541286	-10.000000	0.000000	-91.445702	-29.761274	-5.000000	0.000000
0.767400	20.633716	0.000000	0.000000	0.000000	0.050000	0.000000	3.700000	-8.500000	-10.000000	0.000000	-91.166898	-29.770881	-5.000000	0.000000
0.772350	20.633716	0.000000	0.000000	0.000000	0.050000	0.000000	3.700000	-8.763004	-10.000000	0.000000	-91.500000	-29.511330	-5.000000	0.000000
0.777300	20.633716	0.000000	0.000000	0.000000	0.050000	0.000000	3.700000	-8.500000	-10.000000	0.000000	-91.483233	-30.678549	-5.000000	0.000000
0.782250	20.633716	0.000000	0.000000	0.000000	0.050000	0.000000	3.700000	-8.525950	-10.000000	0.000000	-91.120716	-30.774675	-5.000000	0.000000
0.787200	20.633716	0.000000	0.000000	0.000000	0.050000	0.000000	3.700000	-8.505750	-10.000000	0.000000	-91.097374	-30.525339	-5.000000	0.000000
0.792150	20.633716	0.000000	0.000000	0.000000	0.050000	0.000000	3.700000	-8.818282	-10.000000	0.000000	-91.159181	-28.971495	-5.000000	0.000000
0.797100	20.633716	0.000000	0.000000	0.000000	0.050000	0.000000	3.700000	-8.511588	-10.000000	0.000000	-91.500000	-29.419282	-5.000000	0.000000
0.802050	20.633716	0.000000	0.000000	0.000000	0.050000	0.000000	3.700000	-8.948117	-10.000000	0.000000	-91.041352	-30.149761	-5.000000	0.000000
0.807000	20.633716	0.000000	0.000000	0.000000	0.050000	0.000000	3.700000	-8.977175	-10.000000	0.000000	-91.199696	-29.876227	-5.000000	0.000000
0.811950	20.633716	0.000000	0.000000	0.000000	0.050000	0.000000	3.700000	-8.858924	-10.000000	0.000000	-91.275553	-29.219636	-5.000000	0.000000
0.816900	20.633716	0.000000	0.000000	0.000000	0.050000	0.000000	3.700000	-8.770156	-10.000000	0.000000	-91.325790	-28.865500	-5.000000	0.000000
0.821850	20.633716	0.000000	0.000000	0.000000	0.050000	0.000000	3.700000	-8.579214	-10.000000	0.000000	-91.747911	-28.275785	-5.000000	0.000000
0.826800	20.633716	0.000000	0.000000	0.000000	0.050000	0.000000	3.700000	-8.276576	-10.000000	0.000000	-92.301724	-27.283986	-5.000000	0.000000
0.831750	20.633716	0.000000	0.000000	0.000000	0.050000	0.000000	3.700000	-7.825523	-10.000000	0.000000	-93.011814	-26.062265	-5.000000	0.000000
0.836700	20.633716	0.000000	0.000000	0.000000	0.050000	0.000000	3.700000	-7.185926	-10.000000	0.000000	-93.900652	-24.600051	-5.000000	0.000000
0.841650	20.633716	0.000000	0.000000	0.000000	0.050000	0.000000	3.700000	-6.336464	-10.000000	0.000000	-94.991004	-23.068206	-5.000000	0.000000
0.846600	20.633716	0.000000	0.000000	0.000000	0.050000	0.000000	3.700000	-5.260720	-10.000000	0.000000	-96.265151	-21.160242	-5.000000	0.000000
0.851550	20.633716	0.000000	0.000000	0.000000	0.050000	0.000000	3.700000	-3.938847	-10.000000	0.000000	-97.782337	-19.085490	-5.000000	0.000000
0.856500	20.633716	0.000000	0.000000	0.000000	0.050000	0.000000	3.700000	-2.405378	-10.000000	0.000000	-99.499587	-16.818659	-5.000000	0.000000
0.861450	20.633716	0.000000	0.000000	0.000000	0.050000	0.000000	3.700000	-0.655322	-10.000000	0.000000	-101.420866	-14.373946	-5.000000	0.000000
0.866400	20.633716	0.000000	0.000000	0.000000	0.050000	0.000000	3.700000	1.307973	-10.000000	0.000000	-103.538096	-11.767744	-5.000000	0.000000
0.871350	20.633716	0.000000	0.000000	0.000000	0.050000	0.000000	3.700000	3.452357	-10.000000	0.000000	-105.892948	-8.985565	-5.000000	0.000000
0.876300	20.633716	0.000000	0.000000	0.000000	0.050000	0.000000	3.700000	5.745430	-10.000000	0.000000	-108.506324	-6.067137	-5.000000	0.000000
0.881250	20.633716	0.000000	0.000000	0.000000	0.050000	0.000000	3.700000	8.170805	-10.000000	0.000000	-111.271396	-3.041996	-5.000000	0.000000
0.886200	20.633716	0.000000	0.000000	0.000000	0.050000	0.000000	3.700000	10.740833	-10.000000	0.000000	-114.152255	0.088730	-5.000000	0.000000
0.891150	20.633716	0.000000	0.000000	0.000000	0.050000	0.000000	3.700000	13.125299	-10.000000	0.000000	-116.797524	2.757781	-5.000000	0.000000
0.896100	20.633716	0.000000	0.000000	0.000000	0.050000	0.000000	3.700000	14.799940	-10.000000	0.000000	-118.746339	4.471367	-5.000000	0.000000
0.901050	20.633716	0.000000	0.000000	0.000000	0.050000	0.000000	3.700000	16.065298	-10.000000	0.000000	-120.270643	5.803546	-5.000000	0.000000
0.906000	20.633716	0.000000	0.000000	0.000000	0.050000	0.000000	3.700000	16.664200	-10.000000	0.000000	-121.131833	6.687585	-5.000000	0.000000
0.910950	20.633716	0.000000	0.000000	0.000000	0.050000	0.000000	3.700000	17.071522	-10.000000	0.000000	-121.770958	7.412936	-5.000000	0.000000
0.915900	20.633716	0.000000	0.000000	0.000000	0.050000	0.000000	3.700000	17.319228	-10.000000	0.000000	-122.217426	7.999198	-5.000000	0.000000
0.920850	20.633716	0.000000	0.000000	0.000000	0.050000	0.000000	3.700000	17.457104	-10.000000	0.000000	-122.521755	8.486904	-5.000000	0.000000
0.925800	20.633716	0.000000	0.000000	0.000000	0.050000	0.000000	3.700000	17.529479	-10.000000	0.000000	-122.728271	8.937371	-5.000000	0.000000
0.930750	20.633716	0.000000	0.000000	0.000000	0.050000	0.000000	3.700000	17.545480	-10.000000	0.000000	-122.847419	9.406265	-5.000000	0.000000
0.935700	20.633716	0.000000	0.000000	0.000000	0.050000	0.000000	3.700000	17.507094	-10.000000	0.000000	-122.876867	9.942493	-5.000000	0.000000
0.940650	20.633716	0.000000	0.000000	0.000000	0.050000	0.000000	3.700000	17.422048	-10.000000	0.000000	-122.820495	10.603391	-5.000000	0.000000
0.945600	20.633716	0.000000	0.000000	0.000000	0.050000	0.000000	3.700000	17.302164	-10.000000	0.000000	-122.698635	11.339306	-5.000000	0.000000
0.950550	20.633716	0.000000	0.000000	0.000000	0.050000	0.000000	3.700000	17.151648	-10.000000	0.000000	-122.517539	12.105571	-5.000000	0.000000
0.955500	20.633716	0.000000	0.000000	0.000000	0.050000	0.000000	3.700000	16.974299	-10.000000	0.000000	-122.278328	12.417368	-5.000000	0.000000
0.960450	20.633716	0.000000	0.000000	0.000000	0.050000	0.000000	3.700000	16.771530	-10.000000	0.000000	-122.004670	12.384104	-5.000000	0.000000
0.965400	20.633716	0.000000	0.000000	0.000000	0.050000	0.000000	3.700000	16.527206	-10.000000	0.000000	-121.664092	12.189941	-5.000000	0.000000
0.970350	20.633716	0.000000	0.000000	0.000000	0.050000	0.000000	3.700000	16.226502	-10.000000	0.000000	-121.246864	11.940903	-5.000000	0.000000
0.975300	20.633716	0.000000	0.000000	0.000000	0.050000	0.000000	3.700000	15.853195	-10.000000	0.000000	-120.730878	11.574536	-5.000000	0.000000
0.980250	20.633716	0.000000	0.000000	0.000000	0.050000	0.000000	3.700000	15.383154	-10.000000	0.000000	-120.091555	11.080839	-5.000000	0.000000
0.985200	20.633716	0.000000	0.000000	0.000000	0.050000	0.000000	3.700000	14.790855	-10.000000	0.000000	-119.296673	10.416158	-5.000000	0.000000
0.990150	20.633716	0.000000	0.000000	0.000000	0.050000	0.000000	3.700000	14.056903	-10.000000	0.000000	-118.323604	9.518061	-5.000000	0.000000
0.995100	20.633716	0.000000	0.000000	0.000000	0.050000	0.000000	3.700000	13.163433	-10.000000	0.000000	-117.146210	8.203971	-5.000000	0.000000
1.000050	20.633716	0.000000	0.000000	0.000000	0.050000	0.000000	3.700000	12.099507	-10.000000	0.000000	-115.759267	6.525742	-5.000000	0.000000
1.005000	20.633716	0.000000	0.000000	0.000000	0.050000	0.000000	3.700000	10.888236	-10.000000	0.000000	-114.203730	4.583273	-5.000000	0.000000
1.009950	20.633716	0.000000	0.000000	0.000000	0.050000	0.000000	3.700000	9.490308	-10.000000	0.000000	-112.431027	2.376606	-5.000000	0.000000
1.014900	20.633716	0.000000	0.000000	0.000000	0.050000	0.000000	3.700000	7.913007	-10.000000	0.000000	-110.467356	-0.061339	-5.000000	0.000000
1.019850	20.633716	0.000000	0.000000	0.000000	0.050000	0.000000	3.700000	6.150318	-10.000000	0.000000	-108.301002	-2.739549	-5.000000	0.000000
1.024800	20.633716	0.000000	0.000000	0.000000	0.050000	0.000000	3.700000	4.190476	-10.000000	0.000000	-105.899380	-5.680918	-5.000000	0.000000
1.029750	20.633716	0.000000	0.000000	0.000000	0.050000	0.000000	3.700000	2.017829	-10.000000	0.000000	-103.226040	-8.933262	-5.000000	0.000000
1.034700	20.633716	0.000000	0.000000	0.000000	0.050000	0.000000	3.700000	-0.395397	-10.000000	0.000000	-100.213181	-12.575987	-5.000000	0.000000
1.039650	20.633716	0.000000	0.000000	0.000000	0.050000	0.000000	3.700000	-3.062329	-10.000000	0.000000	-96.872628	-16.841805	-5.000000	0.000000
1.044600	20.633716	0.000000	0.000000	0.000000	0.050000	0.000000	3.700000	-5.995867	-10.000000	0.000000	-93.222882	-21.757639	-5.000000	0.000000
1.049550	20.633716	0.000000	0.000000	0.000000	0.050000	0.000000	3.700000	-8.536414	-10.000000	0.000000	-91.109433	-27.333728	-5.000000	0.000000
1.054500	20.633716	0.000000	0.000000	0.000000	0.050000	0.000000	3.700000	-8.686641	-10.000000	0.000000	-91.415726	-29.403663	-5.000000	0.000000
1.059450	20.633716	0.000000	0.000000	0.000000	0.050000	0.000000	3.700000	-8.554420	-10.000000	0.000000	-91.306764	-33.530530	-5.000000	0.000000
1.064400	20.633716	0.000000	0.000000	0.000000	0.050000	0.000000	3.700000	-8.500000	-10.000000	0.000000	-91.471748	-33.500000	-5.000000	0.000000
1.069350	20.633716	0.000000	0.000000	0.000000	0.050000	0.000000	3.700000	-8.808440	-10.000000	0.000000	-91.466037	-33.636084	-5.000000	0.000000
1.074300	20.633716	0.000000	0.000000	0.000000	0.050000	0.000000	3.700000	-8.613041	-10.000000	0.000000	-91.353120	-33.667169	-5.000000	0.000000
1.079250	20.633716	0.000000	0.000000	0.000000	0.050000	0.000000	3.700000	-8.513349	-10.000000	0.000000	-91.160993	-33.500000	-5.000000	0.000000
1.084200	20.633716	0.000000	0.000000	0.000000	0.050000	0.000000	3.700000	-8.908602	-10.000000	0.000000	-91.500000	-33.734527	-5.000000	0.000000
1.089150	20.633716	0.000000	0.000000	0.000000	0.050000	0.000000	3.700000	-8.689756	-10.000000	0.000000	-91.459029	-33.500000	-5.000000	0.000000
1.094100	20.633716	0.000000	0.000000	0.000000	0.050000	0.000000	3.700000	-8.548801	-10.000000	0.000000	-91.343086	-33.726388	-5.000000	0.000000
1.099050	20.633716	0.000000	0.000000	0.000000	0.050000	0.000000	3.700000	-8.672663	-10.000000	0.000000	-91.151011	-33.500000	-5.000000	0.000000
1.104000	20.633716	0.000000	0.000000	0.000000	0.050000	0.000000	3.700000	-8.747926	-10.000000	0.000000	-91.500000	-33.736696	-5.000000	0.000000
1.108950	20.633716	0.000000	0.000000	0.000000	0.050000	0.000000	3.700000	-8.829071	-10.000000	0.000000	-91.461940	-33.500000	-5.000000	0.000000
1.113900	20.633716	0.000000	0.000000	0.000000	0.050000	0.000000	3.700000	-8.912698	-10.000000	0.000000	-91.351491	-33.744612	-5.000000	0.000000
1.118850	20.633716	0.000000	0.000000	0.000000	0.050000	0.000000	3.700000	-8.998302	-10.000000	0.000000	-91.176153	-33.500000	-5.000000	0.000000
1.123800	20.633716	0.000000	0.000000	0.000000	0.050000	0.000000	3.700000	-8.894829	-10.000000	0.000000	-91.356332	-33.723240	-5.000000	0.000000
1.128750	20.633716	0.000000	0.000000	0.000000	0.050000	0.000000	3.700000	-8.718021	-10.000000	0.000000	-91.500000	-33.500000	-5.000000	0.000000
1.133700	20.633716	0.000000	0.000000	0.000000	0.050000	0.000000	3.700000	-8.538792	-10.000000	0.000000	-91.382833	-33.661463	-5.000000	0.000000
1.138650	20.633716	0.000000	0.000000	0.000000	0.050000	0.000000	3.700000	-8.978677	-10.000000	0.000000	-91.206613	-33.500000	-5.000000	0.000000
1.143600	20.633716	0.000000	0.000000	0.000000	0.050000	0.000000	3.700000	-8.707556	-10.000000	0.000000	-91.500000	-33.500000	-5.000000	0.000000
1.148550	20.633716	0.000000	0.000000	0.000000	0.050000	0.000000	3.700000	-8.534043	-10.000000	0.000000	-91.030375	-33.925660	-5.000000	0.000000
1.153500	20.633716	0.000000	0.000000	0.000000	0.050000	0.000000	3.700000	-8.928957	-10.000000	0.000000	-91.376150	-33.500000	-5.000000	0.000000
1.158450	20.633716	0.000000	0.000000	0.000000	0.050000	0.000000	3.700000	-8.680086	-10.000000	0.000000	-91.001875	-33.500000	-5.000000	0.000000
1.163400	20.633716	0.000000	0.000000	0.000000	0.050000	0.000000	3.700000	-8.860506	-10.000000	0.000000	-91.404544	-33.600388	-5.000000	0.000000
1.168350	20.633716	0.000000	0.000000	0.000000	0.050000	0.000000	3.700000	-8.902783	-10.000000	0.000000	-91.414780	-33.586126	-5.000000	0.000000
1.173300	20.633716	0.000000	0.000000	0.000000	0.050000	0.000000	3.700000	-8.786959	-10.000000	0.000000	-91.067196	-33.548797	-5.000000	0.000000
1.178250	20.633716	0.000000	0.000000	0.000000	0.050000	0.000000	3.700000	-8.580553	-10.000000	0.000000	-91.260874	-33.496002	-5.000000	0.000000
1.183200	20.633716	0.000000	0.000000	0.000000	0.050000	0.000000	3.700000	-8.795489	-10.000000	0.000000	-91.440353	-33.500000	-5.000000	0.000000
1.188150	20.633716	0.000000	0.000000	0.000000	0.050000	0.000000	3.700000	-8.848218	-10.000000	0.000000	-91.485147	-33.207137	-5.000000	0.000000
1.193100	20.633716	0.000000	0.000000	0.000000	0.050000	0.000000	3.700000	-8.629904	-10.000000	0.000000	-91.076686	-30.601747	-5.000000	0.000000
1.198050	20.633716	0.000000	0.000000	0.000000	0.050000	0.000000	3.700000	-8.916542	-10.000000	0.000000	-91.196588	-31.098131	-5.000000	0.000000
1.203000	20.633716	0.000000	0.000000	0.000000	0.050000	0.000000	3.700000	-8.864424	-10.000000	0.000000	-91.408337	-29.782264	-5.000000	0.000000
1.207950	20.633716	0.000000	0.000000	0.000000	0.050000	0.000000	3.700000	-8.695606	-10.000000	0.000000	-91.460658	-27.726213	-5.000000	0.000000
1.212900	20.633716	0.000000	0.000000	0.000000	0.050000	0.000000	3.700000	-8.448466	-10.000000	0.000000	-91.942290	-26.050041	-5.000000	0.000000
1.217850	20.633716	0.000000	0.000000	0.000000	0.050000	0.000000	3.700000	-8.096464	-10.000000	0.000000	-92.520932	-23.990129	-5.000000	0.000000
1.222800	20.633716	0.000000	0.000000	0.000000	0.050000	0.000000	3.700000	-7.587652	-10.000000	0.000000	-93.245759	-21.828457	-5.000000	0.000000
1.227750	20.633716	0.000000	0.000000	0.000000	0.050000	0.000000	3.700000	-6.863499	-10.000000	0.000000	-94.170389	-19.391818	-5.000000	0.000000
1.232700	20.633716	0.000000	0.000000	0.000000	0.050000	0.000000	3.700000	-5.923135	-10.000000	0.000000	-95.293366	-16.749156	-5.000000	0.000000
1.237650	20.633716	0.000000	0.000000	0.000000	0.050000	0.000000	3.700000	-4.751792	-10.000000	0.000000	-96.632826	-13.932111	-5.000000	0.000000
1.242600	20.633716	0.000000	0.000000	0.000000	0.050000	0.000000	3.700000	-3.361719	-10.000000	0.000000	-98.178320	-10.964545	-5.000000	0.000000
1.247550	20.633716	0.000000	0.000000	0.000000	0.050000	0.000000	3.700000	-1.760049	-10.000000	0.000000	-99.927098	-7.856264	-5.000000	0.000000
1.252500	20.633716	0.000000	0.000000	0.000000	0.050000	0.000000	3.700000	0.070213	-10.000000	0.000000	-102.021295	-4.585871	-5.000000	0.000000
1.257450	20.633716	0.000000	0.000000	0.000000	0.050000	0.000000	3.700000	2.115135	-10.000000	0.000000	-104.409861	-1.196797	-5.000000	0.000000
1.262400	20.633716	0.000000	0.000000	0.000000	0.050000	0.000000	3.700000	4.337667	-10.000000	0.000000	-106.998447	2.296603	-5.000000	0.000000
1.267350	20.633716	0.000000	0.000000	0.000000	0.050000	0.000000	3.700000	6.698141	-10.000000	0.000000	-109.711559	5.906555	-5.000000	0.000000
1.272300	20.633716	0.000000	0.000000	0.000000	0.050000	0.000000	3.700000	9.187014	-10.000000	0.000000	-112.515086	9.646890	-5.000000	0.000000
1.277250	20.633716	0.000000	0.000000	0.000000	0.050000	0.000000	3.700000	11.553508	-10.000000	0.000000	-115.144440	12.861723	-5.000000	0.000000
1.282200	20.633716	0.000000	0.000000	0.000000	0.050000	0.000000	3.700000	13.226172	-10.000000	0.000000	-117.096746	14.802854	-5.000000	0.000000
1.287150	20.633716	0.000000	0.000000	0.000000	0.050000	0.000000	3.700000	14.525397	-10.000000	0.000000	-118.657025	16.323706	-5.000000	0.000000
1.292100	20.633716	0.000000	0.000000	0.000000	0.050000	0.000000	3.700000	15.119497	-10.000000	0.000000	-119.511314	17.303592	-5.000000	0.000000
1.297050	20.633716	0.000000	0.000000	0.000000	0.050000	0.000000	3.700000	15.539922	-10.000000	0.000000	-120.162428	18.116072	-5.000000	0.000000
1.302000	20.633716	0.000000	0.000000	0.000000	0.050000	0.000000	3.700000	15.783399	-10.000000	0.000000	-120.604134	18.775201	-5.000000	0.000000
1.306950	20.633716	0.000000	0.000000	0.000000	0.050000	0.000000	3.700000	15.924863	-10.000000	0.000000	-120.906805	19.336873	-5.000000	0.000000
1.311900	20.633716	0.000000	0.000000	0.000000	0.050000	0.000000	3.700000	15.995737	-10.000000	0.000000	-121.104691	19.909640	-5.000000	0.000000
1.316850	20.633716	0.000000	0.000000	0.000000	0.050000	0.000000	3.700000	16.007163	-10.000000	0.000000	-121.206710	20.537772	-5.000000	0.000000
1.321800	20.633716	0.000000	0.000000	0.000000	0.050000	0.000000	3.700000	15.957079	-10.000000	0.000000	-121.205548	21.275694	-5.000000	0.000000
1.326750	20.633716	0.000000	0.000000	0.000000	0.050000	0.000000	3.700000	15.858864	-10.000000	0.000000	-121.117369	22.081407	-5.000000	0.000000
1.331700	20.633716	0.000000	0.000000	0.000000	0.050000	0.000000	3.700000	15.725390	-10.000000	0.000000	-120.967002	22.913694	-5.000000	0.000000
1.336650	20.633716	0.000000	0.000000	0.000000	0.050000	0.000000	3.700000	15.558352	-10.000000	0.000000	-120.744960	23.764684	-5.000000	0.000000
1.341600	20.633716	0.000000	0.000000	0.000000	0.050000	0.000000	3.700000	15.366087	-10.000000	0.000000	-120.460794	24.131125	-5.000000	0.000000
1.346550	20.633716	0.000000	0.000000	0.000000	0.050000	0.000000	3.700000	15.153893	-10.000000	0.000000	-120.152503	24.111937	-5.000000	0.000000
1.351500	20.633716	0.000000	0.000000	0.000000	0.050000	0.000000	3.700000	14.902415	-10.000000	0.000000	-119.784393	23.945736	-5.000000	0.000000
1.356450	20.633716	0.000000	0.000000	0.000000	0.050000	0.000000	3.700000	14.597545	-10.000000	0.000000	-119.342491	23.695492	-5.000000	0.000000
1.361400	20.633716	0.000000	0.000000	0.000000	0.050000	0.000000	3.700000	14.223024	-10.000000	0.000000	-118.810966	23.361073	-5.000000	0.000000
1.366350	20.633716	0.000000	0.000000	0.000000	0.050000	0.000000	3.700000	13.758162	-10.000000	0.000000	-118.172480	22.923804	-5.000000	0.000000
1.371300	20.633716	0.000000	0.000000	0.000000	0.050000	0.000000	3.700000	13.176461	-10.000000	0.000000	-117.390983	22.347732	-5.000000	0.000000
1.376250	20.633716	0.000000	0.000000	0.000000	0.050000	0.000000	3.700000	12.458893	-10.000000	0.000000	-116.445029	21.581903	-5.000000	0.000000
1.381200	20.633716	0.000000	0.000000	0.000000	0.050000	0.000000	3.700000	11.606777	-10.000000	0.000000	-115.332055	20.441798	-5.000000	0.000000
1.386150	20.633716	0.000000	0.000000	0.000000	0.050000	0.000000	3.700000	10.582387	-10.000000	0.000000	-114.006142	18.914614	-5.000000	0.000000
1.391100	20.633716	0.000000	0.000000	0.000000	0.050000	0.000000	3.700000	9.393307	-10.000000	0.000000	-112.492962	17.117131	-5.000000	0.000000
1.396050	20.633716	0.000000	0.000000	0.000000	0.050000	0.000000	3.700000	8.030638	-10.000000	0.000000	-110.785929	15.078471	-5.000000	0.000000
1.401000	20.633716	0.000000	0.000000	0.000000	0.050000	0.000000	3.700000	6.490217	-10.000000	0.000000	-108.886633	12.822149	-5.000000	0.000000
1.405950	20.633716	0.000000	0.000000	0.000000	0.050000	0.000000	3.700000	4.762295	-10.000000	0.000000	-106.770657	10.339960	-5.000000	0.000000
1.410900	20.633716	0.000000	0.000000	0.000000	0.050000	0.000000	3.700000	2.833697	-10.000000	0.000000	-104.407811	7.615316	-5.000000	0.000000
1.415850	20.633716	0.000000	0.000000	0.000000	0.050000	0.000000	3.700000	0.686839	-10.000000	0.000000	-101.758830	4.621193	-5.000000	0.000000
1.420800	20.633716	0.000000	0.000000	0.000000	0.050000	0.000000	3.700000	-1.705760	-10.000000	0.000000	-98.766078	1.309574	-5.000000	0.000000
1.425750	20.633716	0.000000	0.000000	0.000000	0.050000	0.000000	3.700000	-4.346638	-10.000000	0.000000	-95.476113	-2.469704	-5.000000	0.000000
1.430700	20.633716	0.000000	0.000000	0.000000	0.050000	0.000000	3.700000	-7.253013	-10.000000	0.000000	-91.882248	-6.760309	-5.000000	0.000000
1.435650	20.633716	0.000000	0.000000	0.000000	0.050000	0.000000	3.700000	-8.840575	-10.000000	0.000000	-91.237292	-9.579099	-5.000000	0.000000
1.440600	20.633716	0.000000	0.000000	0.000000	0.050000	0.000000	3.700000	-8.551282	-10.000000	0.000000	-91.415524	-11.900352	-5.000000	0.000000
1.445550	20.633716	0.000000	0.000000	0.000000	0.050000	0.000000	3.700000	-8.500000	-10.000000	0.000000	-91.298250	-14.272369	-5.000000	0.000000
1.450500	20.633716	0.000000	0.000000	0.000000	0.050000	0.000000	3.700000	-8.832181	-10.000000	0.000000	-91.476092	-17.263702	-5.000000	0.000000
1.455450	20.633716	0.000000	0.000000	0.000000	0.050000	0.000000	3.700000	-8.629920	-10.000000	0.000000	-91.117167	-20.499291	-5.000000	0.000000
1.460400	20.633716	0.000000	0.000000	0.000000	0.050000	0.000000	3.700000	-8.515567	-10.000000	0.000000	-91.398874	-23.994851	-5.000000	0.000000
1.465350	20.633716	0.000000	0.000000	0.000000	0.050000	0.000000	3.700000	-8.988092	-10.000000	0.000000	-91.500000	-27.775694	-5.000000	0.000000
1.470300	20.633716	0.000000	0.000000	0.000000	0.050000	0.000000	3.700000	-8.730108	-10.000000	0.000000	-91.256386	-31.660013	-5.000000	0.000000
1.475250	20.633716	0.000000	0.000000	0.000000	0.050000	0.000000	3.700000	-8.558923	-10.000000	0.000000	-91.469477	-33.862072	-5.000000	0.000000
1.480200	20.633716	0.000000	0.000000	0.000000	0.050000	0.000000	3.700000	-8.500000	-10.000000	0.000000	-91.467735	-33.953898	-5.000000	0.000000
1.485150	20.633716	0.000000	0.000000	0.000000	0.050000	0.000000	3.700000	-8.793107	-10.000000	0.000000	-91.212570	-33.645317	-5.000000	0.000000
1.490100	20.633716	0.000000	0.000000	0.000000	0.050000	0.000000	3.700000	-8.548282	-10.000000	0.000000	-91.370464	-33.500000	-5.000000	0.000000
1.495050	20.633716	0.000000	0.000000	0.000000	0.050000	0.000000	3.700000	-8.670636	-10.000000	0.000000	-91.464682	-33.683986	-5.000000	0.000000
1.500000	20.633716	0.000000	0.000000	0.000000	0.050000	0.000000	3.700000	-8.738228	-10.000000	0.000000	-91.500000	-33.500000	-5.000000	0.000000
1.504950	20.633716	0.000000	0.000000	0.000000	0.050000	0.000000	3.700000	-8.813332	-10.000000	0.000000	-91.463736	-33.705078	-5.000000	0.000000
1.509900	20.633716	0.000000	0.000000	0.000000	0.050000	0.000000	3.700000	-8.893500	-10.000000	0.000000	-91.359680	-33.500000	-5.000000	0.000000
1.514850	20.633716	0.000000	0.000000	0.000000	0.050000	0.000000	3.700000	-8.718731	-10.000000	0.000000	-91.500000	-33.658498	-5.000000	0.000000
1.519800	20.633716	0.000000	0.000000	0.000000	0.050000	0.000000	3.700000	-8.583727	-10.000000	0.000000	-91.248523	-33.500000	-5.000000	0.000000
1.524750	20.633716	0.000000	0.000000	0.000000	0.050000	0.000000	3.700000	-8.500000	-10.000000	0.000000	-91.500000	-33.686916	-5.000000	0.000000
1.529700	20.633716	0.000000	0.000000	0.000000	0.050000	0.000000	3.700000	-8.789016	-10.000000	0.000000	-91.467158	-33.660009	-5.000000	0.000000
1.534650	20.633716	0.000000	0.000000	0.000000	0.050000	0.000000	3.700000	-8.573865	-10.000000	0.000000	-91.500000	-33.500000	-5.000000	0.000000
1.539600	20.633716	0.000000	0.000000	0.000000	0.050000	0.000000	3.700000	-8.500000	-10.000000	0.000000	-91.221833	-33.647139	-5.000000	0.000000
1.544550	20.633716	0.000000	0.000000	0.000000	0.050000	0.000000	3.700000	-8.758365	-10.000000	0.000000	-91.471560	-33.883015	-5.000000	0.000000
1.549500	20.633716	0.000000	0.000000	0.000000	0.050000	0.000000	3.700000	-8.500000	-10.000000	0.000000	-91.074505	-33.959206	-5.000000	0.000000
1.554450	20.633716	0.000000	0.000000	0.000000	0.050000	0.000000	3.700000	-8.528432	-10.000000	0.000000	-91.419105	-33.736776	-5.000000	0.000000
1.559400	20.633716	0.000000	0.000000	0.000000	0.050000	0.000000	3.700000	-8.544463	-10.000000	0.000000	-91.477119	-33.615126	-5.000000	0.000000
1.564350	20.633716	0.000000	0.000000	0.000000	0.050000	0.000000	3.700000	-8.987901	-10.000000	0.000000	-91.203461	-33.743191	-5.000000	0.000000
1.569300	20.633716	0.000000	0.000000	0.000000	0.050000	0.000000	3.700000	-8.623732	-10.000000	0.000000	-91.348021	-33.305690	-5.000000	0.000000
1.574250	20.633716	0.000000	0.000000	0.000000	0.050000	0.000000	3.700000	-8.758841	-10.000000	0.000000	-91.151731	-32.973087	-5.000000	0.000000
1.579200	20.633716	0.000000	0.000000	0.000000	0.050000	0.000000	3.700000	-8.525742	-10.000000	0.000000	-91.484156	-31.924288	-5.000000	0.000000
1.584150	20.633716	0.000000	0.000000	0.000000	0.050000	0.000000	3.700000	-8.956447	-10.000000	0.000000	-91.343810	-32.014880	-5.000000	0.000000
1.589100	20.633716	0.000000	0.000000	0.000000	0.050000	0.000000	3.700000	-8.933114	-10.000000	0.000000	-91.457477	-30.782501	-5.000000	0.000000
1.594050	20.633716	0.000000	0.000000	0.000000	0.050000	0.000000	3.700000	-8.745371	-10.000000	0.000000	-91.255953	-28.845785	-5.000000	0.000000
1.599000	20.633716	0.000000	0.000000	0.000000	0.050000	0.000000	3.700000	-8.531448	-10.000000	0.000000	-91.501007	-27.093813	-5.000000	0.000000
1.603950	20.633716	0.000000	0.000000	0.000000	0.050000	0.000000	3.700000	-8.193233	-10.000000	0.000000	-91.992722	-25.120147	-5.000000	0.000000
1.608900	20.633716	0.000000	0.000000	0.000000	0.050000	0.000000	3.700000	-7.704649	-10.000000	0.000000	-92.692133	-23.128541	-5.000000	0.000000
1.613850	20.633716	0.000000	0.000000	0.000000	0.050000	0.000000	3.700000	-7.025668	-10.000000	0.000000	-93.564158	-20.645547	-5.000000	0.000000
1.618800	20.633716	0.000000	0.000000	0.000000	0.050000	0.000000	3.700000	-6.117269	-10.000000	0.000000	-94.675809	-18.051788	-5.000000	0.000000
1.623750	20.633716	0.000000	0.000000	0.000000	0.050000	0.000000	3.700000	-4.986758	-10.000000	0.000000	-96.009467	-15.286295	-5.000000	0.000000
1.628700	20.633716	0.000000	0.000000	0.000000	0.050000	0.000000	3.700000	-3.638243	-10.000000	0.000000	-97.555259	-12.361756	-5.000000	0.000000
1.633650	20.633716	0.000000	0.000000	0.000000	0.050000	0.000000	3.700000	-2.077302	-10.000000	0.000000	-99.306591	-9.296615	-5.000000	0.000000
1.638600	20.633716	0.000000	0.000000	0.000000	0.050000	0.000000	3.700000	-0.303706	-10.000000	0.000000	-101.261923	-6.109981	-5.000000	0.000000
1.643550	20.633716	0.000000	0.000000	0.000000	0.050000	0.000000	3.700000	1.678204	-10.000000	0.000000	-103.403386	-2.810159	-5.000000	0.000000
1.648500	20.633716	0.000000	0.000000	0.000000	0.050000	0.000000	3.700000	3.842365	-10.000000	0.000000	-105.692747	0.595732	-5.000000	0.000000
1.653450	20.633716	0.000000	0.000000	0.000000	0.050000	0.000000	3.700000	6.157045	-10.000000	0.000000	-108.131610	4.126384	-5.000000	0.000000
1.658400	20.633716	0.000000	0.000000	0.000000	0.050000	0.000000	3.700000	8.617564	-10.000000	0.000000	-110.820412	7.806425	-5.000000	0.000000
1.663350	20.633716	0.000000	0.000000	0.000000	0.050000	0.000000	3.700000	11.009720	-10.000000	0.000000	-113.461790	11.072724	-5.000000	0.000000
1.668300	20.633716	0.000000	0.000000	0.000000	0.050000	0.000000	3.700000	12.673430	-10.000000	0.000000	-115.447283	13.076076	-5.000000	0.000000
1.673250	20.633716	0.000000	0.000000	0.000000	0.050000	0.000000	3.700000	13.997432	-10.000000	0.000000	-117.080388	14.655630	-5.000000	0.000000
1.678200	20.633716	0.000000	0.000000	0.000000	0.050000	0.000000	3.700000	14.588607	-10.000000	0.000000	-117.985796	15.669683	-5.000000	0.000000
1.683150	20.633716	0.000000	0.000000	0.000000	0.050000	0.000000	3.700000	15.017248	-10.000000	0.000000	-118.697465	16.506384	-5.000000	0.000000
1.688100	20.633716	0.000000	0.000000	0.000000	0.050000	0.000000	3.700000	15.251163	-10.000000	0.000000	-119.179813	17.183419	-5.000000	0.000000
1.693050	20.633716	0.000000	0.000000	0.000000	0.050000	0.000000	3.700000	15.394015	-10.000000	0.000000	-119.532912	17.765834	-5.000000	0.000000
1.698000	20.633716	0.000000	0.000000	0.000000	0.050000	0.000000	3.700000	15.457337	-10.000000	0.000000	-119.773885	18.324225	-5.000000	0.000000
1.702950	20.633716	0.000000	0.000000	0.000000	0.050000	0.000000	3.700000	15.464415	-10.000000	0.000000	-119.923846	18.929845	-5.000000	0.000000
1.707900	20.633716	0.000000	0.000000	0.000000	0.050000	0.000000	3.700000	15.409352	-10.000000	0.000000	-119.971437	19.626257	-5.000000	0.000000
1.712850	20.633716	0.000000	0.000000	0.000000	0.050000	0.000000	3.700000	15.305632	-10.000000	0.000000	-119.927846	20.411641	-5.000000	0.000000
1.717800	20.633716	0.000000	0.000000	0.000000	0.050000	0.000000	3.700000	15.165285	-10.000000	0.000000	-119.809862	21.230177	-5.000000	0.000000
1.722750	20.633716	0.000000	0.000000	0.000000	0.050000	0.000000	3.700000	14.993484	-10.000000	0.000000	-119.634462	22.078043	-5.000000	0.000000
1.727700	20.633716	0.000000	0.000000	0.000000	0.050000	0.000000	3.700000	14.794241	-10.000000	0.000000	-119.413498	22.587425	-5.000000	0.000000
1.732650	20.633716	0.000000	0.000000	0.000000	0.050000	0.000000	3.700000	14.576013	-10.000000	0.000000	-119.160685	22.570295	-5.000000	0.000000
1.737600	20.633716	0.000000	0.000000	0.000000	0.050000	0.000000	3.700000	14.316762	-10.000000	0.000000	-118.859070	22.476543	-5.000000	0.000000
1.742550	20.633716	0.000000	0.000000	0.000000	0.050000	0.000000	3.700000	14.006768	-10.000000	0.000000	-118.490179	22.251451	-5.000000	0.000000
1.747500	20.633716	0.000000	0.000000	0.000000	0.050000	0.000000	3.700000	13.625165	-10.000000	0.000000	-118.036946	21.979719	-5.000000	0.000000
1.752450	20.633716	0.000000	0.000000	0.000000	0.050000	0.000000	3.700000	13.152737	-10.000000	0.000000	-117.478171	21.581335	-5.000000	0.000000
1.757400	20.633716	0.000000	0.000000	0.000000	0.050000	0.000000	3.700000	12.564620	-10.000000	0.000000	-116.791843	21.077118	-5.000000	0.000000
1.762350	20.633716	0.000000	0.000000	0.000000	0.050000	0.000000	3.700000	11.848473	-10.000000	0.000000	-115.960805	20.394333	-5.000000	0.000000
1.767300	20.633716	0.000000	0.000000	0.000000	0.050000	0.000000	3.700000	10.987674	-10.000000	0.000000	-114.962776	19.529565	-5.000000	0.000000
1.772250	20.633716	0.000000	0.000000	0.000000	0.050000	0.000000	3.700000	9.962767	-10.000000	0.000000	-113.773171	18.428019	-5.000000	0.000000
1.777200	20.633716	0.000000	0.000000	0.000000	0.050000	0.000000	3.700000	8.771488	-10.000000	0.000000	-112.404931	16.990385	-5.000000	0.000000
1.782150	20.633716	0.000000	0.000000	0.000000	0.050000	0.000000	3.700000	7.406651	-10.000000	0.000000	-110.848014	15.211169	-5.000000	0.000000
1.787100	20.633716	0.000000	0.000000	0.000000	0.050000	0.000000	3.700000	5.862173	-10.000000	0.000000	-109.098411	13.154789	-5.000000	0.000000
1.792050	20.633716	0.000000	0.000000	0.000000	0.050000	0.000000	3.700000	4.129117	-10.000000	0.000000	-107.139215	10.851966	-5.000000	0.000000
1.797000	20.633716	0.000000	0.000000	0.000000	0.050000	0.000000	3.700000	2.194982	-10.000000	0.000000	-104.943779	8.296446	-5.000000	0.000000
1.801950	20.633716	0.000000	0.000000	0.000000	0.050000	0.000000	3.700000	0.044122	-10.000000	0.000000	-102.479665	5.472701	-5.000000	0.000000
1.806900	20.633716	0.000000	0.000000	0.000000	0.050000	0.000000	3.700000	-2.350040	-10.000000	0.000000	-99.683751	2.343258	-5.000000	0.000000
1.811850	20.633716	0.000000	0.000000	0.000000	0.050000	0.000000	3.700000	-4.998255	-10.000000	0.000000	-96.578026	-1.073464	-5.000000	0.000000
1.816800	20.633716	0.000000	0.000000	0.000000	0.050000	0.000000	3.700000	-7.912540	-10.000000	0.000000	-93.164520	-4.785415	-5.000000	0.000000
1.821750	20.633716	0.000000	0.000000	0.000000	0.050000	0.000000	3.700000	-8.660906	-10.000000	0.000000	-91.334334	-7.384682	-5.000000	0.000000
1.826700	20.633716	0.000000	0.000000	0.000000	0.050000	0.000000	3.700000	-8.500000	-10.000000	0.000000	-91.332229	-9.482289	-5.000000	0.000000
1.831650	20.633716	0.000000	0.000000	0.000000	0.050000	0.000000	3.700000	-8.808192	-10.000000	0.000000	-91.412553	-11.732020	-5.000000	0.000000
1.836600	20.633716	0.000000	0.000000	0.000000	0.050000	0.000000	3.700000	-8.624396	-10.000000	0.000000	-91.500000	-14.389348	-5.000000	0.000000
1.841550	20.633716	0.000000	0.000000	0.000000	0.050000	0.000000	3.700000	-8.515171	-10.000000	0.000000	-91.287855	-17.346241	-5.000000	0.000000
1.846500	20.633716	0.000000	0.000000	0.000000	0.050000	0.000000	3.700000	-8.981788	-10.000000	0.000000	-91.474927	-20.403679	-5.000000	0.000000
1.851450	20.633716	0.000000	0.000000	0.000000	0.050000	0.000000	3.700000	-8.730961	-10.000000	0.000000	-91.098963	-23.876983	-5.000000	0.000000
1.856400	20.633716	0.000000	0.000000	0.000000	0.050000	0.000000	3.700000	-8.560721	-10.000000	0.000000	-91.395001	-26.996092	-5.000000	0.000000
1.861350	20.633716	0.000000	0.000000	0.000000	0.050000	0.000000	3.700000	-8.500000	-10.000000	0.000000	-91.500000	-29.987316	-5.000000	0.000000
1.866300	20.633716	0.000000	0.000000	0.000000	0.050000	0.000000	3.700000	-8.838985	-10.000000	0.000000	-91.272477	-32.408197	-5.000000	0.000000
1.871250	20.633716	0.000000	0.000000	0.000000	0.050000	0.000000	3.700000	-8.618780	-10.000000	0.000000	-91.475469	-33.886078	-5.000000	0.000000
1.876200	20.633716	0.000000	0.000000	0.000000	0.050000	0.000000	3.700000	-8.512575	-10.000000	0.000000	-91.094013	-33.789239	-5.000000	0.000000
1.881150	20.633716	0.000000	0.000000	0.000000	0.050000	0.000000	3.700000	-8.769824	-10.000000	0.000000	-91.383525	-33.616000	-5.000000	0.000000
1.886100	20.633716	0.000000	0.000000	0.000000	0.050000	0.000000	3.700000	-8.957159	-10.000000	0.000000	-91.500000	-33.500000	-5.000000	0.000000
1.891050	20.633716	0.000000	0.000000	0.000000	0.050000	0.000000	3.700000	-8.500000	-10.000000	0.000000	-91.216903	-33.665322	-5.000000	0.000000
1.896000	20.633716	0.000000	0.000000	0.000000	0.050000	0.000000	3.700000	-8.510102	-10.000000	0.000000	-91.372403	-33.637752	-5.000000	0.000000
1.900950	20.633716	0.000000	0.000000	0.000000	0.050000	0.000000	3.700000	-8.500000	-10.000000	0.000000	-91.366987	-33.500000	-5.000000	0.000000
1.905900	20.633716	0.000000	0.000000	0.000000	0.050000	0.000000	3.700000	-8.799748	-10.000000	0.000000	-91.377348	-33.500000	-5.000000	0.000000
1.910850	20.633716	0.000000	0.000000	0.000000	0.050000	0.000000	3.700000	-8.577457	-10.000000	0.000000	-91.500000	-33.500000	-5.000000	0.000000
1.915800	20.633716	0.000000	0.000000	0.000000	0.050000	0.000000	3.700000	-8.500000	-10.000000	0.000000	-91.222053	-33.500000	-5.000000	0.000000
1.920750	20.633716	0.000000	0.000000	0.000000	0.050000	0.000000	3.700000	-8.782845	-10.000000	0.000000	-91.470661	-33.931079	-5.000000	0.000000
1.925700	20.633716	0.000000	0.000000	0.000000	0.050000	0.000000	3.700000	-8.573032	-10.000000	0.000000	-91.089969	-33.500000	-5.000000	0.000000
1.930650	20.633716	0.000000	0.000000	0.000000	0.050000	0.000000	3.700000	-8.902092	-10.000000	0.000000	-91.392915	-33.500000	-5.000000	0.000000
1.935600	20.633716	0.000000	0.000000	0.000000	0.050000	0.000000	3.700000	-8.506787	-10.000000	0.000000	-91.500000	-33.500000	-5.000000	0.000000
1.940550	20.633716	0.000000	0.000000	0.000000	0.050000	0.000000	3.700000	-8.523071	-10.000000	0.000000	-91.500000	-33.515751	-5.000000	0.000000
1.945500	20.633716	0.000000	0.000000	0.000000	0.050000	0.000000	3.700000	-8.500000	-10.000000	0.000000	-91.322159	-33.799724	-5.000000	0.000000
1.950450	20.633716	0.000000	0.000000	0.000000	0.050000	0.000000	3.700000	-8.746106	-10.000000	0.000000	-91.234781	-33.500000	-5.000000	0.000000
1.955400	20.633716	0.000000	0.000000	0.000000	0.050000	0.000000	3.700000	-8.974419	-10.000000	0.000000	-91.356035	-33.844431	-5.000000	0.000000
1.960350	20.633716	0.000000	0.000000	0.000000	0.050000	0.000000	3.700000	-8.999663	-10.000000	0.000000	-91.485654	-33.536447	-5.000000	0.000000
1.965300	20.633716	0.000000	0.000000	0.000000	0.050000	0.000000	3.700000	-8.943181	-10.000000	0.000000	-91.445007	-32.800503	-5.000000	0.000000
1.970250	20.633716	0.000000	0.000000	0.000000	0.050000	0.000000	3.700000	-8.706360	-10.000000	0.000000	-91.001698	-31.686326	-5.000000	0.000000
1.975200	20.633716	0.000000	0.000000	0.000000	0.050000	0.000000	3.700000	-8.708388	-10.000000	0.000000	-91.125886	-29.590220	-5.000000	0.000000
1.980150	20.633716	0.000000	0.000000	0.000000	0.050000	0.000000	3.700000	-8.571583	-10.000000	0.000000	-91.509850	-28.800833	-5.000000	0.000000
1.985100	20.633716	0.000000	0.000000	0.000000	0.050000	0.000000	3.700000	-8.340770	-10.000000	0.000000	-91.937702	-27.240159	-5.000000	0.000000
1.990050	20.633716	0.000000	0.000000	0.000000	0.050000	0.000000	3.700000	-7.991050	-10.000000	0.000000	-92.523644	-25.326284	-5.000000	0.000000
1.995000	20.633716	0.000000	0.000000	0.000000	0.050000	0.000000	3.700000	-7.474510	-10.000000	0.000000	-93.263155	-23.518537	-5.000000	0.000000
1.999950	20.633716	0.000000	0.000000	0.000000	0.050000	0.000000	3.700000	-6.763355	-10.000000	0.000000	-94.210527	-21.007517	-5.000000	0.000000
2.004900	20.633716	0.000000	0.000000	0.000000	0.050000	0.000000	3.700000	-5.816742	-10.000000	0.000000	-95.361127	-18.461985	-5.000000	0.000000
2.009850	20.633716	0.000000	0.000000	0.000000	0.050000	0.000000	3.700000	-4.640116	-10.000000	0.000000	-96.725230	-15.762561	-5.000000	0.000000
2.014800	20.633716	0.000000	0.000000	0.000000	0.050000	0.000000	3.700000	-3.241412	-10.000000	0.000000	-98.297733	-12.902768	-5.000000	0.000000
2.019750	20.633716	0.000000	0.000000	0.000000	0.050000	0.000000	3.700000	-1.628864	-10.000000	0.000000	-100.074016	-9.896530	-5.000000	0.000000
2.024700	20.633716	0.000000	0.000000	0.000000	0.050000	0.000000	3.700000	0.211591	-10.000000	0.000000	-102.190782	-6.719518	-5.000000	0.000000
2.029650	20.633716	0.000000	0.000000	0.000000	0.050000	0.000000	3.700000	2.265394	-10.000000	0.000000	-104.603854	-3.424818	-5.000000	0.000000
2.034600	20.633716	0.000000	0.000000	0.000000	0.050000	0.000000	3.700000	4.494665	-10.000000	0.000000	-107.214594	-0.030355	-5.000000	0.000000
2.039550	20.633716	0.000000	0.000000	0.000000	0.050000	0.000000	3.700000	6.861507	-10.000000	0.000000	-109.949139	3.461851	-5.000000	0.000000
2.044500	20.633716	0.000000	0.000000	0.000000	0.050000	0.000000	3.700000	9.356855	-10.000000	0.000000	-112.775345	7.071040	-5.000000	0.000000
2.049450	20.633716	0.000000	0.000000	0.000000	0.050000	0.000000	3.700000	11.848890	-10.000000	0.000000	-115.529012	10.426164	-5.000000	0.000000
2.054400	20.633716	0.000000	0.000000	0.000000	0.050000	0.000000	3.700000	13.633883	-10.000000	0.000000	-117.607901	12.457170	-5.000000	0.000000
2.059350	20.633716	0.000000	0.000000	0.000000	0.050000	0.000000	3.700000	15.082998	-10.000000	0.000000	-119.324827	14.092382	-5.000000	0.000000
2.064300	20.633716	0.000000	0.000000	0.000000	0.050000	0.000000	3.700000	15.758004	-10.000000	0.000000	-120.274221	15.150793	-5.000000	0.000000
2.069250	20.633716	0.000000	0.000000	0.000000	0.050000	0.000000	3.700000	16.252742	-10.000000	0.000000	-121.009492	16.008157	-5.000000	0.000000
2.074200	20.633716	0.000000	0.000000	0.000000	0.050000	0.000000	3.700000	16.514045	-10.000000	0.000000	-121.481102	16.672775	-5.000000	0.000000
2.079150	20.633716	0.000000	0.000000	0.000000	0.050000	0.000000	3.700000	16.684281	-10.000000	0.000000	-121.824297	17.253429	-5.000000	0.000000
2.084100	20.633716	0.000000	0.000000	0.000000	0.050000	0.000000	3.700000	16.770615	-10.000000	0.000000	-122.047444	17.803660	-5.000000	0.000000
2.089050	20.633716	0.000000	0.000000	0.000000	0.050000	0.000000	3.700000	16.799435	-10.000000	0.000000	-122.177870	18.402994	-5.000000	0.000000
2.094000	20.633716	0.000000	0.000000	0.000000	0.050000	0.000000	3.700000	16.769355	-10.000000	0.000000	-122.209710	19.099557	-5.000000	0.000000
2.098950	20.633716	0.000000	0.000000	0.000000	0.050000	0.000000	3.700000	16.687009	-10.000000	0.000000	-122.147970	19.882006	-5.000000	0.000000
2.103900	20.633716	0.000000	0.000000	0.000000	0.050000	0.000000	3.700000	16.568191	-10.000000	0.000000	-122.021115	20.694791	-5.000000	0.000000
2.108850	20.633716	0.000000	0.000000	0.000000	0.050000	0.000000	3.700000	16.417412	-10.000000	0.000000	-121.830227	21.523486	-5.000000	0.000000
2.113800	20.633716	0.000000	0.000000	0.000000	0.050000	0.000000	3.700000	16.237015	-10.000000	0.000000	-121.570034	22.084022	-5.000000	0.000000
2.118750	20.633716	0.000000	0.000000	0.000000	0.050000	0.000000	3.700000	16.038422	-10.000000	0.000000	-121.279626	22.083160	-5.000000	0.000000
2.123700	20.633716	0.000000	0.000000	0.000000	0.050000	0.000000	3.700000	15.802614	-10.000000	0.000000	-120.936448	21.943549	-5.000000	0.000000
2.128650	20.633716	0.000000	0.000000	0.000000	0.050000	0.000000	3.700000	15.514994	-10.000000	0.000000	-120.517940	21.717194	-5.000000	0.000000
2.133600	20.633716	0.000000	0.000000	0.000000	0.050000	0.000000	3.700000	15.161982	-10.000000	0.000000	-120.014747	21.398894	-5.000000	0.000000
2.138550	20.633716	0.000000	0.000000	0.000000	0.050000	0.000000	3.700000	14.721156	-10.000000	0.000000	-119.401572	20.974168	-5.000000	0.000000
2.143500	20.633716	0.000000	0.000000	0.000000	0.050000	0.000000	3.700000	14.167644	-10.000000	0.000000	-118.650094	20.407758	-5.000000	0.000000
2.148450	20.633716	0.000000	0.000000	0.000000	0.050000	0.000000	3.700000	13.481002	-10.000000	0.000000	-117.735441	19.656188	-5.000000	0.000000
2.153400	20.633716	0.000000	0.000000	0.000000	0.050000	0.000000	3.700000	12.638634	-10.000000	0.000000	-116.616646	18.655762	-5.000000	0.000000
2.158350	20.633716	0.000000	0.000000	0.000000	0.050000	0.000000	3.700000	11.644581	-10.000000	0.000000	-115.306632	17.446147	-5.000000	0.000000
2.163300	20.633716	0.000000	0.000000	0.000000	0.050000	0.000000	3.700000	10.485673	-10.000000	0.000000	-113.812165	15.892001	-5.000000	0.000000
2.168250	20.633716	0.000000	0.000000	0.000000	0.050000	0.000000	3.700000	9.155188	-10.000000	0.000000	-112.126069	13.995472	-5.000000	0.000000
2.173200	20.633716	0.000000	0.000000	0.000000	0.050000	0.000000	3.700000	7.646112	-10.000000	0.000000	-110.242806	11.816109	-5.000000	0.000000
2.178150	20.633716	0.000000	0.000000	0.000000	0.050000	0.000000	3.700000	5.954018	-10.000000	0.000000	-108.158620	9.389375	-5.000000	0.000000
2.183100	20.633716	0.000000	0.000000	0.000000	0.050000	0.000000	3.700000	4.065462	-10.000000	0.000000	-105.835376	6.695691	-5.000000	0.000000
2.188050	20.633716	0.000000	0.000000	0.000000	0.050000	0.000000	3.700000	1.967109	-10.000000	0.000000	-103.243062	3.641313	-5.000000	0.000000
2.193000	20.633716	0.000000	0.000000	0.000000	0.050000	0.000000	3.700000	-0.363205	-10.000000	0.000000	-100.334997	0.019292	-5.000000	0.000000
2.197950	20.633716	0.000000	0.000000	0.000000	0.050000	0.000000	3.700000	-2.946180	-10.000000	0.000000	-97.094964	-4.106406	-5.000000	0.000000
2.202900	20.633716	0.000000	0.000000	0.000000	0.050000	0.000000	3.700000	-5.792105	-10.000000	0.000000	-93.544254	-8.667046	-5.000000	0.000000
2.207850	20.633716	0.000000	0.000000	0.000000	0.050000	0.000000	3.700000	-8.989824	-10.000000	0.000000	-91.455599	-13.512763	-5.000000	0.000000
2.212800	20.633716	0.000000	0.000000	0.000000	0.050000	0.000000	3.700000	-8.512734	-10.000000	0.000000	-91.187949	-15.405604	-5.000000	0.000000
2.217750	20.633716	0.000000	0.000000	0.000000	0.050000	0.000000	3.700000	-8.928508	-10.000000	0.000000	-91.146794	-18.390490	-5.000000	0.000000
2.222700	20.633716	0.000000	0.000000	0.000000	0.050000	0.000000	3.700000	-8.714236	-10.000000	0.000000	-91.402467	-21.594569	-5.000000	0.000000
2.227650	20.633716	0.000000	0.000000	0.000000	0.050000	0.000000	3.700000	-8.558545	-10.000000	0.000000	-91.500000	-25.256418	-5.000000	0.000000
2.232600	20.633716	0.000000	0.000000	0.000000	0.050000	0.000000	3.700000	-8.500000	-10.000000	0.000000	-91.274403	-29.422774	-5.000000	0.000000
2.237550	20.633716	0.000000	0.000000	0.000000	0.050000	0.000000	3.700000	-8.852936	-10.000000	0.000000	-91.472621	-33.521776	-5.000000	0.000000
2.242500	20.633716	0.000000	0.000000	0.000000	0.050000	0.000000	3.700000	-8.627669	-10.000000	0.000000	-91.014352	-33.500000	-5.000000	0.000000
2.247450	20.633716	0.000000	0.000000	0.000000	0.050000	0.000000	3.700000	-8.514176	-10.000000	0.000000	-91.193151	-33.615630	-5.000000	0.000000
2.252400	20.633716	0.000000	0.000000	0.000000	0.050000	0.000000	3.700000	-8.920533	-10.000000	0.000000	-91.500000	-33.682630	-5.000000	0.000000
2.257350	20.633716	0.000000	0.000000	0.000000	0.050000	0.000000	3.700000	-8.680514	-10.000000	0.000000	-91.464339	-33.500000	-5.000000	0.000000
2.262300	20.633716	0.000000	0.000000	0.000000	0.050000	0.000000	3.700000	-8.978491	-10.000000	0.000000	-91.353996	-33.723581	-5.000000	0.000000
2.267250	20.633716	0.000000	0.000000	0.000000	0.050000	0.000000	3.700000	-8.500000	-10.000000	0.000000	-91.174206	-33.500000	-5.000000	0.000000
2.272200	20.633716	0.000000	0.000000	0.000000	0.050000	0.000000	3.700000	-8.509717	-10.000000	0.000000	-91.500000	-33.668198	-5.000000	0.000000
2.277150	20.633716	0.000000	0.000000	0.000000	0.050000	0.000000	3.700000	-8.536465	-10.000000	0.000000	-91.464818	-33.500000	-5.000000	0.000000
2.282100	20.633716	0.000000	0.000000	0.000000	0.050000	0.000000	3.700000	-8.510160	-10.000000	0.000000	-91.467329	-33.683850	-5.000000	0.000000
2.287050	20.633716	0.000000	0.000000	0.000000	0.050000	0.000000	3.700000	-8.998056	-10.000000	0.000000	-91.188701	-33.500000	-5.000000	0.000000
2.292000	20.633716	0.000000	0.000000	0.000000	0.050000	0.000000	3.700000	-8.797020	-10.000000	0.000000	-91.464707	-33.691484	-5.000000	0.000000
2.296950	20.633716	0.000000	0.000000	0.000000	0.050000	0.000000	3.700000	-8.582868	-10.000000	0.000000	-91.250301	-33.500000	-5.000000	0.000000
2.301900	20.633716	0.000000	0.000000	0.000000	0.050000	0.000000	3.700000	-8.500000	-10.000000	0.000000	-91.000318	-33.675351	-5.000000	0.000000
2.306850	20.633716	0.000000	0.000000	0.000000	0.050000	0.000000	3.700000	-8.781613	-10.000000	0.000000	-91.470580	-33.500000	-5.000000	0.000000
2.311800	20.633716	0.000000	0.000000	0.000000	0.050000	0.000000	3.700000	-8.574608	-10.000000	0.000000	-91.061873	-33.500000	-5.000000	0.000000
2.316750	20.633716	0.000000	0.000000	0.000000	0.050000	0.000000	3.700000	-8.989197	-10.000000	0.000000	-91.387048	-33.500000	-5.000000	0.000000
2.321700	20.633716	0.000000	0.000000	0.000000	0.050000	0.000000	3.700000	-8.526562	-10.000000	0.000000	-91.500000	-33.642710	-5.000000	0.000000
2.326650	20.633716	0.000000	0.000000	0.000000	0.050000	0.000000	3.700000	-8.592214	-10.000000	0.000000	-91.475801	-33.577360	-5.000000	0.000000
2.331600	20.633716	0.000000	0.000000	0.000000	0.050000	0.000000	3.700000	-8.590198	-10.000000	0.000000	-91.176520	-33.809129	-5.000000	0.000000
2.336550	20.633716	0.000000	0.000000	0.000000	0.050000	0.000000	3.700000	-8.505096	-10.000000	0.000000	-91.500000	-33.500000	-5.000000	0.000000
2.341500	20.633716	0.000000	0.000000	0.000000	0.050000	0.000000	3.700000	-8.711391	-10.000000	0.000000	-91.428962	-33.157586	-5.000000	0.000000
2.346450	20.633716	0.000000	0.000000	0.000000	0.050000	0.000000	3.700000	-8.766951	-10.000000	0.000000	-91.081290	-31.878048	-5.000000	0.000000
2.351400	20.633716	0.000000	0.000000	0.000000	0.050000	0.000000	3.700000	-8.650988	-10.000000	0.000000	-91.335440	-30.535859	-5.000000	0.000000
2.356350	20.633716	0.000000	0.000000	0.000000	0.050000	0.000000	3.700000	-8.732472	-10.000000	0.000000	-91.491118	-31.437924	-5.000000	0.000000
2.361300	20.633716	0.000000	0.000000	0.000000	0.050000	0.000000	3.700000	-8.796221	-10.000000	0.000000	-91.082721	-28.475634	-5.000000	0.000000
2.366250	20.633716	0.000000	0.000000	0.000000	0.050000	0.000000	3.700000	-8.684876	-10.000000	0.000000	-91.430487	-27.588658	-5.000000	0.000000
2.371200	20.633716	0.000000	0.000000	0.000000	0.050000	0.000000	3.700000	-8.486502	-10.000000	0.000000	-91.791747	-25.746630	-5.000000	0.000000
2.376150	20.633716	0.000000	0.000000	0.000000	0.050000	0.000000	3.700000	-8.177748	-10.000000	0.000000	-92.311000	-23.685641	-5.000000	0.000000
2.381100	20.633716	0.000000	0.000000	0.000000	0.050000	0.000000	3.700000	-7.726449	-10.000000	0.000000	-92.977721	-21.619328	-5.000000	0.000000
2.386050	20.633716	0.000000	0.000000	0.000000	0.050000	0.000000	3.700000	-7.073580	-10.000000	0.000000	-93.828807	-19.192692	-5.000000	0.000000
2.391000	20.633716	0.000000	0.000000	0.000000	0.050000	0.000000	3.700000	-6.210103	-10.000000	0.000000	-94.876474	-16.584543	-5.000000	0.000000
2.395950	20.633716	0.000000	0.000000	0.000000	0.050000	0.000000	3.700000	-5.116873	-10.000000	0.000000	-96.138307	-13.807167	-5.000000	0.000000
2.400900	20.633716	0.000000	0.000000	0.000000	0.050000	0.000000	3.700000	-3.798315	-10.000000	0.000000	-97.611895	-10.876327	-5.000000	0.000000
2.405850	20.633716	0.000000	0.000000	0.000000	0.050000	0.000000	3.700000	-2.272565	-10.000000	0.000000	-99.278403	-7.811154	-5.000000	0.000000
2.410800	20.633716	0.000000	0.000000	0.000000	0.050000	0.000000	3.700000	-0.531359	-10.000000	0.000000	-101.150978	-4.621771	-5.000000	0.000000
2.415750	20.633716	0.000000	0.000000	0.000000	0.050000	0.000000	3.700000	1.426822	-10.000000	0.000000	-103.241521	-1.295629	-5.000000	0.000000
2.420700	20.633716	0.000000	0.000000	0.000000	0.050000	0.000000	3.700000	3.569732	-10.000000	0.000000	-105.644830	2.159888	-5.000000	0.000000
2.425650	20.633716	0.000000	0.000000	0.000000	0.050000	0.000000	3.700000	5.858184	-10.000000	0.000000	-108.253937	5.738431	-5.000000	0.000000
2.430600	20.633716	0.000000	0.000000	0.000000	0.050000	0.000000	3.700000	8.287093	-10.000000	0.000000	-110.995383	9.449036	-5.000000	0.000000
2.435550	20.633716	0.000000	0.000000	0.000000	0.050000	0.000000	3.700000	10.750192	-10.000000	0.000000	-113.713447	13.066204	-5.000000	0.000000
2.440500	20.633716	0.000000	0.000000	0.000000	0.050000	0.000000	3.700000	12.530294	-10.000000	0.000000	-115.782785	15.151587	-5.000000	0.000000
2.445450	20.633716	0.000000	0.000000	0.000000	0.050000	0.000000	3.700000	13.977591	-10.000000	0.000000	-117.499159	16.802653	-5.000000	0.000000
2.450400	20.633716	0.000000	0.000000	0.000000	0.050000	0.000000	3.700000	14.659739	-10.000000	0.000000	-118.455930	17.894649	-5.000000	0.000000
2.455350	20.633716	0.000000	0.000000	0.000000	0.050000	0.000000	3.700000	15.149556	-10.000000	0.000000	-119.192402	18.790806	-5.000000	0.000000
2.460300	20.633716	0.000000	0.000000	0.000000	0.050000	0.000000	3.700000	15.398756	-10.000000	0.000000	-119.656506	19.464362	-5.000000	0.000000
2.465250	20.633716	0.000000	0.000000	0.000000	0.050000	0.000000	3.700000	15.566022	-10.000000	0.000000	-120.004454	20.061960	-5.000000	0.000000
2.470200	20.633716	0.000000	0.000000	0.000000	0.050000	0.000000	3.700000	15.644752	-10.000000	0.000000	-120.229286	20.631495	-5.000000	0.000000
2.475150	20.633716	0.000000	0.000000	0.000000	0.050000	0.000000	3.700000	15.667064	-10.000000	0.000000	-120.362018	21.252247	-5.000000	0.000000
2.480100	20.633716	0.000000	0.000000	0.000000	0.050000	0.000000	3.700000	15.626172	-10.000000	0.000000	-120.391350	21.977031	-5.000000	0.000000
2.485050	20.633716	0.000000	0.000000	0.000000	0.050000	0.000000	3.700000	15.532814	-10.000000	0.000000	-120.326311	22.782899	-5.000000	0.000000
2.490000	20.633716	0.000000	0.000000	0.000000	0.050000	0.000000	3.700000	15.402093	-10.000000	0.000000	-120.193129	23.617186	-5.000000	0.000000
2.494950	20.633716	0.000000	0.000000	0.000000	0.050000	0.000000	3.700000	15.238682	-10.000000	0.000000	-119.998194	24.466680	-5.000000	0.000000
2.499900	20.633716	0.000000	0.000000	0.000000	0.050000	0.000000	3.700000	15.046322	-10.000000	0.000000	-119.739624	25.046473	-5.000000	0.000000
2.504850	20.633716	0.000000	0.000000	0.000000	0.050000	0.000000	3.700000	14.836344	-10.000000	0.000000	-119.452794	25.065390	-5.000000	0.000000
2.509800	20.633716	0.000000	0.000000	0.000000	0.050000	0.000000	3.700000	14.590942	-10.000000	0.000000	-119.116089	24.925979	-5.000000	0.000000
2.514750	20.633716	0.000000	0.000000	0.000000	0.050000	0.000000	3.700000	14.295248	-10.000000	0.000000	-118.711947	24.723671	-5.000000	0.000000
2.519700	20.633716	0.000000	0.000000	0.000000	0.050000	0.000000	3.700000	13.935670	-10.000000	0.000000	-118.224325	24.409414	-5.000000	0.000000
2.524650	20.633716	0.000000	0.000000	0.000000	0.050000	0.000000	3.700000	13.488871	-10.000000	0.000000	-117.632161	24.023319	-5.000000	0.000000
2.529600	20.633716	0.000000	0.000000	0.000000	0.050000	0.000000	3.700000	12.932238	-10.000000	0.000000	-116.909858	23.493389	-5.000000	0.000000
2.534550	20.633716	0.000000	0.000000	0.000000	0.050000	0.000000	3.700000	12.244478	-10.000000	0.000000	-116.035016	22.813640	-5.000000	0.000000
2.539500	20.633716	0.000000	0.000000	0.000000	0.050000	0.000000	3.700000	11.426838	-10.000000	0.000000	-115.000169	21.914009	-5.000000	0.000000
2.544450	20.633716	0.000000	0.000000	0.000000	0.050000	0.000000	3.700000	10.437097	-10.000000	0.000000	-113.755269	20.798982	-5.000000	0.000000
2.549400	20.633716	0.000000	0.000000	0.000000	0.050000	0.000000	3.700000	9.289873	-10.000000	0.000000	-112.342883	19.352822	-5.000000	0.000000
2.554350	20.633716	0.000000	0.000000	0.000000	0.050000	0.000000	3.700000	7.972268	-10.000000	0.000000	-110.742434	17.566112	-5.000000	0.000000
2.559300	20.633716	0.000000	0.000000	0.000000	0.050000	0.000000	3.700000	6.478059	-10.000000	0.000000	-108.948438	15.494851	-5.000000	0.000000
2.564250	20.633716	0.000000	0.000000	0.000000	0.050000	0.000000	3.700000	4.797708	-10.000000	0.000000	-106.939652	13.172575	-5.000000	0.000000
2.569200	20.633716	0.000000	0.000000	0.000000	0.050000	0.000000	3.700000	2.918909	-10.000000	0.000000	-104.689680	10.596389	-5.000000	0.000000
2.574150	20.633716	0.000000	0.000000	0.000000	0.050000	0.000000	3.700000	0.826042	-10.000000	0.000000	-102.166232	7.752308	-5.000000	0.000000
2.579100	20.633716	0.000000	0.000000	0.000000	0.050000	0.000000	3.700000	-1.507123	-10.000000	0.000000	-99.312066	4.610029	-5.000000	0.000000
2.584050	20.633716	0.000000	0.000000	0.000000	0.050000	0.000000	3.700000	-4.088174	-10.000000	0.000000	-96.162230	1.199145	-5.000000	0.000000
2.589000	20.633716	0.000000	0.000000	0.000000	0.050000	0.000000	3.700000	-6.930851	-10.000000	0.000000	-92.709231	-2.488862	-5.000000	0.000000
2.593950	20.633716	0.000000	0.000000	0.000000	0.050000	0.000000	3.700000	-8.511162	-10.000000	0.000000	-91.438434	-5.216721	-5.000000	0.000000
2.598900	20.633716	0.000000	0.000000	0.000000	0.050000	0.000000	3.700000	-8.689645	-10.000000	0.000000	-91.042639	-6.978731	-5.000000	0.000000
2.603850	20.633716	0.000000	0.000000	0.000000	0.050000	0.000000	3.700000	-8.553729	-10.000000	0.000000	-91.500000	-9.199693	-5.000000	0.000000
2.608800	20.633716	0.000000	0.000000	0.000000	0.050000	0.000000	3.700000	-8.500000	-10.000000	0.000000	-91.292128	-11.711391	-5.000000	0.000000
2.613750	20.633716	0.000000	0.000000	0.000000	0.050000	0.000000	3.700000	-8.838988	-10.000000	0.000000	-91.475537	-14.475860	-5.000000	0.000000
2.618700	20.633716	0.000000	0.000000	0.000000	0.050000	0.000000	3.700000	-8.631780	-10.000000	0.000000	-91.112332	-17.507548	-5.000000	0.000000
2.623650	20.633716	0.000000	0.000000	0.000000	0.050000	0.000000	3.700000	-8.515722	-10.000000	0.000000	-91.398103	-20.719770	-5.000000	0.000000
2.628600	20.633716	0.000000	0.000000	0.000000	0.050000	0.000000	3.700000	-8.988279	-10.000000	0.000000	-91.500000	-23.751542	-5.000000	0.000000
2.633550	20.633716	0.000000	0.000000	0.000000	0.050000	0.000000	3.700000	-8.728203	-10.000000	0.000000	-91.259800	-26.366256	-5.000000	0.000000
2.638500	20.633716	0.000000	0.000000	0.000000	0.050000	0.000000	3.700000	-8.558907	-10.000000	0.000000	-91.473421	-28.848867	-5.000000	0.000000
2.643450	20.633716	0.000000	0.000000	0.000000	0.050000	0.000000	3.700000	-8.500000	-10.000000	0.000000	-91.127747	-30.364338	-5.000000	0.000000
2.648400	20.633716	0.000000	0.000000	0.000000	0.050000	0.000000	3.700000	-8.812113	-10.000000	0.000000	-91.057373	-32.736750	-5.000000	0.000000
2.653350	20.633716	0.000000	0.000000	0.000000	0.050000	0.000000	3.700000	-8.609624	-10.000000	0.000000	-91.188287	-33.443859	-5.000000	0.000000
2.658300	20.633716	0.000000	0.000000	0.000000	0.050000	0.000000	3.700000	-8.500000	-10.000000	0.000000	-91.266270	-33.500000	-5.000000	0.000000
2.663250	20.633716	0.000000	0.000000	0.000000	0.050000	0.000000	3.700000	-8.511599	-10.000000	0.000000	-91.474856	-33.909181	-5.000000	0.000000
2.668200	20.633716	0.000000	0.000000	0.000000	0.050000	0.000000	3.700000	-8.539953	-10.000000	0.000000	-91.073956	-33.853279	-5.000000	0.000000
2.673150	20.633716	0.000000	0.000000	0.000000	0.050000	0.000000	3.700000	-8.579652	-10.000000	0.000000	-91.378179	-33.500000	-5.000000	0.000000
2.678100	20.633716	0.000000	0.000000	0.000000	0.050000	0.000000	3.700000	-8.508719	-10.000000	0.000000	-91.500000	-33.581290	-5.000000	0.000000
2.683050	20.633716	0.000000	0.000000	0.000000	0.050000	0.000000	3.700000	-8.889223	-10.000000	0.000000	-91.239582	-33.645298	-5.000000	0.000000
2.688000	20.633716	0.000000	0.000000	0.000000	0.050000	0.000000	3.700000	-8.632699	-10.000000	0.000000	-91.468741	-33.629677	-5.000000	0.000000
2.692950	20.633716	0.000000	0.000000	0.000000	0.050000	0.000000	3.700000	-8.508921	-10.000000	0.000000	-91.039319	-33.993714	-5.000000	0.000000
2.697900	20.633716	0.000000	0.000000	0.000000	0.050000	0.000000	3.700000	-8.858079	-10.000000	0.000000	-91.392797	-33.621650	-5.000000	0.000000
2.702850	20.633716	0.000000	0.000000	0.000000	0.050000	0.000000	3.700000	-8.569419	-10.000000	0.000000	-91.500000	-33.562517	-5.000000	0.000000
2.707800	20.633716	0.000000	0.000000	0.000000	0.050000	0.000000	3.700000	-8.730548	-10.000000	0.000000	-91.475139	-33.591551	-5.000000	0.000000
2.712750	20.633716	0.000000	0.000000	0.000000	0.050000	0.000000	3.700000	-8.831885	-10.000000	0.000000	-91.479232	-33.500000	-5.000000	0.000000
2.717700	20.633716	0.000000	0.000000	0.000000	0.050000	0.000000	3.700000	-8.731877	-10.000000	0.000000	-91.212445	-33.500000	-5.000000	0.000000
2.722650	20.633716	0.000000	0.000000	0.000000	0.050000	0.000000	3.700000	-8.584528	-10.000000	0.000000	-91.353784	-33.561644	-5.000000	0.000000
2.727600	20.633716	0.000000	0.000000	0.000000	0.050000	0.000000	3.700000	-8.810877	-10.000000	0.000000	-91.500000	-33.513275	-5.000000	0.000000
2.732550	20.633716	0.000000	0.000000	0.000000	0.050000	0.000000	3.700000	-8.905248	-10.000000	0.000000	-91.195005	-33.500000	-5.000000	0.000000
2.737500	20.633716	0.000000	0.000000	0.000000	0.050000	0.000000	3.700000	-8.663802	-10.000000	0.000000	-91.041643	-31.341975	-5.000000	0.000000
2.742450	20.633716	0.000000	0.000000	0.000000	0.050000	0.000000	3.700000	-8.981098	-10.000000	0.000000	-91.135331	-31.611505	-5.000000	0.000000
2.747400	20.633716	0.000000	0.000000	0.000000	0.050000	0.000000	3.700000	-8.960755	-10.000000	0.000000	-91.489658	-30.652697	-5.000000	0.000000
2.752350	20.633716	0.000000	0.000000	0.000000	0.050000	0.000000	3.700000	-8.770543	-10.000000	0.000000	-91.424686	-28.560055	-5.000000	0.000000
2.757300	20.633716	0.000000	0.000000	0.000000	0.050000	0.000000	3.700000	-8.549625	-10.000000	0.000000	-91.855805	-27.065134	-5.000000	0.000000
2.762250	20.633716	0.000000	0.000000	0.000000	0.050000	0.000000	3.700000	-8.222241	-10.000000	0.000000	-92.424473	-25.198956	-5.000000	0.000000
2.767200	20.633716	0.000000	0.000000	0.000000	0.050000	0.000000	3.700000	-7.738799	-10.000000	0.000000	-93.143460	-23.285471	-5.000000	0.000000
2.772150	20.633716	0.000000	0.000000	0.000000	0.050000	0.000000	3.700000	-7.064951	-10.000000	0.000000	-94.032199	-20.831034	-5.000000	0.000000
2.777100	20.633716	0.000000	0.000000	0.000000	0.050000	0.000000	3.700000	-6.162712	-10.000000	0.000000	-95.134200	-18.298147	-5.000000	0.000000
2.782050	20.633716	0.000000	0.000000	0.000000	0.050000	0.000000	3.700000	-5.031430	-10.000000	0.000000	-96.449560	-15.591385	-5.000000	0.000000
2.787000	20.633716	0.000000	0.000000	0.000000	0.050000	0.000000	3.700000	-3.676280	-10.000000	0.000000	-97.974980	-12.721118	-5.000000	0.000000
2.791950	20.633716	0.000000	0.000000	0.000000	0.050000	0.000000	3.700000	-2.106227	-10.000000	0.000000	-99.702288	-9.710001	-5.000000	0.000000
2.796900	20.633716	0.000000	0.000000	0.000000	0.050000	0.000000	3.700000	-0.320752	-10.000000	0.000000	-101.633032	-6.568766	-5.000000	0.000000
2.801850	20.633716	0.000000	0.000000	0.000000	0.050000	0.000000	3.700000	1.673680	-10.000000	0.000000	-103.769568	-3.295880	-5.000000	0.000000
2.806800	20.633716	0.000000	0.000000	0.000000	0.050000	0.000000	3.700000	3.846638	-10.000000	0.000000	-106.212197	0.104405	-5.000000	0.000000
2.811750	20.633716	0.000000	0.000000	0.000000	0.050000	0.000000	3.700000	6.162021	-10.000000	0.000000	-108.856779	3.612458	-5.000000	0.000000
2.816700	20.633716	0.000000	0.000000	0.000000	0.050000	0.000000	3.700000	8.614605	-10.000000	0.000000	-111.629629	7.241777	-5.000000	0.000000
2.821650	20.633716	0.000000	0.000000	0.000000	0.050000	0.000000	3.700000	11.134522	-10.000000	0.000000	-114.416021	10.912186	-5.000000	0.000000
2.826600	20.633716	0.000000	0.000000	0.000000	0.050000	0.000000	3.700000	13.014813	-10.000000	0.000000	-116.580851	13.029422	-5.000000	0.000000
2.831550	20.633716	0.000000	0.000000	0.000000	0.050000	0.000000	3.700000	14.535613	-10.000000	0.000000	-118.377376	14.700333	-5.000000	0.000000
2.836500	20.633716	0.000000	0.000000	0.000000	0.050000	0.000000	3.700000	15.298774	-10.000000	0.000000	-119.416559	15.825975	-5.000000	0.000000
2.841450	20.633716	0.000000	0.000000	0.000000	0.050000	0.000000	3.700000	15.829122	-10.000000	0.000000	-120.202580	16.747723	-5.000000	0.000000
2.846400	20.633716	0.000000	0.000000	0.000000	0.050000	0.000000	3.700000	16.096232	-10.000000	0.000000	-120.692316	17.432257	-5.000000	0.000000
2.851350	20.633716	0.000000	0.000000	0.000000	0.050000	0.000000	3.700000	16.284905	-10.000000	0.000000	-121.069337	18.032065	-5.000000	0.000000
2.856300	20.633716	0.000000	0.000000	0.000000	0.050000	0.000000	3.700000	16.376101	-10.000000	0.000000	-121.312781	18.593277	-5.000000	0.000000
2.861250	20.633716	0.000000	0.000000	0.000000	0.050000	0.000000	3.700000	16.410928	-10.000000	0.000000	-121.464805	19.190654	-5.000000	0.000000
2.866200	20.633716	0.000000	0.000000	0.000000	0.050000	0.000000	3.700000	16.385472	-10.000000	0.000000	-121.517858	19.882695	-5.000000	0.000000
2.871150	20.633716	0.000000	0.000000	0.000000	0.050000	0.000000	3.700000	16.305320	-10.000000	0.000000	-121.473983	20.668635	-5.000000	0.000000
2.876100	20.633716	0.000000	0.000000	0.000000	0.050000	0.000000	3.700000	16.186847	-10.000000	0.000000	-121.358327	21.488168	-5.000000	0.000000
2.881050	20.633716	0.000000	0.000000	0.000000	0.050000	0.000000	3.700000	16.036364	-10.000000	0.000000	-121.183452	22.324363	-5.000000	0.000000
2.886000	20.633716	0.000000	0.000000	0.000000	0.050000	0.000000	3.700000	15.856321	-10.000000	0.000000	-120.938256	22.986921	-5.000000	0.000000
2.890950	20.633716	0.000000	0.000000	0.000000	0.050000	0.000000	3.700000	15.655160	-10.000000	0.000000	-120.668659	23.054282	-5.000000	0.000000
2.895900	20.633716	0.000000	0.000000	0.000000	0.050000	0.000000	3.700000	15.421672	-10.000000	0.000000	-120.347191	22.935969	-5.000000	0.000000
2.900850	20.633716	0.000000	0.000000	0.000000	0.050000	0.000000	3.700000	15.139231	-10.000000	0.000000	-119.958724	22.734338	-5.000000	0.000000
2.905800	20.633716	0.000000	0.000000	0.000000	0.050000	0.000000	3.700000	14.793634	-10.000000	0.000000	-119.487021	22.442363	-5.000000	0.000000
2.910750	20.633716	0.000000	0.000000	0.000000	0.050000	0.000000	3.700000	14.363903	-10.000000	0.000000	-118.912658	22.056240	-5.000000	0.000000
2.915700	20.633716	0.000000	0.000000	0.000000	0.050000	0.000000	3.700000	13.827281	-10.000000	0.000000	-118.211795	21.533075	-5.000000	0.000000
2.920650	20.633716	0.000000	0.000000	0.000000	0.050000	0.000000	3.700000	13.158584	-10.000000	0.000000	-117.350443	20.844895	-5.000000	0.000000
2.925600	20.633716	0.000000	0.000000	0.000000	0.050000	0.000000	3.700000	12.339494	-10.000000	0.000000	-116.300399	19.916877	-5.000000	0.000000
2.930550	20.633716	0.000000	0.000000	0.000000	0.050000	0.000000	3.700000	11.376832	-10.000000	0.000000	-115.069588	18.774926	-5.000000	0.000000
2.935500	20.633716	0.000000	0.000000	0.000000	0.050000	0.000000	3.700000	10.238601	-10.000000	0.000000	-113.636699	17.324657	-5.000000	0.000000
2.940450	20.633716	0.000000	0.000000	0.000000	0.050000	0.000000	3.700000	8.933752	-10.000000	0.000000	-112.023339	15.514449	-5.000000	0.000000
2.945400	20.633716	0.000000	0.000000	0.000000	0.050000	0.000000	3.700000	7.451455	-10.000000	0.000000	-110.213919	13.415356	-5.000000	0.000000
2.950350	20.633716	0.000000	0.000000	0.000000	0.050000	0.000000	3.700000	5.786972	-10.000000	0.000000	-108.204773	11.069530	-5.000000	0.000000
2.955300	20.633716	0.000000	0.000000	0.000000	0.050000	0.000000	3.700000	3.927565	-10.000000	0.000000	-105.961013	8.462463	-5.000000	0.000000
2.960250	20.633716	0.000000	0.000000	0.000000	0.050000	0.000000	3.700000	1.858458	-10.000000	0.000000	-103.452081	5.577933	-5.000000	0.000000
2.965200	20.633716	0.000000	0.000000	0.000000	0.050000	0.000000	3.700000	-0.444255	-10.000000	0.000000	-100.622899	2.385241	-5.000000	0.000000
2.970150	20.633716	0.000000	0.000000	0.000000	0.050000	0.000000	3.700000	-2.999544	-10.000000	0.000000	-97.464308	-1.118461	-5.000000	0.000000
2.975100	20.633716	0.000000	0.000000	0.000000	0.050000	0.000000	3.700000	-5.815438	-10.000000	0.000000	-94.001269	-4.912317	-5.000000	0.000000
2.980050	20.633716	0.000000	0.000000	0.000000	0.050000	0.000000	3.700000	-8.923791	-10.000000	0.000000	-91.197127	-9.122935	-5.000000	0.000000
2.985000	20.633716	0.000000	0.000000	0.000000	0.050000	0.000000	3.700000	-8.500000	-10.000000	0.000000	-91.500000	-10.801442	-5.000000	0.000000
2.989950	20.633716	0.000000	0.000000	0.000000	0.050000	0.000000	3.700000	-8.808024	-10.000000	0.000000	-91.500000	-13.024365	-5.000000	0.000000
2.994900	20.633716	0.000000	0.000000	0.000000	0.050000	0.000000	3.700000	-8.621294	-10.000000	0.000000	-91.402358	-15.565180	-5.000000	0.000000
2.999850	20.633716	0.000000	0.000000	0.000000	0.050000	0.000000	3.700000	-8.514922	-10.000000	0.000000	-91.500000	-18.534647	-5.000000	0.000000
