kopru_ayakbilegi
version=1
nRows=122
nColumns=53
inDegrees=yes
endheader
time	sacrum_pitch	sacrum_roll	sacrum_yaw	sacrum_x	sacrum_y	sacrum_z	sacroiliac_flx	hip_flx	hip_add	hip_int	knee_flx	ankle_flx	ankle_add	ankle_int	BFa.activation	BFp.activation	CF.activation	STp.activation	STa.activation	SM.activation	QF.activation	TFL.activation	GMa.activation	GMe.activation	GMi.activation	Pir.activation	GP.activation	GA.activation	AL.activation	AM.activation	AB.activation	Pec.activation	IP.activation	OE.activation	OI.activation	GS.activation	GI.activation	RF.activation	VL.activation	VI.activation	VM.activation	MG.activation	LG.activation	Pla.activation	Sol.activation	TA.activation	EDL.activation	TP.activation	FDL.activation	FHL.activation	Per.activation	Pop.activation
0.000150	20.633716	0.000000	0.000000	0.000000	0.050000	0.000000	3.700000	39.941851	-10.000000	0.000000	-125.456028	18.891492	-5.000000	0.000000	0.000000	0.000000	0.000000	0.000000	0.000000	0.000000	0.000000	0.000000	0.000000	0.000000	0.000000	0.000000	0.000000	0.000000	0.000000	0.000000	0.000000	0.000000	0.000000	0.000000	0.000000	0.000000	0.000000	0.000000	0.000000	0.000000	0.000000	0.000000	0.000000	0.000000	0.000000	0.000000	0.000000	0.000000	0.000000	0.000000	0.000000	0.000000
0.005100	20.633716	0.000000	0.000000	0.000000	0.050000	0.000000	3.700000	39.941851	-10.000000	0.000000	-125.456028	16.905169	-5.000000	0.000000	0.000000	0.000000	0.000000	0.000000	0.000000	0.000000	0.000000	0.000000	0.000000	0.000000	0.000000	0.000000	0.000000	0.000000	0.000000	0.000000	0.000000	0.000000	0.000000	0.000000	0.000000	0.000000	0.000000	0.000000	0.000000	0.000000	0.000000	0.000000	0.000000	0.000000	0.000000	0.000000	0.000000	0.000000	0.000000	0.000000	0.000000	0.000000
0.010050	20.633716	0.000000	0.000000	0.000000	0.050000	0.000000	3.700000	39.941851	-10.000000	0.000000	-125.456028	15.813853	-5.000000	0.000000	0.000000	0.000000	0.000000	0.000000	0.000000	0.000000	0.000000	0.000000	0.000000	0.000000	0.000000	0.000000	0.000000	0.000000	0.000000	0.000000	0.000000	0.000000	0.000000	0.000000	0.000000	0.000000	0.000000	0.000000	0.000000	0.000000	0.000000	0.000000	0.000000	0.000000	0.000000	0.000000	0.000000	0.000000	0.000000	0.000000	0.000000	0.000000
0.015000	20.633716	0.000000	0.000000	0.000000	0.050000	0.000000	3.700000	39.941851	-10.000000	0.000000	-125.456028	15.053634	-5.000000	0.000000	0.000000	0.000000	0.000000	0.000000	0.000000	0.000000	0.000000	0.000000	0.000000	0.000000	0.000000	0.000000	0.000000	0.000000	0.000000	0.000000	0.000000	0.000000	0.000000	0.000000	0.000000	0.000000	0.000000	0.000000	0.000000	0.000000	0.000000	0.000000	0.000000	0.000000	0.000000	0.204950	0.330342	0.000000	0.000000	0.000000	0.329351	0.000000
0.019950	20.633716	0.000000	0.000000	0.000000	0.050000	0.000000	3.700000	39.941851	-10.000000	0.000000	-125.456028	14.955243	-5.000000	0.000000	0.000000	0.000000	0.000000	0.000000	0.000000	0.000000	0.000000	0.000000	0.000000	0.000000	0.000000	0.000000	0.000000	0.000000	0.000000	0.000000	0.000000	0.000000	0.000000	0.000000	0.000000	0.000000	0.000000	0.000000	0.000000	0.000000	0.000000	0.000000	0.000000	0.000000	0.000000	0.185605	0.299161	0.000000	0.000000	0.000000	0.298263	0.000000
0.024900	20.633716	0.000000	0.000000	0.000000	0.050000	0.000000	3.700000	39.941851	-10.000000	0.000000	-125.456028	15.120200	-5.000000	0.000000	0.000000	0.000000	0.000000	0.000000	0.000000	0.000000	0.000000	0.000000	0.000000	0.000000	0.000000	0.000000	0.000000	0.000000	0.000000	0.000000	0.000000	0.000000	0.000000	0.000000	0.000000	0.000000	0.000000	0.000000	0.000000	0.000000	0.000000	0.000000	0.000000	0.000000	0.000000	0.168085	0.270922	0.000000	0.000000	0.000000	0.270109	0.000000
0.029850	20.633716	0.000000	0.000000	0.000000	0.050000	0.000000	3.700000	39.941851	-10.000000	0.000000	-125.456028	15.381467	-5.000000	0.000000	0.000000	0.000000	0.000000	0.000000	0.000000	0.000000	0.000000	0.000000	0.000000	0.000000	0.000000	0.000000	0.000000	0.000000	0.000000	0.000000	0.000000	0.000000	0.000000	0.000000	0.000000	0.000000	0.000000	0.000000	0.000000	0.000000	0.000000	0.000000	0.000000	0.000000	0.000000	0.152219	0.245349	0.000000	0.000000	0.000000	0.244613	0.000000
0.034800	20.633716	0.000000	0.000000	0.000000	0.050000	0.000000	3.700000	39.941851	-10.000000	0.000000	-125.456028	15.678996	-5.000000	0.000000	0.000000	0.000000	0.000000	0.000000	0.000000	0.000000	0.000000	0.000000	0.000000	0.000000	0.000000	0.000000	0.000000	0.000000	0.000000	0.000000	0.000000	0.000000	0.000000	0.000000	0.000000	0.000000	0.000000	0.000000	0.000000	0.000000	0.000000	0.000000	0.000000	0.000000	0.000000	0.137851	0.222190	0.000000	0.000000	0.000000	0.221524	0.000000
0.039750	20.633716	0.000000	0.000000	0.000000	0.050000	0.000000	3.700000	39.941851	-10.000000	0.000000	-125.456028	16.009720	-5.000000	0.000000	0.000000	0.000000	0.000000	0.000000	0.000000	0.000000	0.000000	0.000000	0.000000	0.000000	0.000000	0.000000	0.000000	0.000000	0.000000	0.000000	0.000000	0.000000	0.000000	0.000000	0.000000	0.000000	0.000000	0.000000	0.000000	0.000000	0.000000	0.000000	0.000000	0.000000	0.000000	0.124839	0.201217	0.000000	0.000000	0.000000	0.200614	0.000000
0.044700	20.633716	0.000000	0.000000	0.000000	0.050000	0.000000	3.700000	39.941851	-10.000000	0.000000	-125.456028	16.470658	-5.000000	0.000000	0.000000	0.000000	0.000000	0.000000	0.000000	0.000000	0.000000	0.000000	0.000000	0.000000	0.000000	0.000000	0.000000	0.000000	0.000000	0.000000	0.000000	0.000000	0.000000	0.000000	0.000000	0.000000	0.000000	0.000000	0.000000	0.000000	0.000000	0.000000	0.000000	0.000000	0.000000	0.113055	0.182224	0.000000	0.000000	0.000000	0.181677	0.000000
0.049650	20.633716	0.000000	0.000000	0.000000	0.050000	0.000000	3.700000	39.941851	-10.000000	0.000000	-125.456028	17.072225	-5.000000	0.000000	0.000000	0.000000	0.000000	0.000000	0.000000	0.000000	0.000000	0.000000	0.000000	0.000000	0.000000	0.000000	0.000000	0.000000	0.000000	0.000000	0.000000	0.000000	0.000000	0.000000	0.000000	0.000000	0.000000	0.000000	0.000000	0.000000	0.000000	0.000000	0.000000	0.000000	0.000000	0.102384	0.165023	0.000000	0.000000	0.000000	0.164528	0.000000
0.054600	20.633716	0.000000	0.000000	0.000000	0.050000	0.000000	3.700000	39.941851	-10.000000	0.000000	-125.456028	17.811895	-5.000000	0.000000	0.000000	0.000000	0.000000	0.000000	0.000000	0.000000	0.000000	0.000000	0.000000	0.000000	0.000000	0.000000	0.000000	0.000000	0.000000	0.000000	0.000000	0.000000	0.000000	0.000000	0.000000	0.000000	0.000000	0.000000	0.000000	0.000000	0.000000	0.000000	0.000000	0.000000	0.000000	0.092719	0.454966	0.000000	0.000000	0.000000	0.451776	0.000000
0.059550	20.633716	0.000000	0.000000	0.000000	0.050000	0.000000	3.700000	39.941851	-10.000000	0.000000	-125.456028	18.786790	-5.000000	0.000000	0.000000	0.000000	0.000000	0.000000	0.000000	0.000000	0.000000	0.000000	0.000000	0.000000	0.000000	0.000000	0.000000	0.000000	0.000000	0.000000	0.000000	0.000000	0.000000	0.000000	0.000000	0.000000	0.000000	0.000000	0.000000	0.000000	0.000000	0.000000	0.000000	0.000000	0.000000	0.283450	0.412021	0.000000	0.000000	0.000000	0.409132	0.000000
0.064500	20.633716	0.000000	0.000000	0.000000	0.050000	0.000000	3.700000	39.941851	-10.000000	0.000000	-125.456028	20.104033	-5.000000	0.000000	0.000000	0.000000	0.000000	0.000000	0.000000	0.000000	0.000000	0.000000	0.000000	0.000000	0.000000	0.000000	0.000000	0.000000	0.000000	0.000000	0.000000	0.000000	0.000000	0.000000	0.000000	0.000000	0.000000	0.000000	0.000000	0.000000	0.000000	0.000000	0.000000	0.000000	0.000000	0.256695	0.373129	0.000000	0.000000	0.000000	0.370513	0.000000
0.069450	20.633716	0.000000	0.000000	0.000000	0.050000	0.000000	3.700000	39.941851	-10.000000	0.000000	-125.456028	21.666008	-5.000000	0.000000	0.000000	0.000000	0.000000	0.000000	0.000000	0.000000	0.000000	0.000000	0.000000	0.000000	0.000000	0.000000	0.000000	0.000000	0.000000	0.000000	0.000000	0.000000	0.000000	0.000000	0.000000	0.000000	0.000000	0.000000	0.000000	0.000000	0.000000	0.000000	0.000000	0.000000	0.000000	0.232465	0.337909	0.000000	0.000000	0.000000	0.335540	0.000000
0.074400	20.633716	0.000000	0.000000	0.000000	0.050000	0.000000	3.700000	39.941851	-10.000000	0.000000	-125.456028	23.331201	-5.000000	0.000000	0.000000	0.000000	0.000000	0.000000	0.000000	0.000000	0.000000	0.000000	0.000000	0.000000	0.000000	0.000000	0.000000	0.000000	0.000000	0.000000	0.000000	0.000000	0.000000	0.000000	0.000000	0.000000	0.000000	0.000000	0.000000	0.000000	0.000000	0.000000	0.000000	0.000000	0.000000	0.210522	0.306013	0.000000	0.000000	0.000000	0.303867	0.000000
0.079350	20.633716	0.000000	0.000000	0.000000	0.050000	0.000000	3.700000	39.941851	-10.000000	0.000000	-125.456028	25.026183	-5.000000	0.000000	0.000000	0.000000	0.000000	0.000000	0.000000	0.000000	0.000000	0.000000	0.000000	0.000000	0.000000	0.000000	0.000000	0.000000	0.000000	0.000000	0.000000	0.000000	0.000000	0.000000	0.000000	0.000000	0.000000	0.000000	0.000000	0.000000	0.000000	0.000000	0.000000	0.000000	0.000000	0.190650	0.277128	0.000000	0.000000	0.000000	0.275185	0.000000
0.084300	20.633716	0.000000	0.000000	0.000000	0.050000	0.000000	3.700000	39.941851	-10.000000	0.000000	-125.456028	26.738174	-5.000000	0.000000	0.000000	0.000000	0.000000	0.000000	0.000000	0.000000	0.000000	0.000000	0.000000	0.000000	0.000000	0.000000	0.000000	0.000000	0.000000	0.000000	0.000000	0.000000	0.000000	0.000000	0.000000	0.000000	0.000000	0.000000	0.000000	0.000000	0.000000	0.000000	0.000000	0.000000	0.000000	0.172654	0.250969	0.000000	0.000000	0.000000	0.249209	0.000000
0.089250	20.633716	0.000000	0.000000	0.000000	0.050000	0.000000	3.700000	39.941851	-10.000000	0.000000	-125.456028	28.452602	-5.000000	0.000000	0.000000	0.000000	0.000000	0.000000	0.000000	0.000000	0.000000	0.000000	0.000000	0.000000	0.000000	0.000000	0.000000	0.000000	0.000000	0.000000	0.000000	0.000000	0.000000	0.000000	0.000000	0.000000	0.000000	0.000000	0.000000	0.000000	0.000000	0.000000	0.000000	0.000000	0.000000	0.156357	0.227279	0.000000	0.000000	0.000000	0.225686	0.000000
0.094200	20.633716	0.000000	0.000000	0.000000	0.050000	0.000000	3.700000	39.941851	-10.000000	0.000000	-125.456028	30.156538	-5.000000	0.000000	0.000000	0.000000	0.000000	0.000000	0.000000	0.000000	0.000000	0.000000	0.000000	0.000000	0.000000	0.000000	0.000000	0.000000	0.000000	0.000000	0.000000	0.000000	0.000000	0.000000	0.000000	0.000000	0.000000	0.000000	0.000000	0.000000	0.000000	0.000000	0.000000	0.000000	0.000000	0.141598	0.538159	0.000000	0.000000	0.000000	0.535719	0.000000
0.099150	20.633716	0.000000	0.000000	0.000000	0.050000	0.000000	3.700000	39.941851	-10.000000	0.000000	-125.456028	32.005007	-5.000000	0.000000	0.000000	0.000000	0.000000	0.000000	0.000000	0.000000	0.000000	0.000000	0.000000	0.000000	0.000000	0.000000	0.000000	0.000000	0.000000	0.000000	0.000000	0.000000	0.000000	0.000000	0.000000	0.000000	0.000000	0.000000	0.000000	0.000000	0.000000	0.000000	0.000000	0.000000	0.000000	0.315518	0.487361	0.000000	0.000000	0.000000	0.485152	0.000000
0.104100	20.633716	0.000000	0.000000	0.000000	0.050000	0.000000	3.700000	39.941851	-10.000000	0.000000	-125.456028	34.171067	-5.000000	0.000000	0.000000	0.000000	0.000000	0.000000	0.000000	0.000000	0.000000	0.000000	0.000000	0.000000	0.000000	0.000000	0.000000	0.000000	0.000000	0.000000	0.000000	0.000000	0.000000	0.000000	0.000000	0.000000	0.000000	0.000000	0.000000	0.000000	0.000000	0.000000	0.000000	0.000000	0.000000	0.285735	0.441358	0.000000	0.000000	0.000000	0.439357	0.000000
0.109050	20.633716	0.000000	0.000000	0.000000	0.050000	0.000000	3.700000	39.941851	-10.000000	0.000000	-125.456028	36.464372	-5.000000	0.000000	0.000000	0.000000	0.000000	0.000000	0.000000	0.000000	0.000000	0.000000	0.000000	0.000000	0.000000	0.000000	0.000000	0.000000	0.000000	0.000000	0.000000	0.000000	0.000000	0.000000	0.000000	0.000000	0.000000	0.000000	0.000000	0.000000	0.000000	0.000000	0.000000	0.000000	0.000000	0.258764	0.399698	0.000000	0.000000	0.000000	0.397885	0.000000
0.114000	20.633716	0.000000	0.000000	0.000000	0.050000	0.000000	3.700000	39.941851	-10.000000	0.000000	-125.456028	38.779422	-5.000000	0.000000	0.000000	0.000000	0.000000	0.000000	0.000000	0.000000	0.000000	0.000000	0.000000	0.000000	0.000000	0.000000	0.000000	0.000000	0.000000	0.000000	0.000000	0.000000	0.000000	0.000000	0.000000	0.000000	0.000000	0.000000	0.000000	0.000000	0.000000	0.000000	0.000000	0.000000	0.000000	0.234339	0.361969	0.000000	0.333333	0.333333	0.360328	0.000000
0.118950	20.633716	0.000000	0.000000	0.000000	0.050000	0.000000	3.700000	39.941851	-10.000000	0.000000	-125.456028	40.653281	-5.000000	0.000000	0.000000	0.000000	0.000000	0.000000	0.000000	0.000000	0.000000	0.000000	0.000000	0.000000	0.000000	0.000000	0.000000	0.000000	0.000000	0.000000	0.000000	0.000000	0.000000	0.000000	0.000000	0.000000	0.000000	0.000000	0.000000	0.000000	0.000000	0.000000	0.000000	0.000000	0.650762	0.212219	0.327802	0.302778	0.301869	0.301869	0.326316	0.000000
0.123900	20.633716	0.000000	0.000000	0.000000	0.050000	0.000000	3.700000	39.941851	-10.000000	0.000000	-125.456028	41.879973	-5.000000	0.000000	0.000000	0.000000	0.000000	0.000000	0.000000	0.000000	0.000000	0.000000	0.000000	0.000000	0.000000	0.000000	0.000000	0.000000	0.000000	0.000000	0.000000	0.000000	0.000000	0.000000	0.000000	0.000000	0.000000	0.000000	0.000000	0.000000	0.000000	0.000000	0.000000	0.000000	0.589335	0.192187	0.296860	0.274198	0.273375	0.273375	0.295514	0.000000
0.128850	20.633716	0.000000	0.000000	0.000000	0.050000	0.000000	3.700000	39.941851	-10.000000	0.000000	-125.456028	42.805284	-5.000000	0.000000	0.000000	0.000000	0.000000	0.000000	0.000000	0.000000	0.000000	0.000000	0.000000	0.000000	0.000000	0.000000	0.000000	0.000000	0.000000	0.000000	0.000000	0.000000	0.000000	0.000000	0.000000	0.000000	0.000000	0.000000	0.000000	0.000000	0.000000	0.000000	0.000000	0.000000	0.533706	0.174046	0.268839	0.248316	0.247571	0.247571	0.267620	0.000000
0.133800	20.633716	0.000000	0.000000	0.000000	0.050000	0.000000	3.700000	39.941851	-10.000000	0.000000	-125.456028	43.628989	-5.000000	0.000000	0.000000	0.000000	0.000000	0.000000	0.000000	0.000000	0.000000	0.000000	0.000000	0.000000	0.000000	0.000000	0.000000	0.000000	0.000000	0.000000	0.000000	0.000000	0.000000	0.000000	0.000000	0.000000	0.000000	0.000000	0.000000	0.000000	0.000000	0.000000	0.000000	0.000000	0.483329	0.157618	0.243463	0.224877	0.224202	0.224202	0.242359	0.000000
0.138750	20.633716	0.000000	0.000000	0.000000	0.050000	0.000000	3.700000	39.941851	-10.000000	0.000000	-125.456028	44.388818	-5.000000	0.000000	0.000000	0.000000	0.000000	0.000000	0.000000	0.000000	0.000000	0.000000	0.000000	0.000000	0.000000	0.000000	0.000000	0.000000	0.000000	0.000000	0.000000	0.000000	0.000000	0.000000	0.000000	0.000000	0.000000	0.000000	0.000000	0.000000	0.000000	0.000000	0.000000	0.000000	0.437706	0.142740	0.220482	0.203650	0.203039	0.203039	0.219482	0.000000
0.143700	20.633716	0.000000	0.000000	0.000000	0.050000	0.000000	3.700000	39.941851	-10.000000	0.000000	-125.456028	45.123044	-5.000000	0.000000	0.000000	0.000000	0.000000	0.000000	0.000000	0.000000	0.000000	0.000000	0.000000	0.000000	0.000000	0.000000	0.000000	0.000000	0.000000	0.000000	0.000000	0.000000	0.000000	0.000000	0.000000	0.000000	0.000000	0.000000	0.000000	0.000000	0.000000	0.000000	0.000000	0.000000	0.396390	0.129266	0.199670	0.184427	0.183874	0.183874	0.198765	0.000000
0.148650	20.633716	0.000000	0.000000	0.000000	0.050000	0.000000	3.700000	39.941851	-10.000000	0.000000	-125.456028	45.798550	-5.000000	0.000000	0.000000	0.000000	0.000000	0.000000	0.000000	0.000000	0.000000	0.000000	0.000000	0.000000	0.000000	0.000000	0.000000	0.000000	0.000000	0.000000	0.000000	0.000000	0.000000	0.000000	0.000000	0.000000	0.000000	0.000000	0.000000	0.000000	0.000000	0.000000	0.000000	0.000000	0.358974	0.117065	0.180823	0.167019	0.166518	0.166518	0.180003	0.000000
0.153600	20.633716	0.000000	0.000000	0.000000	0.050000	0.000000	3.700000	39.941851	-10.000000	0.000000	-125.456028	46.389991	-5.000000	0.000000	0.000000	0.000000	0.000000	0.000000	0.000000	0.000000	0.000000	0.000000	0.000000	0.000000	0.000000	0.000000	0.000000	0.000000	0.000000	0.000000	0.000000	0.000000	0.000000	0.000000	0.000000	0.000000	0.000000	0.000000	0.000000	0.000000	0.000000	0.000000	0.000000	0.000000	0.325090	0.106015	0.163755	0.151253	0.150800	0.150800	0.163012	0.000000
0.158550	20.633716	0.000000	0.000000	0.000000	0.050000	0.000000	3.700000	39.941851	-10.000000	0.000000	-125.456028	46.902089	-5.000000	0.000000	0.000000	0.000000	0.000000	0.000000	0.000000	0.000000	0.000000	0.000000	0.000000	0.000000	0.000000	0.000000	0.000000	0.000000	0.000000	0.000000	0.000000	0.000000	0.000000	0.000000	0.000000	0.000000	0.000000	0.000000	0.000000	0.000000	0.000000	0.000000	0.000000	0.000000	0.294404	0.096008	0.148298	0.136976	0.136565	0.136565	0.147625	0.000000
0.163500	20.633716	0.000000	0.000000	0.000000	0.050000	0.000000	3.700000	39.941851	-10.000000	0.000000	-125.456028	47.350941	-5.000000	0.000000	0.000000	0.000000	0.000000	0.000000	0.000000	0.000000	0.000000	0.000000	0.000000	0.000000	0.000000	0.000000	0.000000	0.000000	0.000000	0.000000	0.000000	0.000000	0.000000	0.000000	0.000000	0.000000	0.000000	0.000000	0.000000	0.000000	0.000000	0.000000	0.000000	0.000000	0.266615	0.086945	0.134299	0.124047	0.123675	0.123675	0.133690	0.000000
0.168450	20.633716	0.000000	0.000000	0.000000	0.050000	0.000000	3.700000	39.941851	-10.000000	0.000000	-125.456028	47.743458	-5.000000	0.000000	0.000000	0.000000	0.000000	0.000000	0.000000	0.000000	0.000000	0.000000	0.000000	0.000000	0.000000	0.000000	0.000000	0.000000	0.000000	0.000000	0.000000	0.000000	0.000000	0.000000	0.000000	0.000000	0.000000	0.000000	0.000000	0.000000	0.000000	0.000000	0.000000	0.000000	0.241448	0.078738	0.121623	0.112338	0.112001	0.112001	0.121071	0.000000
0.173400	20.633716	0.000000	0.000000	0.000000	0.050000	0.000000	3.700000	39.941851	-10.000000	0.000000	-125.456028	48.085315	-5.000000	0.000000	0.000000	0.000000	0.000000	0.000000	0.000000	0.000000	0.000000	0.000000	0.000000	0.000000	0.000000	0.000000	0.000000	0.000000	0.000000	0.000000	0.000000	0.000000	0.000000	0.000000	0.000000	0.000000	0.000000	0.000000	0.000000	0.000000	0.000000	0.000000	0.000000	0.000000	0.218657	0.071306	0.110142	0.101734	0.101429	0.101429	0.109643	0.000000
0.178350	20.633716	0.000000	0.000000	0.000000	0.050000	0.000000	3.700000	39.941851	-10.000000	0.000000	-125.456028	48.383782	-5.000000	0.000000	0.000000	0.000000	0.000000	0.000000	0.000000	0.000000	0.000000	0.000000	0.000000	0.000000	0.000000	0.000000	0.000000	0.000000	0.000000	0.000000	0.000000	0.000000	0.000000	0.000000	0.000000	0.000000	0.000000	0.000000	0.000000	0.000000	0.000000	0.000000	0.000000	0.000000	0.198018	0.064575	0.099746	0.092131	0.091855	0.091855	0.099294	0.000000
0.183300	20.633716	0.000000	0.000000	0.000000	0.050000	0.000000	3.700000	39.941851	-10.000000	0.000000	-125.456028	48.646811	-5.000000	0.000000	0.000000	0.000000	0.000000	0.000000	0.000000	0.000000	0.000000	0.000000	0.000000	0.000000	0.000000	0.000000	0.000000	0.000000	0.000000	0.000000	0.000000	0.000000	0.000000	0.000000	0.000000	0.000000	0.000000	0.000000	0.000000	0.000000	0.000000	0.000000	0.000000	0.000000	0.179327	0.058480	0.090331	0.083435	0.083184	0.083184	0.089921	0.000000
0.188250	20.633716	0.000000	0.000000	0.000000	0.050000	0.000000	3.700000	39.941851	-10.000000	0.000000	-125.456028	48.882098	-5.000000	0.000000	0.000000	0.000000	0.000000	0.000000	0.000000	0.000000	0.000000	0.000000	0.000000	0.000000	0.000000	0.000000	0.000000	0.000000	0.000000	0.000000	0.000000	0.000000	0.000000	0.000000	0.000000	0.000000	0.000000	0.000000	0.000000	0.000000	0.000000	0.000000	0.000000	0.000000	0.162400	0.052960	0.081804	0.075559	0.075332	0.075332	0.081433	0.000000
0.193200	20.633716	0.000000	0.000000	0.000000	0.050000	0.000000	3.700000	39.941851	-10.000000	0.000000	-125.456028	49.094063	-5.000000	0.000000	0.000000	0.000000	0.000000	0.000000	0.000000	0.000000	0.000000	0.000000	0.000000	0.000000	0.000000	0.000000	0.000000	0.000000	0.000000	0.000000	0.000000	0.000000	0.000000	0.000000	0.000000	0.000000	0.000000	0.000000	0.000000	0.000000	0.000000	0.000000	0.000000	0.000000	0.147070	0.047961	0.074082	0.068427	0.068222	0.068222	0.073747	0.000000
0.198150	20.633716	0.000000	0.000000	0.000000	0.050000	0.000000	3.700000	39.941851	-10.000000	0.000000	-125.456028	49.283081	-5.000000	0.000000	0.000000	0.000000	0.000000	0.000000	0.000000	0.000000	0.000000	0.000000	0.000000	0.000000	0.000000	0.000000	0.000000	0.000000	0.000000	0.000000	0.000000	0.000000	0.000000	0.000000	0.000000	0.000000	0.000000	0.000000	0.000000	0.000000	0.000000	0.000000	0.000000	0.000000	0.133188	0.043434	0.067090	0.061968	0.061782	0.061782	0.066785	0.000000
0.203100	20.633716	0.000000	0.000000	0.000000	0.050000	0.000000	3.700000	39.941851	-10.000000	0.000000	-125.456028	49.074615	-5.000000	0.000000	0.000000	0.000000	0.000000	0.000000	0.000000	0.000000	0.000000	0.000000	0.000000	0.000000	0.000000	0.000000	0.000000	0.000000	0.000000	0.000000	0.000000	0.000000	0.000000	0.000000	0.000000	0.000000	0.000000	0.000000	0.000000	0.000000	0.000000	0.277740	0.277740	0.311077	0.797299	0.039334	0.060757	0.371904	0.371735	0.371735	0.060481	0.000000
0.208050	20.633716	0.000000	0.000000	0.000000	0.050000	0.000000	3.700000	39.941851	-10.000000	0.000000	-125.456028	48.290812	-5.000000	0.000000	0.000000	0.000000	0.000000	0.000000	0.000000	0.000000	0.000000	0.000000	0.000000	0.000000	0.000000	0.000000	0.000000	0.000000	0.000000	0.000000	0.000000	0.000000	0.000000	0.000000	0.000000	0.000000	0.000000	0.000000	0.000000	0.000000	0.000000	0.251524	0.251524	0.281713	0.722040	0.035621	0.055022	0.336799	0.336647	0.336647	0.054772	0.000000
0.213000	20.633716	0.000000	0.000000	0.000000	0.050000	0.000000	3.700000	39.941851	-10.000000	0.000000	-125.456028	47.014708	-5.000000	0.000000	0.000000	0.000000	0.000000	0.000000	0.000000	0.000000	0.000000	0.000000	0.000000	0.000000	0.000000	0.000000	0.000000	0.000000	0.000000	0.000000	0.000000	0.000000	0.000000	0.000000	0.000000	0.000000	0.000000	0.000000	0.000000	0.000000	0.000000	0.227782	0.227782	0.255122	0.653885	0.032259	0.049828	0.305008	0.304870	0.304870	0.049602	0.000000
0.217950	20.633716	0.000000	0.000000	0.000000	0.050000	0.000000	3.700000	39.941851	-10.000000	0.000000	-125.456028	45.266274	-5.000000	0.000000	0.000000	0.000000	0.000000	0.000000	0.000000	0.000000	0.000000	0.000000	0.000000	0.000000	0.000000	0.000000	0.000000	0.000000	0.000000	0.000000	0.000000	0.000000	0.000000	0.000000	0.000000	0.000000	0.000000	0.000000	0.000000	0.000000	0.000000	0.206281	0.206281	0.231040	0.592163	0.029214	0.045125	0.276218	0.276093	0.276093	0.044920	0.000000
0.222900	20.633716	0.000000	0.000000	0.000000	0.050000	0.000000	3.700000	39.941851	-10.000000	0.000000	-125.456028	43.402300	-5.000000	0.000000	0.000000	0.000000	0.000000	0.000000	0.000000	0.000000	0.000000	0.000000	0.000000	0.000000	0.000000	0.000000	0.000000	0.000000	0.000000	0.000000	0.000000	0.000000	0.000000	0.000000	0.000000	0.000000	0.000000	0.000000	0.000000	0.000000	0.000000	0.186810	0.186810	0.209232	0.536268	0.026456	0.040865	0.250145	0.250032	0.250032	0.040680	0.000000
0.227850	20.633716	0.000000	0.000000	0.000000	0.050000	0.000000	3.700000	39.941851	-10.000000	0.000000	-125.456028	41.506853	-5.000000	0.000000	0.000000	0.000000	0.000000	0.000000	0.000000	0.000000	0.000000	0.000000	0.000000	0.000000	0.000000	0.000000	0.000000	0.000000	0.000000	0.000000	0.000000	0.000000	0.000000	0.000000	0.000000	0.000000	0.000000	0.000000	0.000000	0.000000	0.000000	0.169177	0.169177	0.189482	0.485649	0.023959	0.037008	0.226533	0.226431	0.226431	0.036840	0.000000
0.232800	20.633716	0.000000	0.000000	0.000000	0.050000	0.000000	3.700000	39.941851	-10.000000	0.000000	-125.456028	39.600495	-5.000000	0.000000	0.000000	0.000000	0.000000	0.000000	0.000000	0.000000	0.000000	0.000000	0.000000	0.000000	0.000000	0.000000	0.000000	0.000000	0.000000	0.000000	0.000000	0.000000	0.000000	0.000000	0.000000	0.000000	0.000000	0.000000	0.000000	0.000000	0.000000	0.153208	0.153208	0.171597	0.439807	0.021698	0.033515	0.205150	0.205057	0.205057	0.033363	0.000000
0.237750	20.633716	0.000000	0.000000	0.000000	0.050000	0.000000	3.700000	39.941851	-10.000000	0.000000	-125.456028	37.692952	-5.000000	0.000000	0.000000	0.000000	0.000000	0.000000	0.000000	0.000000	0.000000	0.000000	0.000000	0.000000	0.000000	0.000000	0.000000	0.000000	0.000000	0.000000	0.000000	0.000000	0.000000	0.000000	0.000000	0.000000	0.000000	0.000000	0.000000	0.000000	0.000000	0.138746	0.138746	0.155399	0.398293	0.019649	0.030351	0.185786	0.185702	0.185702	0.030214	0.000000
0.242700	20.633716	0.000000	0.000000	0.000000	0.050000	0.000000	3.700000	39.941851	-10.000000	0.000000	-125.456028	35.790694	-5.000000	0.000000	0.000000	0.000000	0.000000	0.000000	0.000000	0.000000	0.000000	0.000000	0.000000	0.000000	0.000000	0.000000	0.000000	0.000000	0.000000	0.000000	0.000000	0.000000	0.000000	0.000000	0.000000	0.000000	0.000000	0.000000	0.000000	0.000000	0.000000	0.125650	0.125650	0.140731	0.360697	0.017795	0.027486	0.168249	0.168173	0.168173	0.027362	0.000000
0.247650	20.633716	0.000000	0.000000	0.000000	0.050000	0.000000	3.700000	39.941851	-10.000000	0.000000	-125.456028	33.898712	-5.000000	0.000000	0.000000	0.000000	0.000000	0.000000	0.000000	0.000000	0.000000	0.000000	0.000000	0.000000	0.000000	0.000000	0.000000	0.000000	0.000000	0.000000	0.000000	0.000000	0.000000	0.000000	0.000000	0.000000	0.000000	0.000000	0.000000	0.000000	0.000000	0.113789	0.113789	0.127447	0.326650	0.016115	0.024892	0.152368	0.152299	0.152299	0.024779	0.000000
0.252600	20.633716	0.000000	0.000000	0.000000	0.050000	0.000000	3.700000	39.941851	-10.000000	0.000000	-125.456028	32.020924	-5.000000	0.000000	0.000000	0.000000	0.000000	0.000000	0.000000	0.000000	0.000000	0.000000	0.000000	0.000000	0.000000	0.000000	0.000000	0.000000	0.000000	0.000000	0.000000	0.000000	0.000000	0.000000	0.000000	0.000000	0.000000	0.000000	0.000000	0.000000	0.000000	0.103048	0.103048	0.115417	0.295817	0.014594	0.022542	0.137985	0.137923	0.137923	0.022440	0.000000
0.257550	20.633716	0.000000	0.000000	0.000000	0.050000	0.000000	3.700000	39.941851	-10.000000	0.000000	-125.456028	30.160369	-5.000000	0.000000	0.000000	0.000000	0.000000	0.000000	0.000000	0.000000	0.000000	0.000000	0.000000	0.000000	0.000000	0.000000	0.000000	0.000000	0.000000	0.000000	0.000000	0.000000	0.000000	0.000000	0.000000	0.000000	0.000000	0.000000	0.000000	0.000000	0.000000	0.093321	0.093321	0.104523	0.267894	0.013216	0.020414	0.124961	0.124904	0.124904	0.020322	0.000000
0.262500	20.633716	0.000000	0.000000	0.000000	0.050000	0.000000	3.700000	39.941851	-10.000000	0.000000	-125.456028	28.319380	-5.000000	0.000000	0.000000	0.000000	0.000000	0.000000	0.000000	0.000000	0.000000	0.000000	0.000000	0.000000	0.000000	0.000000	0.000000	0.000000	0.000000	0.000000	0.000000	0.000000	0.000000	0.000000	0.000000	0.000000	0.000000	0.000000	0.000000	0.000000	0.000000	0.084513	0.084513	0.094656	0.242607	0.011969	0.018488	0.113165	0.113114	0.113114	0.018404	0.000000
0.267450	20.633716	0.000000	0.000000	0.000000	0.050000	0.000000	3.700000	39.941851	-10.000000	0.000000	-125.456028	26.423542	-5.000000	0.000000	0.000000	0.000000	0.000000	0.000000	0.000000	0.000000	0.000000	0.000000	0.000000	0.000000	0.000000	0.000000	0.000000	0.000000	0.000000	0.000000	0.000000	0.000000	0.000000	0.000000	0.000000	0.000000	0.000000	0.000000	0.000000	0.000000	0.000000	0.360179	0.359328	0.408218	0.888306	0.010839	0.016742	0.413560	0.412580	0.412580	0.016667	0.000000
0.272400	20.633716	0.000000	0.000000	0.000000	0.050000	0.000000	3.700000	39.941851	-10.000000	0.000000	-125.456028	23.980667	-5.000000	0.000000	0.000000	0.000000	0.000000	0.000000	0.000000	0.000000	0.000000	0.000000	0.000000	0.000000	0.000000	0.000000	0.000000	0.000000	0.000000	0.000000	0.000000	0.000000	0.000000	0.000000	0.000000	0.000000	0.000000	0.000000	0.000000	0.000000	0.000000	0.326181	0.325410	0.369686	0.804457	0.009816	0.015162	0.374523	0.373636	0.373636	0.015093	0.000000
0.277350	20.633716	0.000000	0.000000	0.000000	0.050000	0.000000	3.700000	39.941851	-10.000000	0.000000	-125.456028	21.186167	-5.000000	0.000000	0.000000	0.000000	0.000000	0.000000	0.000000	0.000000	0.000000	0.000000	0.000000	0.000000	0.000000	0.000000	0.000000	0.000000	0.000000	0.000000	0.000000	0.000000	0.000000	0.000000	0.000000	0.000000	0.000000	0.000000	0.000000	0.000000	0.000000	0.295392	0.294694	0.334790	0.728522	0.008889	0.013731	0.339171	0.338368	0.338368	0.013669	0.000000
0.282300	20.633716	0.000000	0.000000	0.000000	0.050000	0.000000	3.700000	39.941851	-10.000000	0.000000	-125.456028	18.216063	-5.000000	0.000000	0.000000	0.000000	0.000000	0.000000	0.000000	0.000000	0.000000	0.000000	0.000000	0.000000	0.000000	0.000000	0.000000	0.000000	0.000000	0.000000	0.000000	0.000000	0.000000	0.000000	0.000000	0.000000	0.000000	0.000000	0.000000	0.000000	0.000000	0.267509	0.266877	0.303189	0.659756	0.008050	0.012435	0.307156	0.306429	0.306429	0.012378	0.000000
0.287250	20.633716	0.000000	0.000000	0.000000	0.050000	0.000000	3.700000	39.941851	-10.000000	0.000000	-125.456028	15.159164	-5.000000	0.000000	0.000000	0.000000	0.000000	0.000000	0.000000	0.000000	0.000000	0.000000	0.000000	0.000000	0.000000	0.000000	0.000000	0.000000	0.000000	0.000000	0.000000	0.000000	0.000000	0.000000	0.000000	0.000000	0.000000	0.000000	0.000000	0.000000	0.000000	0.242259	0.241686	0.274570	0.597480	0.007290	0.011261	0.278163	0.277504	0.277504	0.011210	0.000000
0.292200	20.633716	0.000000	0.000000	0.000000	0.050000	0.000000	3.700000	39.941851	-10.000000	0.000000	-125.456028	12.049320	-5.000000	0.000000	0.000000	0.000000	0.000000	0.000000	0.000000	0.000000	0.000000	0.000000	0.000000	0.000000	0.000000	0.000000	0.000000	0.000000	0.000000	0.000000	0.000000	0.000000	0.000000	0.000000	0.000000	0.000000	0.000000	0.000000	0.000000	0.000000	0.000000	0.219391	0.218873	0.248653	0.541083	0.006602	0.010198	0.251907	0.251310	0.251310	0.010152	0.000000
0.297150	20.633716	0.000000	0.000000	0.000000	0.050000	0.000000	3.700000	39.941851	-10.000000	0.000000	-125.456028	8.902199	-5.000000	0.000000	0.000000	0.000000	0.000000	0.000000	0.000000	0.000000	0.000000	0.000000	0.000000	0.000000	0.000000	0.000000	0.000000	0.000000	0.000000	0.000000	0.000000	0.000000	0.000000	0.000000	0.000000	0.000000	0.000000	0.000000	0.000000	0.000000	0.000000	0.198682	0.198213	0.225182	0.490009	0.005979	0.009235	0.228129	0.227588	0.227588	0.009194	0.000000
0.302100	20.633716	0.000000	0.000000	0.000000	0.050000	0.000000	3.700000	39.941851	-10.000000	0.000000	-125.456028	5.728807	-5.000000	0.000000	0.000000	0.000000	0.000000	0.000000	0.000000	0.000000	0.000000	0.000000	0.000000	0.000000	0.000000	0.000000	0.000000	0.000000	0.000000	0.000000	0.000000	0.000000	0.000000	0.000000	0.000000	0.000000	0.000000	0.000000	0.000000	0.000000	0.000000	0.179928	0.179503	0.203927	0.443756	0.005415	0.008364	0.206595	0.206106	0.206106	0.008326	0.000000
0.307050	20.633716	0.000000	0.000000	0.000000	0.050000	0.000000	3.700000	39.941851	-10.000000	0.000000	-125.456028	3.832151	-5.000000	0.000000	0.000000	0.000000	0.000000	0.000000	0.000000	0.000000	0.000000	0.000000	0.000000	0.000000	0.000000	0.000000	0.000000	0.000000	0.000000	0.000000	0.000000	0.000000	0.000000	0.000000	0.000000	0.000000	0.000000	0.000000	0.000000	0.000000	0.000000	0.162945	0.162560	0.184678	0.401869	0.195596	0.315860	0.187094	0.186651	0.186651	0.315825	0.000000
0.312000	20.633716	0.000000	0.000000	0.000000	0.050000	0.000000	3.700000	39.941851	-10.000000	0.000000	-125.456028	2.463190	-5.000000	0.000000	0.000000	0.000000	0.000000	0.000000	0.000000	0.000000	0.000000	0.000000	0.000000	0.000000	0.000000	0.000000	0.000000	0.000000	0.000000	0.000000	0.000000	0.000000	0.000000	0.000000	0.000000	0.000000	0.000000	0.000000	0.000000	0.000000	0.000000	0.147564	0.147215	0.167246	0.363935	0.177133	0.286045	0.169434	0.169033	0.169033	0.286014	0.000000
0.316950	20.633716	0.000000	0.000000	0.000000	0.050000	0.000000	3.700000	39.941851	-10.000000	0.000000	-125.456028	1.362972	-5.000000	0.000000	0.000000	0.000000	0.000000	0.000000	0.000000	0.000000	0.000000	0.000000	0.000000	0.000000	0.000000	0.000000	0.000000	0.000000	0.000000	0.000000	0.000000	0.000000	0.000000	0.000000	0.000000	0.000000	0.000000	0.000000	0.000000	0.000000	0.000000	0.133635	0.133319	0.151459	0.329583	0.361702	0.583485	0.153441	0.153077	0.153077	0.583457	0.000000
0.321900	20.633716	0.000000	0.000000	0.000000	0.050000	0.000000	3.700000	39.941851	-10.000000	0.000000	-125.456028	0.755811	-5.000000	0.000000	0.000000	0.000000	0.000000	0.000000	0.000000	0.000000	0.000000	0.000000	0.000000	0.000000	0.000000	0.000000	0.000000	0.000000	0.000000	0.000000	0.000000	0.000000	0.000000	0.000000	0.000000	0.000000	0.000000	0.000000	0.000000	0.000000	0.000000	0.121021	0.120735	0.137162	0.298473	0.327560	0.528409	0.138957	0.138628	0.138628	0.528383	0.000000
0.326850	20.633716	0.000000	0.000000	0.000000	0.050000	0.000000	3.700000	39.941851	-10.000000	0.000000	-125.456028	0.231548	-5.000000	0.000000	0.000000	0.000000	0.000000	0.000000	0.000000	0.000000	0.000000	0.000000	0.000000	0.000000	0.000000	0.000000	0.000000	0.000000	0.000000	0.000000	0.000000	0.000000	0.000000	0.000000	0.000000	0.000000	0.000000	0.000000	0.000000	0.000000	0.000000	0.109598	0.109339	0.124215	0.270299	0.296641	0.478531	0.125841	0.125543	0.125543	0.478508	0.000000
0.331800	20.633716	0.000000	0.000000	0.000000	0.050000	0.000000	3.700000	39.941851	-10.000000	0.000000	-125.456028	-0.212854	-5.000000	0.000000	0.000000	0.000000	0.000000	0.000000	0.000000	0.000000	0.000000	0.000000	0.000000	0.000000	0.000000	0.000000	0.000000	0.000000	0.000000	0.000000	0.000000	0.000000	0.000000	0.000000	0.000000	0.000000	0.000000	0.000000	0.000000	0.000000	0.000000	0.099252	0.099018	0.112490	0.244785	0.268640	0.433362	0.113962	0.113692	0.113692	0.433341	0.000000
0.336750	20.633716	0.000000	0.000000	0.000000	0.050000	0.000000	3.700000	39.941851	-10.000000	0.000000	-125.456028	-0.579911	-5.000000	0.000000	0.000000	0.000000	0.000000	0.000000	0.000000	0.000000	0.000000	0.000000	0.000000	0.000000	0.000000	0.000000	0.000000	0.000000	0.000000	0.000000	0.000000	0.000000	0.000000	0.000000	0.000000	0.000000	0.000000	0.000000	0.000000	0.000000	0.000000	0.089884	0.089671	0.101872	0.221679	0.243283	0.392456	0.103205	0.102961	0.102961	0.392437	0.000000
0.341700	20.633716	0.000000	0.000000	0.000000	0.050000	0.000000	3.700000	39.941851	-10.000000	0.000000	-125.456028	-0.940775	-5.000000	0.000000	0.000000	0.000000	0.000000	0.000000	0.000000	0.000000	0.000000	0.000000	0.000000	0.000000	0.000000	0.000000	0.000000	0.000000	0.000000	0.000000	0.000000	0.000000	0.000000	0.000000	0.000000	0.000000	0.000000	0.000000	0.000000	0.000000	0.000000	0.081399	0.081207	0.092256	0.200755	0.220319	0.355411	0.093463	0.093242	0.093242	0.355394	0.000000
0.346650	20.633716	0.000000	0.000000	0.000000	0.050000	0.000000	3.700000	39.941851	-10.000000	0.000000	-125.456028	-1.294042	-5.000000	0.000000	0.000000	0.000000	0.000000	0.000000	0.000000	0.000000	0.000000	0.000000	0.000000	0.000000	0.000000	0.000000	0.000000	0.000000	0.000000	0.000000	0.000000	0.000000	0.000000	0.000000	0.000000	0.000000	0.000000	0.000000	0.000000	0.000000	0.000000	0.073716	0.073542	0.083548	0.181805	0.199523	0.321863	0.084641	0.084441	0.084441	0.321848	0.000000
0.351600	20.633716	0.000000	0.000000	0.000000	0.050000	0.000000	3.700000	39.941851	-10.000000	0.000000	-125.456028	-1.622623	-5.000000	0.000000	0.000000	0.000000	0.000000	0.000000	0.000000	0.000000	0.000000	0.000000	0.000000	0.000000	0.000000	0.000000	0.000000	0.000000	0.000000	0.000000	0.000000	0.000000	0.000000	0.000000	0.000000	0.000000	0.000000	0.000000	0.000000	0.000000	0.000000	0.066758	0.066600	0.075662	0.164644	0.180689	0.291482	0.076652	0.076470	0.076470	0.291468	0.000000
0.356550	20.633716	0.000000	0.000000	0.000000	0.050000	0.000000	3.700000	39.941851	-10.000000	0.000000	-125.456028	-1.925391	-5.000000	0.000000	0.000000	0.000000	0.000000	0.000000	0.000000	0.000000	0.000000	0.000000	0.000000	0.000000	0.000000	0.000000	0.000000	0.000000	0.000000	0.000000	0.000000	0.000000	0.000000	0.000000	0.000000	0.000000	0.000000	0.000000	0.000000	0.000000	0.000000	0.060456	0.060314	0.068520	0.149103	0.163634	0.263968	0.069416	0.069252	0.069252	0.263955	0.000000
0.361500	20.633716	0.000000	0.000000	0.000000	0.050000	0.000000	3.700000	39.941851	-10.000000	0.000000	-125.456028	-2.207871	-5.000000	0.000000	0.000000	0.000000	0.000000	0.000000	0.000000	0.000000	0.000000	0.000000	0.000000	0.000000	0.000000	0.000000	0.000000	0.000000	0.000000	0.000000	0.000000	0.000000	0.000000	0.000000	0.000000	0.000000	0.000000	0.000000	0.000000	0.000000	0.000000	0.054750	0.054620	0.062052	0.135029	0.348271	0.562519	0.062864	0.062715	0.062715	0.562507	0.000000
0.366450	20.633716	0.000000	0.000000	0.000000	0.050000	0.000000	3.700000	39.941851	-10.000000	0.000000	-125.456028	-2.374675	-5.000000	0.000000	0.000000	0.000000	0.000000	0.000000	0.000000	0.000000	0.000000	0.000000	0.000000	0.000000	0.000000	0.000000	0.000000	0.000000	0.000000	0.000000	0.000000	0.000000	0.000000	0.000000	0.000000	0.000000	0.000000	0.000000	0.000000	0.000000	0.000000	0.049582	0.049465	0.056195	0.122283	0.315397	0.509422	0.056930	0.056795	0.056795	0.509411	0.000000
0.371400	20.633716	0.000000	0.000000	0.000000	0.050000	0.000000	3.700000	39.941851	-10.000000	0.000000	-125.456028	-2.487479	-5.000000	0.000000	0.000000	0.000000	0.000000	0.000000	0.000000	0.000000	0.000000	0.000000	0.000000	0.000000	0.000000	0.000000	0.000000	0.000000	0.000000	0.000000	0.000000	0.000000	0.000000	0.000000	0.000000	0.000000	0.000000	0.000000	0.000000	0.000000	0.000000	0.044902	0.044796	0.050891	0.110741	0.285626	0.461336	0.051556	0.051434	0.051434	0.461327	0.000000
0.376350	20.633716	0.000000	0.000000	0.000000	0.050000	0.000000	3.700000	39.941851	-10.000000	0.000000	-125.456028	-2.572293	-5.000000	0.000000	0.000000	0.000000	0.000000	0.000000	0.000000	0.000000	0.000000	0.000000	0.000000	0.000000	0.000000	0.000000	0.000000	0.000000	0.000000	0.000000	0.000000	0.000000	0.000000	0.000000	0.000000	0.000000	0.000000	0.000000	0.000000	0.000000	0.000000	0.040663	0.040567	0.046087	0.100288	0.258665	0.417790	0.046690	0.046579	0.046579	0.417781	0.000000
0.381300	20.633716	0.000000	0.000000	0.000000	0.050000	0.000000	3.700000	39.941851	-10.000000	0.000000	-125.456028	-2.637115	-5.000000	0.000000	0.000000	0.000000	0.000000	0.000000	0.000000	0.000000	0.000000	0.000000	0.000000	0.000000	0.000000	0.000000	0.000000	0.000000	0.000000	0.000000	0.000000	0.000000	0.000000	0.000000	0.000000	0.000000	0.000000	0.000000	0.000000	0.000000	0.000000	0.036825	0.036738	0.041737	0.090821	0.234249	0.378354	0.042283	0.042183	0.042183	0.378346	0.000000
0.386250	20.633716	0.000000	0.000000	0.000000	0.050000	0.000000	3.700000	39.941851	-10.000000	0.000000	-125.456028	-2.686108	-5.000000	0.000000	0.000000	0.000000	0.000000	0.000000	0.000000	0.000000	0.000000	0.000000	0.000000	0.000000	0.000000	0.000000	0.000000	0.000000	0.000000	0.000000	0.000000	0.000000	0.000000	0.000000	0.000000	0.000000	0.000000	0.000000	0.000000	0.000000	0.000000	0.033349	0.033270	0.037797	0.082248	0.212138	0.342640	0.038292	0.038201	0.038201	0.342633	0.000000
0.391200	20.633716	0.000000	0.000000	0.000000	0.050000	0.000000	3.700000	39.941851	-10.000000	0.000000	-125.456028	-2.701708	-5.000000	0.000000	0.000000	0.000000	0.000000	0.000000	0.000000	0.000000	0.000000	0.000000	0.000000	0.000000	0.000000	0.000000	0.000000	0.000000	0.000000	0.000000	0.000000	0.000000	0.000000	0.000000	0.000000	0.000000	0.000000	0.000000	0.000000	0.000000	0.000000	0.030201	0.030130	0.034229	0.074485	0.382234	0.617658	0.034677	0.034595	0.034595	0.617652	0.000000
0.396150	20.633716	0.000000	0.000000	0.000000	0.050000	0.000000	3.700000	39.941851	-10.000000	0.000000	-125.456028	-2.661331	-5.000000	0.000000	0.000000	0.000000	0.000000	0.000000	0.000000	0.000000	0.000000	0.000000	0.000000	0.000000	0.000000	0.000000	0.000000	0.000000	0.000000	0.000000	0.000000	0.000000	0.000000	0.000000	0.000000	0.000000	0.000000	0.000000	0.000000	0.000000	0.000000	0.027350	0.027286	0.030998	0.067454	0.346154	0.559356	0.031404	0.031330	0.031330	0.559350	0.000000
0.401100	20.633716	0.000000	0.000000	0.000000	0.050000	0.000000	3.700000	39.941851	-10.000000	0.000000	-125.456028	-2.586741	-5.000000	0.000000	0.000000	0.000000	0.000000	0.000000	0.000000	0.000000	0.000000	0.000000	0.000000	0.000000	0.000000	0.000000	0.000000	0.000000	0.000000	0.000000	0.000000	0.000000	0.000000	0.000000	0.000000	0.000000	0.000000	0.000000	0.000000	0.000000	0.000000	0.024769	0.024710	0.028072	0.061087	0.313480	0.506557	0.028440	0.028372	0.028372	0.506552	0.000000
0.406050	20.633716	0.000000	0.000000	0.000000	0.050000	0.000000	3.700000	39.941851	-10.000000	0.000000	-125.456028	-2.483335	-5.000000	0.000000	0.000000	0.000000	0.000000	0.000000	0.000000	0.000000	0.000000	0.000000	0.000000	0.000000	0.000000	0.000000	0.000000	0.000000	0.000000	0.000000	0.000000	0.000000	0.000000	0.000000	0.000000	0.000000	0.000000	0.000000	0.000000	0.000000	0.000000	0.022431	0.022378	0.025423	0.055321	0.489457	0.790079	0.025755	0.025694	0.025694	0.789080	0.000000
0.411000	20.633716	0.000000	0.000000	0.000000	0.050000	0.000000	3.700000	39.941851	-10.000000	0.000000	-125.456028	-2.281562	-5.000000	0.000000	0.000000	0.000000	0.000000	0.000000	0.000000	0.000000	0.000000	0.000000	0.000000	0.000000	0.000000	0.000000	0.000000	0.000000	0.000000	0.000000	0.000000	0.000000	0.000000	0.000000	0.000000	0.000000	0.000000	0.000000	0.000000	0.000000	0.000000	0.020313	0.020266	0.023023	0.050099	0.443256	0.715502	0.023324	0.023269	0.023269	0.714597	0.000000
0.415950	20.633716	0.000000	0.000000	0.000000	0.050000	0.000000	3.700000	39.941851	-10.000000	0.000000	-125.456028	-1.907206	-5.000000	0.000000	0.000000	0.000000	0.000000	0.000000	0.000000	0.000000	0.000000	0.000000	0.000000	0.000000	0.000000	0.000000	0.000000	0.000000	0.000000	0.000000	0.000000	0.000000	0.000000	0.000000	0.000000	0.000000	0.000000	0.000000	0.000000	0.000000	0.000000	0.018396	0.018353	0.020850	0.045370	0.401416	0.647964	0.021122	0.021072	0.021072	0.647145	0.000000
0.420900	20.633716	0.000000	0.000000	0.000000	0.050000	0.000000	3.700000	39.941851	-10.000000	0.000000	-125.456028	-1.337235	-5.000000	0.000000	0.000000	0.000000	0.000000	0.000000	0.000000	0.000000	0.000000	0.000000	0.000000	0.000000	0.000000	0.000000	0.000000	0.000000	0.000000	0.000000	0.000000	0.000000	0.000000	0.000000	0.000000	0.000000	0.000000	0.000000	0.000000	0.000000	0.000000	0.016660	0.016620	0.018882	0.041087	0.363525	0.586801	0.019129	0.019083	0.019083	0.586059	0.000000
0.425850	20.633716	0.000000	0.000000	0.000000	0.050000	0.000000	3.700000	39.941851	-10.000000	0.000000	-125.456028	-0.651032	-5.000000	0.000000	0.000000	0.000000	0.000000	0.000000	0.000000	0.000000	0.000000	0.000000	0.000000	0.000000	0.000000	0.000000	0.000000	0.000000	0.000000	0.000000	0.000000	0.000000	0.000000	0.000000	0.000000	0.000000	0.000000	0.000000	0.000000	0.000000	0.000000	0.015087	0.015051	0.017099	0.037209	0.329212	0.531412	0.017323	0.017282	0.017282	0.530740	0.000000
0.430800	20.633716	0.000000	0.000000	0.000000	0.050000	0.000000	3.700000	39.941851	-10.000000	0.000000	-125.456028	0.107612	-5.000000	0.000000	0.000000	0.000000	0.000000	0.000000	0.000000	0.000000	0.000000	0.000000	0.000000	0.000000	0.000000	0.000000	0.000000	0.000000	0.000000	0.000000	0.000000	0.000000	0.000000	0.000000	0.000000	0.000000	0.000000	0.000000	0.000000	0.000000	0.000000	0.013663	0.013631	0.015485	0.033697	0.298137	0.481251	0.015688	0.015651	0.015651	0.480642	0.000000
0.435750	20.633716	0.000000	0.000000	0.000000	0.050000	0.000000	3.700000	39.941851	-10.000000	0.000000	-125.456028	0.920035	-5.000000	0.000000	0.000000	0.000000	0.000000	0.000000	0.000000	0.000000	0.000000	0.000000	0.000000	0.000000	0.000000	0.000000	0.000000	0.000000	0.000000	0.000000	0.000000	0.000000	0.000000	0.000000	0.000000	0.000000	0.000000	0.000000	0.000000	0.000000	0.000000	0.012373	0.012344	0.014024	0.030516	0.269995	0.435825	0.014207	0.014173	0.014173	0.752009	0.000000
0.440700	20.633716	0.000000	0.000000	0.000000	0.050000	0.000000	3.700000	39.941851	-10.000000	0.000000	-125.456028	1.809215	-5.000000	0.000000	0.000000	0.000000	0.000000	0.000000	0.000000	0.000000	0.000000	0.000000	0.000000	0.000000	0.000000	0.000000	0.000000	0.000000	0.000000	0.000000	0.000000	0.000000	0.000000	0.000000	0.000000	0.000000	0.000000	0.000000	0.000000	0.000000	0.000000	0.011205	0.011179	0.012700	0.027636	0.244510	0.394686	0.012866	0.012836	0.012836	0.681025	0.000000
0.445650	20.633716	0.000000	0.000000	0.000000	0.050000	0.000000	3.700000	39.941851	-10.000000	0.000000	-125.456028	2.768619	-5.000000	0.000000	0.000000	0.000000	0.000000	0.000000	0.000000	0.000000	0.000000	0.000000	0.000000	0.000000	0.000000	0.000000	0.000000	0.000000	0.000000	0.000000	0.000000	0.000000	0.000000	0.000000	0.000000	0.000000	0.000000	0.000000	0.000000	0.000000	0.000000	0.010148	0.010124	0.011501	0.025027	0.221430	0.357431	0.011652	0.011624	0.011624	0.616742	0.000000
0.450600	20.633716	0.000000	0.000000	0.000000	0.050000	0.000000	3.700000	39.941851	-10.000000	0.000000	-125.456028	3.777762	-5.000000	0.000000	0.000000	0.000000	0.000000	0.000000	0.000000	0.000000	0.000000	0.000000	0.000000	0.000000	0.000000	0.000000	0.000000	0.000000	0.000000	0.000000	0.000000	0.000000	0.000000	0.000000	0.000000	0.000000	0.000000	0.000000	0.000000	0.000000	0.000000	0.009190	0.009168	0.010416	0.022665	0.406096	0.655029	0.010552	0.010527	0.010527	0.558526	0.000000
0.455550	20.633716	0.000000	0.000000	0.000000	0.050000	0.000000	3.700000	39.941851	-10.000000	0.000000	-125.456028	4.867529	-5.000000	0.000000	0.000000	0.000000	0.000000	0.000000	0.000000	0.000000	0.000000	0.000000	0.000000	0.000000	0.000000	0.000000	0.000000	0.000000	0.000000	0.000000	0.000000	0.000000	0.000000	0.000000	0.000000	0.000000	0.000000	0.000000	0.000000	0.000000	0.000000	0.008322	0.008303	0.009432	0.020525	0.367763	0.593199	0.009556	0.009533	0.009533	0.505806	0.000000
0.460500	20.633716	0.000000	0.000000	0.000000	0.050000	0.000000	3.700000	39.941851	-10.000000	0.000000	-125.456028	6.056982	-5.000000	0.000000	0.000000	0.000000	0.000000	0.000000	0.000000	0.000000	0.000000	0.000000	0.000000	0.000000	0.000000	0.000000	0.000000	0.000000	0.000000	0.000000	0.000000	0.000000	0.000000	0.000000	0.000000	0.000000	0.000000	0.000000	0.000000	0.000000	0.000000	0.007537	0.007519	0.008542	0.018588	0.333049	0.537206	0.008654	0.008633	0.008633	0.458062	0.000000
0.465450	20.633716	0.000000	0.000000	0.000000	0.050000	0.000000	3.700000	39.941851	-10.000000	0.000000	-125.456028	7.304639	-5.000000	0.000000	0.000000	0.000000	0.000000	0.000000	0.000000	0.000000	0.000000	0.000000	0.000000	0.000000	0.000000	0.000000	0.000000	0.000000	0.000000	0.000000	0.000000	0.000000	0.000000	0.000000	0.000000	0.000000	0.000000	0.000000	0.000000	0.000000	0.000000	0.006825	0.006809	0.007736	0.016833	0.301612	0.486498	0.007837	0.007818	0.007818	0.414824	0.000000
0.470400	20.633716	0.000000	0.000000	0.000000	0.050000	0.000000	3.700000	39.941851	-10.000000	0.000000	-125.456028	8.591130	-5.000000	0.000000	0.000000	0.000000	0.000000	0.000000	0.000000	0.000000	0.000000	0.000000	0.000000	0.000000	0.000000	0.000000	0.000000	0.000000	0.000000	0.000000	0.000000	0.000000	0.000000	0.000000	0.000000	0.000000	0.000000	0.000000	0.000000	0.000000	0.000000	0.006181	0.006167	0.007006	0.015244	0.273142	0.440576	0.007097	0.007080	0.007080	0.697198	0.000000
0.475350	20.633716	0.000000	0.000000	0.000000	0.050000	0.000000	3.700000	39.941851	-10.000000	0.000000	-125.456028	9.951897	-5.000000	0.000000	0.000000	0.000000	0.000000	0.000000	0.000000	0.000000	0.000000	0.000000	0.000000	0.000000	0.000000	0.000000	0.000000	0.000000	0.000000	0.000000	0.000000	0.000000	0.000000	0.000000	0.000000	0.000000	0.000000	0.000000	0.000000	0.000000	0.000000	0.005598	0.005584	0.006344	0.013805	0.247360	0.398989	0.006427	0.006412	0.006412	0.631388	0.000000
0.480300	20.633716	0.000000	0.000000	0.000000	0.050000	0.000000	3.700000	39.941851	-10.000000	0.000000	-125.456028	11.384880	-5.000000	0.000000	0.000000	0.000000	0.000000	0.000000	0.000000	0.000000	0.000000	0.000000	0.000000	0.000000	0.000000	0.000000	0.000000	0.000000	0.000000	0.000000	0.000000	0.000000	0.000000	0.000000	0.000000	0.000000	0.000000	0.000000	0.000000	0.000000	0.000000	0.005069	0.005057	0.005745	0.012502	0.224011	0.361328	0.005821	0.005807	0.005807	0.571790	0.000000
0.485250	20.633716	0.000000	0.000000	0.000000	0.050000	0.000000	3.700000	39.941851	-10.000000	0.000000	-125.456028	12.867387	-5.000000	0.000000	0.000000	0.000000	0.000000	0.000000	0.000000	0.000000	0.000000	0.000000	0.000000	0.000000	0.000000	0.000000	0.000000	0.000000	0.000000	0.000000	0.000000	0.000000	0.000000	0.000000	0.000000	0.000000	0.000000	0.000000	0.000000	0.000000	0.000000	0.004591	0.004580	0.005203	0.011322	0.202866	0.327222	0.005271	0.005259	0.005259	0.517817	0.000000
0.490200	20.633716	0.000000	0.000000	0.000000	0.050000	0.000000	3.700000	39.941851	-10.000000	0.000000	-125.456028	14.413382	-5.000000	0.000000	0.000000	0.000000	0.000000	0.000000	0.000000	0.000000	0.000000	0.000000	0.000000	0.000000	0.000000	0.000000	0.000000	0.000000	0.000000	0.000000	0.000000	0.000000	0.000000	0.000000	0.000000	0.000000	0.000000	0.000000	0.000000	0.000000	0.000000	0.004157	0.004148	0.004712	0.010254	0.374983	0.605547	0.004774	0.004762	0.004762	0.468940	0.000000
0.495150	20.633716	0.000000	0.000000	0.000000	0.050000	0.000000	3.700000	39.941851	-10.000000	0.000000	-125.456028	16.085558	-5.000000	0.000000	0.000000	0.000000	0.000000	0.000000	0.000000	0.000000	0.000000	0.000000	0.000000	0.000000	0.000000	0.000000	0.000000	0.000000	0.000000	0.000000	0.000000	0.000000	0.000000	0.000000	0.000000	0.000000	0.000000	0.000000	0.000000	0.000000	0.000000	0.003765	0.003756	0.004267	0.009286	0.339588	0.548389	0.004323	0.004313	0.004313	0.424675	0.000000
0.500100	20.633716	0.000000	0.000000	0.000000	0.050000	0.000000	3.700000	39.941851	-10.000000	0.000000	-125.456028	17.866297	-5.000000	0.000000	0.000000	0.000000	0.000000	0.000000	0.000000	0.000000	0.000000	0.000000	0.000000	0.000000	0.000000	0.000000	0.000000	0.000000	0.000000	0.000000	0.000000	0.000000	0.000000	0.000000	0.000000	0.000000	0.000000	0.000000	0.000000	0.000000	0.000000	0.003410	0.003402	0.003864	0.008409	0.307533	0.496625	0.003915	0.003906	0.003906	0.687367	0.000000
0.505050	20.633716	0.000000	0.000000	0.000000	0.050000	0.000000	3.700000	39.941851	-10.000000	0.000000	-125.456028	19.771138	-5.000000	0.000000	0.000000	0.000000	0.000000	0.000000	0.000000	0.000000	0.000000	0.000000	0.000000	0.000000	0.000000	0.000000	0.000000	0.000000	0.000000	0.000000	0.000000	0.000000	0.000000	0.000000	0.000000	0.000000	0.000000	0.000000	0.000000	0.000000	0.000000	0.003088	0.003081	0.003500	0.007615	0.278505	0.449748	0.003545	0.003537	0.003537	0.622485	0.000000
0.510000	20.633716	0.000000	0.000000	0.000000	0.050000	0.000000	3.700000	39.941851	-10.000000	0.000000	-125.456028	21.764504	-5.000000	0.000000	0.000000	0.000000	0.000000	0.000000	0.000000	0.000000	0.000000	0.000000	0.000000	0.000000	0.000000	0.000000	0.000000	0.000000	0.000000	0.000000	0.000000	0.000000	0.000000	0.000000	0.000000	0.000000	0.000000	0.000000	0.000000	0.000000	0.000000	0.002796	0.002790	0.003169	0.006897	0.252216	0.407295	0.003211	0.003203	0.003203	0.563727	0.000000
0.514950	20.633716	0.000000	0.000000	0.000000	0.050000	0.000000	3.700000	39.941851	-10.000000	0.000000	-125.456028	23.804892	-5.000000	0.000000	0.000000	0.000000	0.000000	0.000000	0.000000	0.000000	0.000000	0.000000	0.000000	0.000000	0.000000	0.000000	0.000000	0.000000	0.000000	0.000000	0.000000	0.000000	0.000000	0.000000	0.000000	0.000000	0.000000	0.000000	0.000000	0.000000	0.000000	0.002532	0.002526	0.002870	0.006246	0.228409	0.368850	0.002908	0.002901	0.002901	0.510516	0.000000
0.519900	20.633716	0.000000	0.000000	0.000000	0.050000	0.000000	3.700000	39.941851	-10.000000	0.000000	-125.456028	25.852373	-5.000000	0.000000	0.000000	0.000000	0.000000	0.000000	0.000000	0.000000	0.000000	0.000000	0.000000	0.000000	0.000000	0.000000	0.000000	0.000000	0.000000	0.000000	0.000000	0.000000	0.000000	0.000000	0.000000	0.000000	0.000000	0.000000	0.000000	0.000000	0.000000	0.002293	0.002288	0.002599	0.005656	0.206849	0.334033	0.002633	0.002627	0.002627	0.462327	0.000000
0.524850	20.633716	0.000000	0.000000	0.000000	0.050000	0.000000	3.700000	39.941851	-10.000000	0.000000	-125.456028	26.855855	-5.000000	0.000000	0.000000	0.000000	0.000000	0.000000	0.000000	0.000000	0.000000	0.000000	0.000000	0.000000	0.000000	0.000000	0.000000	0.000000	0.000000	0.000000	0.000000	0.000000	0.000000	0.000000	0.000000	0.000000	0.000000	0.000000	0.000000	0.000000	0.000000	0.282332	0.282327	0.315305	0.673721	0.187324	0.302503	0.314397	0.314392	0.314392	0.418687	0.000000
0.529800	20.633716	0.000000	0.000000	0.000000	0.050000	0.000000	3.700000	39.941851	-10.000000	0.000000	-125.456028	27.197895	-5.000000	0.000000	0.000000	0.000000	0.000000	0.000000	0.000000	0.000000	0.000000	0.000000	0.000000	0.000000	0.000000	0.000000	0.000000	0.000000	0.000000	0.000000	0.000000	0.000000	0.000000	0.000000	0.000000	0.000000	0.000000	0.000000	0.000000	0.000000	0.000000	0.255682	0.255678	0.285543	0.610127	0.169642	0.273949	0.284721	0.284716	0.284716	0.379167	0.000000
0.534750	20.633716	0.000000	0.000000	0.000000	0.050000	0.000000	3.700000	39.941851	-10.000000	0.000000	-125.456028	26.940872	-5.000000	0.000000	0.000000	0.000000	0.000000	0.000000	0.000000	0.000000	0.000000	0.000000	0.000000	0.000000	0.000000	0.000000	0.000000	0.000000	0.000000	0.000000	0.000000	0.000000	0.000000	0.000000	0.000000	0.000000	0.000000	0.000000	0.000000	0.000000	0.000000	0.231548	0.231544	0.258590	0.552536	0.153629	0.248091	0.257845	0.257841	0.257841	0.343376	0.000000
0.539700	20.633716	0.000000	0.000000	0.000000	0.050000	0.000000	3.700000	39.941851	-10.000000	0.000000	-125.456028	26.807802	-5.000000	0.000000	0.000000	0.000000	0.000000	0.000000	0.000000	0.000000	0.000000	0.000000	0.000000	0.000000	0.000000	0.000000	0.000000	0.000000	0.000000	0.000000	0.000000	0.000000	0.000000	0.000000	0.000000	0.000000	0.000000	0.000000	0.000000	0.000000	0.000000	0.209691	0.209688	0.234181	0.500381	0.139128	0.224673	0.233507	0.233503	0.233503	0.310964	0.000000
0.544650	20.633716	0.000000	0.000000	0.000000	0.050000	0.000000	3.700000	39.941851	-10.000000	0.000000	-125.456028	26.626433	-5.000000	0.000000	0.000000	0.000000	0.000000	0.000000	0.000000	0.000000	0.000000	0.000000	0.000000	0.000000	0.000000	0.000000	0.000000	0.000000	0.000000	0.000000	0.000000	0.000000	0.000000	0.000000	0.000000	0.000000	0.000000	0.000000	0.000000	0.000000	0.000000	0.189898	0.189895	0.212076	0.453149	0.125995	0.203465	0.211466	0.211462	0.211462	0.281612	0.000000
0.549600	20.633716	0.000000	0.000000	0.000000	0.050000	0.000000	3.700000	39.941851	-10.000000	0.000000	-125.456028	26.379785	-5.000000	0.000000	0.000000	0.000000	0.000000	0.000000	0.000000	0.000000	0.000000	0.000000	0.000000	0.000000	0.000000	0.000000	0.000000	0.000000	0.000000	0.000000	0.000000	0.000000	0.000000	0.000000	0.000000	0.000000	0.000000	0.000000	0.000000	0.000000	0.000000	0.171973	0.171970	0.192058	0.410375	0.114102	0.184260	0.191505	0.191502	0.191502	0.255030	0.000000
0.554550	20.633716	0.000000	0.000000	0.000000	0.050000	0.000000	3.700000	39.941851	-10.000000	0.000000	-125.456028	26.093350	-5.000000	0.000000	0.000000	0.000000	0.000000	0.000000	0.000000	0.000000	0.000000	0.000000	0.000000	0.000000	0.000000	0.000000	0.000000	0.000000	0.000000	0.000000	0.000000	0.000000	0.000000	0.000000	0.000000	0.000000	0.000000	0.000000	0.000000	0.000000	0.000000	0.155740	0.155738	0.173929	0.371639	0.103332	0.166867	0.173428	0.173425	0.173425	0.230957	0.000000
0.559500	20.633716	0.000000	0.000000	0.000000	0.050000	0.000000	3.700000	39.941851	-10.000000	0.000000	-125.456028	25.779438	-5.000000	0.000000	0.000000	0.000000	0.000000	0.000000	0.000000	0.000000	0.000000	0.000000	0.000000	0.000000	0.000000	0.000000	0.000000	0.000000	0.000000	0.000000	0.000000	0.000000	0.000000	0.000000	0.000000	0.000000	0.000000	0.000000	0.000000	0.000000	0.000000	0.141040	0.141037	0.157512	0.336559	0.093578	0.151116	0.157058	0.157055	0.157055	0.209157	0.000000
0.564450	20.633716	0.000000	0.000000	0.000000	0.050000	0.000000	3.700000	39.941851	-10.000000	0.000000	-125.456028	25.433740	-5.000000	0.000000	0.000000	0.000000	0.000000	0.000000	0.000000	0.000000	0.000000	0.000000	0.000000	0.000000	0.000000	0.000000	0.000000	0.000000	0.000000	0.000000	0.000000	0.000000	0.000000	0.000000	0.000000	0.000000	0.000000	0.000000	0.000000	0.000000	0.000000	0.127727	0.127725	0.142644	0.304791	0.084745	0.136852	0.142233	0.142231	0.142231	0.189414	0.000000
0.569400	20.633716	0.000000	0.000000	0.000000	0.050000	0.000000	3.700000	39.941851	-10.000000	0.000000	-125.456028	25.033079	-5.000000	0.000000	0.000000	0.000000	0.000000	0.000000	0.000000	0.000000	0.000000	0.000000	0.000000	0.000000	0.000000	0.000000	0.000000	0.000000	0.000000	0.000000	0.000000	0.000000	0.000000	0.000000	0.000000	0.000000	0.000000	0.000000	0.000000	0.000000	0.000000	0.115670	0.115668	0.129179	0.276021	0.076746	0.123934	0.128807	0.128805	0.128805	0.171535	0.000000
0.574350	20.633716	0.000000	0.000000	0.000000	0.050000	0.000000	3.700000	39.941851	-10.000000	0.000000	-125.456028	24.578922	-5.000000	0.000000	0.000000	0.000000	0.000000	0.000000	0.000000	0.000000	0.000000	0.000000	0.000000	0.000000	0.000000	0.000000	0.000000	0.000000	0.000000	0.000000	0.000000	0.000000	0.000000	0.000000	0.000000	0.000000	0.000000	0.000000	0.000000	0.000000	0.000000	0.104752	0.104750	0.116986	0.249967	0.069502	0.112236	0.116649	0.116647	0.116647	0.155343	0.000000
0.579300	20.633716	0.000000	0.000000	0.000000	0.050000	0.000000	3.700000	39.941851	-10.000000	0.000000	-125.456028	24.087672	-5.000000	0.000000	0.000000	0.000000	0.000000	0.000000	0.000000	0.000000	0.000000	0.000000	0.000000	0.000000	0.000000	0.000000	0.000000	0.000000	0.000000	0.000000	0.000000	0.000000	0.000000	0.000000	0.000000	0.000000	0.000000	0.000000	0.000000	0.000000	0.000000	0.094864	0.094863	0.105943	0.226372	0.062941	0.101642	0.105638	0.105636	0.105636	0.140680	0.000000
0.584250	20.633716	0.000000	0.000000	0.000000	0.050000	0.000000	3.700000	39.941851	-10.000000	0.000000	-125.456028	23.572756	-5.000000	0.000000	0.000000	0.000000	0.000000	0.000000	0.000000	0.000000	0.000000	0.000000	0.000000	0.000000	0.000000	0.000000	0.000000	0.000000	0.000000	0.000000	0.000000	0.000000	0.000000	0.000000	0.000000	0.000000	0.000000	0.000000	0.000000	0.000000	0.000000	0.085910	0.085908	0.095943	0.205004	0.057000	0.092048	0.095667	0.095665	0.095665	0.127401	0.000000
0.589200	20.633716	0.000000	0.000000	0.000000	0.050000	0.000000	3.700000	39.941851	-10.000000	0.000000	-125.456028	23.041023	-5.000000	0.000000	0.000000	0.000000	0.000000	0.000000	0.000000	0.000000	0.000000	0.000000	0.000000	0.000000	0.000000	0.000000	0.000000	0.000000	0.000000	0.000000	0.000000	0.000000	0.000000	0.000000	0.000000	0.000000	0.000000	0.000000	0.000000	0.000000	0.000000	0.077801	0.077799	0.086887	0.185653	0.051620	0.083359	0.086637	0.086635	0.086635	0.115375	0.000000
0.594150	20.633716	0.000000	0.000000	0.000000	0.050000	0.000000	3.700000	39.941851	-10.000000	0.000000	-125.456028	22.493844	-5.000000	0.000000	0.000000	0.000000	0.000000	0.000000	0.000000	0.000000	0.000000	0.000000	0.000000	0.000000	0.000000	0.000000	0.000000	0.000000	0.000000	0.000000	0.000000	0.000000	0.000000	0.000000	0.000000	0.000000	0.000000	0.000000	0.000000	0.000000	0.000000	0.070457	0.070456	0.078685	0.168129	0.046747	0.075491	0.410792	0.408800	0.407809	0.104485	0.000000
0.599100	20.633716	0.000000	0.000000	0.000000	0.050000	0.000000	3.700000	39.941851	-10.000000	0.000000	-125.456028	21.888640	-5.000000	0.000000	0.000000	0.000000	0.000000	0.000000	0.000000	0.000000	0.000000	0.000000	0.000000	0.000000	0.000000	0.000000	0.000000	0.000000	0.000000	0.000000	0.000000	0.000000	0.000000	0.000000	0.000000	0.000000	0.000000	0.000000	0.000000	0.000000	0.000000	0.063806	0.063805	0.071258	0.804979	0.042335	0.068365	0.372017	0.370212	0.369315	0.094622	0.000000
