rat_walk_bone_smooth
version=1
nRows=201
nColumns=15
inDegrees=yes
endheader
time	sacrum_pitch	sacrum_roll	sacrum_yaw	sacrum_x	sacrum_y	sacrum_z	sacroiliac_flx	hip_flx	hip_add	hip_int	knee_flx	ankle_flx	ankle_add	ankle_int
0.000000	24.574154	0.000000	0.000000	0.000000	0.672500	0.000000	3.700000	64.753595	-10.000000	0.000000	-107.688280	6.606829	-5.000000	0.000000
0.001935	24.660089	0.000000	0.000000	0.000000	0.672500	0.000000	3.700000	64.615325	-10.000000	0.000000	-107.764325	6.533391	-5.000000	0.000000
0.003870	24.735314	0.000000	0.000000	0.000000	0.672500	0.000000	3.700000	64.463117	-10.000000	0.000000	-107.877008	6.502146	-5.000000	0.000000
0.005805	24.800117	0.000000	0.000000	0.000000	0.672500	0.000000	3.700000	64.296623	-10.000000	0.000000	-108.024334	6.511241	-5.000000	0.000000
0.007740	24.854786	0.000000	0.000000	0.000000	0.672500	0.000000	3.700000	64.115556	-10.000000	0.000000	-108.204328	6.558733	-5.000000	0.000000
0.009675	24.899609	0.000000	0.000000	0.000000	0.672500	0.000000	3.700000	63.919724	-10.000000	0.000000	-108.415065	6.642609	-5.000000	0.000000
0.011610	24.934875	0.000000	0.000000	0.000000	0.672500	0.000000	3.700000	63.709057	-10.000000	0.000000	-108.654688	6.760796	-5.000000	0.000000
0.013545	24.960871	0.000000	0.000000	0.000000	0.672500	0.000000	3.700000	63.483628	-10.000000	0.000000	-108.921422	6.911171	-5.000000	0.000000
0.015480	24.977886	0.000000	0.000000	0.000000	0.672500	0.000000	3.700000	63.243669	-10.000000	0.000000	-109.213583	7.091564	-5.000000	0.000000
0.017415	24.986207	0.000000	0.000000	0.000000	0.672500	0.000000	3.700000	62.989577	-10.000000	0.000000	-109.529578	7.299758	-5.000000	0.000000
0.019350	24.986124	0.000000	0.000000	0.000000	0.672500	0.000000	3.700000	62.721907	-10.000000	0.000000	-109.867904	7.533493	-5.000000	0.000000
0.021285	24.977923	0.000000	0.000000	0.000000	0.672500	0.000000	3.700000	62.441365	-10.000000	0.000000	-110.227140	7.790466	-5.000000	0.000000
0.023220	24.961894	0.000000	0.000000	0.000000	0.672500	0.000000	3.700000	62.148784	-10.000000	0.000000	-110.605934	8.068338	-5.000000	0.000000
0.025155	24.938324	0.000000	0.000000	0.000000	0.672500	0.000000	3.700000	61.845095	-10.000000	0.000000	-111.002993	8.364737	-5.000000	0.000000
0.027090	24.907502	0.000000	0.000000	0.000000	0.672500	0.000000	3.700000	61.531299	-10.000000	0.000000	-111.417065	8.677277	-5.000000	0.000000
0.029025	24.869716	0.000000	0.000000	0.000000	0.672500	0.000000	3.700000	61.208428	-10.000000	0.000000	-111.846920	9.003572	-5.000000	0.000000
0.030960	24.825253	0.000000	0.000000	0.000000	0.672500	0.000000	3.700000	60.877505	-10.000000	0.000000	-112.291337	9.341262	-5.000000	0.000000
0.032895	24.774403	0.000000	0.000000	0.000000	0.672500	0.000000	3.700000	60.539509	-10.000000	0.000000	-112.749086	9.688042	-5.000000	0.000000
0.034830	24.717452	0.000000	0.000000	0.000000	0.672500	0.000000	3.700000	60.195343	-10.000000	0.000000	-113.218909	10.041692	-5.000000	0.000000
0.036765	24.654690	0.000000	0.000000	0.000000	0.672500	0.000000	3.700000	59.845797	-10.000000	0.000000	-113.699513	10.400113	-5.000000	0.000000
0.038700	24.586405	0.000000	0.000000	0.000000	0.672500	0.000000	3.700000	59.491531	-10.000000	0.000000	-114.189555	10.761358	-5.000000	0.000000
0.040635	24.512884	0.000000	0.000000	0.000000	0.672500	0.000000	3.700000	59.133055	-10.000000	0.000000	-114.687637	11.123672	-5.000000	0.000000
0.042570	24.434416	0.000000	0.000000	0.000000	0.672500	0.000000	3.700000	58.770720	-10.000000	0.000000	-115.192300	11.485509	-5.000000	0.000000
0.044505	24.351289	0.000000	0.000000	0.000000	0.672500	0.000000	3.700000	58.404717	-10.000000	0.000000	-115.702025	11.845559	-5.000000	0.000000
0.046440	24.263791	0.000000	0.000000	0.000000	0.672500	0.000000	3.700000	58.035084	-10.000000	0.000000	-116.215235	12.202761	-5.000000	0.000000
0.048375	24.172210	0.000000	0.000000	0.000000	0.672500	0.000000	3.700000	57.661715	-10.000000	0.000000	-116.730302	12.556297	-5.000000	0.000000
0.050310	24.076835	0.000000	0.000000	0.000000	0.672500	0.000000	3.700000	57.284383	-10.000000	0.000000	-117.245551	12.905592	-5.000000	0.000000
0.052245	23.977953	0.000000	0.000000	0.000000	0.672500	0.000000	3.700000	56.902763	-10.000000	0.000000	-117.759278	13.250287	-5.000000	0.000000
0.054180	23.875853	0.000000	0.000000	0.000000	0.672500	0.000000	3.700000	56.516451	-10.000000	0.000000	-118.269758	13.590216	-5.000000	0.000000
0.056115	23.770823	0.000000	0.000000	0.000000	0.672500	0.000000	3.700000	56.124996	-10.000000	0.000000	-118.775261	13.925366	-5.000000	0.000000
0.058050	23.663151	0.000000	0.000000	0.000000	0.672500	0.000000	3.700000	55.727922	-10.000000	0.000000	-119.274067	14.255840	-5.000000	0.000000
0.059985	23.553125	0.000000	0.000000	0.000000	0.672500	0.000000	3.700000	55.324755	-10.000000	0.000000	-119.764479	14.581810	-5.000000	0.000000
0.061920	23.441033	0.000000	0.000000	0.000000	0.672500	0.000000	3.700000	54.915040	-10.000000	0.000000	-120.244839	14.903472	-5.000000	0.000000
0.063855	23.327164	0.000000	0.000000	0.000000	0.672500	0.000000	3.700000	54.498361	-10.000000	0.000000	-120.713540	15.221003	-5.000000	0.000000
0.065790	23.211806	0.000000	0.000000	0.000000	0.672500	0.000000	3.700000	54.074353	-10.000000	0.000000	-121.169034	15.534512	-5.000000	0.000000
0.067725	23.095246	0.000000	0.000000	0.000000	0.672500	0.000000	3.700000	53.642713	-10.000000	0.000000	-121.609847	15.844001	-5.000000	0.000000
0.069660	22.977774	0.000000	0.000000	0.000000	0.672500	0.000000	3.700000	53.203205	-10.000000	0.000000	-122.034583	16.149323	-5.000000	0.000000
0.071595	22.859676	0.000000	0.000000	0.000000	0.672500	0.000000	3.700000	52.755659	-10.000000	0.000000	-122.441932	16.450149	-5.000000	0.000000
0.073530	22.741242	0.000000	0.000000	0.000000	0.672500	0.000000	3.700000	52.299968	-10.000000	0.000000	-122.830674	16.745938	-5.000000	0.000000
0.075465	22.622759	0.000000	0.000000	0.000000	0.672500	0.000000	3.700000	51.836079	-10.000000	0.000000	-123.199683	17.035915	-5.000000	0.000000
0.077400	22.504516	0.000000	0.000000	0.000000	0.672500	0.000000	3.700000	51.363984	-10.000000	0.000000	-123.547930	17.319061	-5.000000	0.000000
0.079335	22.386800	0.000000	0.000000	0.000000	0.672500	0.000000	3.700000	50.883701	-10.000000	0.000000	-123.874485	17.594109	-5.000000	0.000000
0.081270	22.269901	0.000000	0.000000	0.000000	0.672500	0.000000	3.700000	50.395263	-10.000000	0.000000	-124.178518	17.859558	-5.000000	0.000000
0.083205	22.154105	0.000000	0.000000	0.000000	0.672500	0.000000	3.700000	49.898695	-10.000000	0.000000	-124.459301	18.113692	-5.000000	0.000000
0.085140	22.039701	0.000000	0.000000	0.000000	0.672500	0.000000	3.700000	49.393997	-10.000000	0.000000	-124.716206	18.354614	-5.000000	0.000000
0.087075	21.926978	0.000000	0.000000	0.000000	0.672500	0.000000	3.700000	48.881128	-10.000000	0.000000	-124.948709	18.580289	-5.000000	0.000000
0.089010	21.816224	0.000000	0.000000	0.000000	0.672500	0.000000	3.700000	48.359987	-10.000000	0.000000	-125.156387	18.788593	-5.000000	0.000000
0.090945	21.707726	0.000000	0.000000	0.000000	0.672500	0.000000	3.700000	47.830397	-10.000000	0.000000	-125.338917	18.977365	-5.000000	0.000000
0.092880	21.601772	0.000000	0.000000	0.000000	0.672500	0.000000	3.700000	47.292097	-10.000000	0.000000	-125.496080	19.144465	-5.000000	0.000000
0.094815	21.498652	0.000000	0.000000	0.000000	0.672500	0.000000	3.700000	46.744728	-10.000000	0.000000	-125.627753	19.287830	-5.000000	0.000000
0.096750	21.398653	0.000000	0.000000	0.000000	0.672500	0.000000	3.700000	46.187837	-10.000000	0.000000	-125.733914	19.405528	-5.000000	0.000000
0.098685	21.302063	0.000000	0.000000	0.000000	0.672500	0.000000	3.700000	45.620868	-10.000000	0.000000	-125.814635	19.495804	-5.000000	0.000000
0.100620	21.209171	0.000000	0.000000	0.000000	0.672500	0.000000	3.700000	45.043175	-10.000000	0.000000	-125.870090	19.557130	-5.000000	0.000000
0.102555	21.120264	0.000000	0.000000	0.000000	0.672500	0.000000	3.700000	44.454034	-10.000000	0.000000	-125.900542	19.588235	-5.000000	0.000000
0.104490	21.035631	0.000000	0.000000	0.000000	0.672500	0.000000	3.700000	43.852654	-10.000000	0.000000	-125.906356	19.588132	-5.000000	0.000000
0.106425	20.955559	0.000000	0.000000	0.000000	0.672500	0.000000	3.700000	43.238205	-10.000000	0.000000	-125.887989	19.556138	-5.000000	0.000000
0.108360	20.880338	0.000000	0.000000	0.000000	0.672500	0.000000	3.700000	42.609845	-10.000000	0.000000	-125.845992	19.491882	-5.000000	0.000000
0.110295	20.810255	0.000000	0.000000	0.000000	0.672500	0.000000	3.700000	41.966750	-10.000000	0.000000	-125.781013	19.395299	-5.000000	0.000000
0.112230	20.745598	0.000000	0.000000	0.000000	0.672500	0.000000	3.700000	41.308152	-10.000000	0.000000	-125.693791	19.266623	-5.000000	0.000000
0.114165	20.686656	0.000000	0.000000	0.000000	0.672500	0.000000	3.700000	40.633370	-10.000000	0.000000	-125.585157	19.106363	-5.000000	0.000000
0.116100	20.633716	0.000000	0.000000	0.000000	0.672500	0.000000	3.700000	39.941851	-10.000000	0.000000	-125.456028	18.915279	-5.000000	0.000000
0.118035	20.587067	0.000000	0.000000	0.000000	0.672500	0.000000	3.700000	39.233198	-10.000000	0.000000	-125.307407	18.694342	-5.000000	0.000000
0.119970	20.546998	0.000000	0.000000	0.000000	0.672500	0.000000	3.700000	38.507197	-10.000000	0.000000	-125.140374	18.444694	-5.000000	0.000000
0.121905	20.513795	0.000000	0.000000	0.000000	0.672500	0.000000	3.700000	37.763841	-10.000000	0.000000	-124.956082	18.167602	-5.000000	0.000000
0.123840	20.487747	0.000000	0.000000	0.000000	0.672500	0.000000	3.700000	37.003343	-10.000000	0.000000	-124.755752	17.864414	-5.000000	0.000000
0.125775	20.469142	0.000000	0.000000	0.000000	0.672500	0.000000	3.700000	36.226137	-10.000000	0.000000	-124.540659	17.536508	-5.000000	0.000000
0.127710	20.458111	0.000000	0.000000	0.000000	0.672500	0.000000	3.700000	35.432883	-10.000000	0.000000	-124.312131	17.185250	-5.000000	0.000000
0.129645	20.454435	0.000000	0.000000	0.000000	0.672500	0.000000	3.700000	34.624457	-10.000000	0.000000	-124.071535	16.811953	-5.000000	0.000000
0.131580	20.457848	0.000000	0.000000	0.000000	0.672500	0.000000	3.700000	33.801934	-10.000000	0.000000	-123.820267	16.417843	-5.000000	0.000000
0.133515	20.468084	0.000000	0.000000	0.000000	0.672500	0.000000	3.700000	32.966578	-10.000000	0.000000	-123.559746	16.004035	-5.000000	0.000000
0.135450	20.484878	0.000000	0.000000	0.000000	0.672500	0.000000	3.700000	32.119814	-10.000000	0.000000	-123.291401	15.571521	-5.000000	0.000000
0.137385	20.507963	0.000000	0.000000	0.000000	0.672500	0.000000	3.700000	31.263213	-10.000000	0.000000	-123.016662	15.121164	-5.000000	0.000000
0.139320	20.537075	0.000000	0.000000	0.000000	0.672500	0.000000	3.700000	30.398460	-10.000000	0.000000	-122.736951	14.653705	-5.000000	0.000000
0.141255	20.571947	0.000000	0.000000	0.000000	0.672500	0.000000	3.700000	29.527342	-10.000000	0.000000	-122.453679	14.169789	-5.000000	0.000000
0.143190	20.612313	0.000000	0.000000	0.000000	0.672500	0.000000	3.700000	28.651715	-10.000000	0.000000	-122.168230	13.669987	-5.000000	0.000000
0.145125	20.657908	0.000000	0.000000	0.000000	0.672500	0.000000	3.700000	27.773490	-10.000000	0.000000	-121.881965	13.154840	-5.000000	0.000000
0.147060	20.708466	0.000000	0.000000	0.000000	0.672500	0.000000	3.700000	26.894610	-10.000000	0.000000	-121.596210	12.624894	-5.000000	0.000000
0.148995	20.763721	0.000000	0.000000	0.000000	0.672500	0.000000	3.700000	26.017035	-10.000000	0.000000	-121.312257	12.080746	-5.000000	0.000000
0.150930	20.823408	0.000000	0.000000	0.000000	0.672500	0.000000	3.700000	25.142725	-10.000000	0.000000	-121.031361	11.523083	-5.000000	0.000000
0.152865	20.887260	0.000000	0.000000	0.000000	0.672500	0.000000	3.700000	24.273631	-10.000000	0.000000	-120.754738	10.952711	-5.000000	0.000000
0.154800	20.955011	0.000000	0.000000	0.000000	0.672500	0.000000	3.700000	23.411679	-10.000000	0.000000	-120.483568	10.370592	-5.000000	0.000000
0.156735	21.026397	0.000000	0.000000	0.000000	0.672500	0.000000	3.700000	22.558769	-10.000000	0.000000	-120.218994	9.777854	-5.000000	0.000000
0.158670	21.101150	0.000000	0.000000	0.000000	0.672500	0.000000	3.700000	21.716766	-10.000000	0.000000	-119.962125	9.175814	-5.000000	0.000000
0.160605	21.179006	0.000000	0.000000	0.000000	0.672500	0.000000	3.700000	20.887495	-10.000000	0.000000	-119.714036	8.565975	-5.000000	0.000000
0.162540	21.259698	0.000000	0.000000	0.000000	0.672500	0.000000	3.700000	20.072742	-10.000000	0.000000	-119.475773	7.950029	-5.000000	0.000000
0.164475	21.342962	0.000000	0.000000	0.000000	0.672500	0.000000	3.700000	19.274254	-10.000000	0.000000	-119.248353	7.329847	-5.000000	0.000000
0.166410	21.428530	0.000000	0.000000	0.000000	0.672500	0.000000	3.700000	18.493737	-10.000000	0.000000	-119.032766	6.707469	-5.000000	0.000000
0.168345	21.516137	0.000000	0.000000	0.000000	0.672500	0.000000	3.700000	17.732863	-10.000000	0.000000	-118.829983	6.085083	-5.000000	0.000000
0.170280	21.605518	0.000000	0.000000	0.000000	0.672500	0.000000	3.700000	16.993271	-10.000000	0.000000	-118.640952	5.465003	-5.000000	0.000000
0.172215	21.696406	0.000000	0.000000	0.000000	0.672500	0.000000	3.700000	16.276569	-10.000000	0.000000	-118.466604	4.849647	-5.000000	0.000000
0.174150	21.788536	0.000000	0.000000	0.000000	0.672500	0.000000	3.700000	15.584344	-10.000000	0.000000	-118.307855	4.241507	-5.000000	0.000000
0.176085	21.881642	0.000000	0.000000	0.000000	0.672500	0.000000	3.700000	14.918160	-10.000000	0.000000	-118.165609	3.643122	-5.000000	0.000000
0.178020	21.975459	0.000000	0.000000	0.000000	0.672500	0.000000	3.700000	14.279567	-10.000000	0.000000	-118.040763	3.057053	-5.000000	0.000000
0.179955	22.069720	0.000000	0.000000	0.000000	0.672500	0.000000	3.700000	13.670101	-10.000000	0.000000	-117.934203	2.485852	-5.000000	0.000000
0.181890	22.164159	0.000000	0.000000	0.000000	0.672500	0.000000	3.700000	13.091287	-10.000000	0.000000	-117.846817	1.932038	-5.000000	0.000000
0.183825	22.258511	0.000000	0.000000	0.000000	0.672500	0.000000	3.700000	12.544641	-10.000000	0.000000	-117.779483	1.398074	-5.000000	0.000000
0.185760	22.352511	0.000000	0.000000	0.000000	0.672500	0.000000	3.700000	12.031667	-10.000000	0.000000	-117.733080	0.886345	-5.000000	0.000000
0.187695	22.445891	0.000000	0.000000	0.000000	0.672500	0.000000	3.700000	11.553857	-10.000000	0.000000	-117.708483	0.399138	-5.000000	0.000000
0.189630	22.538387	0.000000	0.000000	0.000000	0.672500	0.000000	3.700000	11.112685	-10.000000	0.000000	-117.706558	-0.061371	-5.000000	0.000000
0.191565	22.629733	0.000000	0.000000	0.000000	0.672500	0.000000	3.700000	10.709601	-10.000000	0.000000	-117.728163	-0.493130	-5.000000	0.000000
0.193500	22.719663	0.000000	0.000000	0.000000	0.672500	0.000000	3.700000	10.346024	-10.000000	0.000000	-117.774141	-0.894220	-5.000000	0.000000
0.195435	22.807911	0.000000	0.000000	0.000000	0.672500	0.000000	3.700000	10.023335	-10.000000	0.000000	-117.845313	-1.262862	-5.000000	0.000000
0.197370	22.894211	0.000000	0.000000	0.000000	0.672500	0.000000	3.700000	9.742864	-10.000000	0.000000	-117.942476	-1.597416	-5.000000	0.000000
0.199305	22.978298	0.000000	0.000000	0.000000	0.672500	0.000000	3.700000	9.505884	-10.000000	0.000000	-118.066392	-1.896385	-5.000000	0.000000
0.201240	23.059905	0.000000	0.000000	0.000000	0.672500	0.000000	3.700000	9.313594	-10.000000	0.000000	-118.217779	-2.158411	-5.000000	0.000000
0.203175	23.138767	0.000000	0.000000	0.000000	0.672500	0.000000	3.700000	9.167112	-10.000000	0.000000	-118.397303	-2.382267	-5.000000	0.000000
0.205110	23.214619	0.000000	0.000000	0.000000	0.672500	0.000000	3.700000	9.067461	-10.000000	0.000000	-118.605567	-2.566853	-5.000000	0.000000
0.207045	23.287194	0.000000	0.000000	0.000000	0.672500	0.000000	3.700000	9.015555	-10.000000	0.000000	-118.843099	-2.711184	-5.000000	0.000000
0.208980	23.356226	0.000000	0.000000	0.000000	0.672500	0.000000	3.700000	9.012189	-10.000000	0.000000	-119.110340	-2.814379	-5.000000	0.000000
0.210915	23.421450	0.000000	0.000000	0.000000	0.672500	0.000000	3.700000	9.058024	-10.000000	0.000000	-119.407630	-2.875649	-5.000000	0.000000
0.212850	23.482601	0.000000	0.000000	0.000000	0.672500	0.000000	3.700000	9.153576	-10.000000	0.000000	-119.735199	-2.894286	-5.000000	0.000000
0.214785	23.539411	0.000000	0.000000	0.000000	0.672500	0.000000	3.700000	9.299205	-10.000000	0.000000	-120.093146	-2.869648	-5.000000	0.000000
0.216720	23.591616	0.000000	0.000000	0.000000	0.672500	0.000000	3.700000	9.495107	-10.000000	0.000000	-120.481433	-2.801145	-5.000000	0.000000
0.218655	23.638949	0.000000	0.000000	0.000000	0.672500	0.000000	3.700000	9.741304	-10.000000	0.000000	-120.899865	-2.688233	-5.000000	0.000000
0.220590	23.681146	0.000000	0.000000	0.000000	0.672500	0.000000	3.700000	10.037639	-10.000000	0.000000	-121.348079	-2.530394	-5.000000	0.000000
0.222525	23.717939	0.000000	0.000000	0.000000	0.672500	0.000000	3.700000	10.383770	-10.000000	0.000000	-121.825532	-2.327138	-5.000000	0.000000
0.224460	23.749064	0.000000	0.000000	0.000000	0.672500	0.000000	3.700000	10.779169	-10.000000	0.000000	-122.331484	-2.077985	-5.000000	0.000000
0.226395	23.774254	0.000000	0.000000	0.000000	0.672500	0.000000	3.700000	11.223125	-10.000000	0.000000	-122.864995	-1.782473	-5.000000	0.000000
0.228330	23.793243	0.000000	0.000000	0.000000	0.672500	0.000000	3.700000	11.714744	-10.000000	0.000000	-123.424911	-1.440147	-5.000000	0.000000
0.230265	23.805767	0.000000	0.000000	0.000000	0.672500	0.000000	3.700000	12.252959	-10.000000	0.000000	-124.009863	-1.050575	-5.000000	0.000000
0.232200	23.811559	0.000000	0.000000	0.000000	0.672500	0.000000	3.700000	12.836540	-10.000000	0.000000	-124.618263	-0.613350	-5.000000	0.000000
0.234135	23.810353	0.000000	0.000000	0.000000	0.672500	0.000000	3.700000	13.464103	-10.000000	0.000000	-125.248305	-0.128111	-5.000000	0.000000
0.236070	23.801883	0.000000	0.000000	0.000000	0.672500	0.000000	3.700000	14.134133	-10.000000	0.000000	-125.897969	0.405431	-5.000000	0.000000
0.238005	23.785884	0.000000	0.000000	0.000000	0.672500	0.000000	3.700000	14.844994	-10.000000	0.000000	-126.565029	0.987466	-5.000000	0.000000
0.239940	23.762091	0.000000	0.000000	0.000000	0.672500	0.000000	3.700000	15.594954	-10.000000	0.000000	-127.247058	1.618044	-5.000000	0.000000
0.241875	23.730236	0.000000	0.000000	0.000000	0.672500	0.000000	3.700000	16.382208	-10.000000	0.000000	-127.941448	2.297032	-5.000000	0.000000
0.243810	23.690054	0.000000	0.000000	0.000000	0.672500	0.000000	3.700000	17.204897	-10.000000	0.000000	-128.645415	3.024070	-5.000000	0.000000
0.245745	23.641281	0.000000	0.000000	0.000000	0.672500	0.000000	3.700000	18.061136	-10.000000	0.000000	-129.356022	3.798519	-5.000000	0.000000
0.247680	23.583649	0.000000	0.000000	0.000000	0.672500	0.000000	3.700000	18.949033	-10.000000	0.000000	-130.070189	4.619418	-5.000000	0.000000
0.249615	23.516893	0.000000	0.000000	0.000000	0.672500	0.000000	3.700000	19.866710	-10.000000	0.000000	-130.784716	5.485435	-5.000000	0.000000
0.251550	23.440757	0.000000	0.000000	0.000000	0.672500	0.000000	3.700000	20.812315	-10.000000	0.000000	-131.496289	6.394825	-5.000000	0.000000
0.253485	23.355386	0.000000	0.000000	0.000000	0.672500	0.000000	3.700000	21.784039	-10.000000	0.000000	-132.201505	7.345399	-5.000000	0.000000
0.255420	23.261445	0.000000	0.000000	0.000000	0.672500	0.000000	3.700000	22.780110	-10.000000	0.000000	-132.896873	8.334491	-5.000000	0.000000
0.257355	23.159633	0.000000	0.000000	0.000000	0.672500	0.000000	3.700000	23.798798	-10.000000	0.000000	-133.578836	9.358940	-5.000000	0.000000
0.259290	23.050649	0.000000	0.000000	0.000000	0.672500	0.000000	3.700000	24.838398	-10.000000	0.000000	-134.243775	10.415082	-5.000000	0.000000
0.261225	22.935191	0.000000	0.000000	0.000000	0.672500	0.000000	3.700000	25.897217	-10.000000	0.000000	-134.888021	11.498746	-5.000000	0.000000
0.263160	22.813959	0.000000	0.000000	0.000000	0.672500	0.000000	3.700000	26.973556	-10.000000	0.000000	-135.507872	12.605272	-5.000000	0.000000
0.265095	22.687652	0.000000	0.000000	0.000000	0.672500	0.000000	3.700000	28.065690	-10.000000	0.000000	-136.099602	13.729532	-5.000000	0.000000
0.267030	22.556970	0.000000	0.000000	0.000000	0.672500	0.000000	3.700000	29.171845	-10.000000	0.000000	-136.659481	14.865964	-5.000000	0.000000
0.268965	22.422611	0.000000	0.000000	0.000000	0.672500	0.000000	3.700000	30.290190	-10.000000	0.000000	-137.183793	16.008621	-5.000000	0.000000
0.270900	22.285275	0.000000	0.000000	0.000000	0.672500	0.000000	3.700000	31.418824	-10.000000	0.000000	-137.668864	17.151227	-5.000000	0.000000
0.272835	22.145660	0.000000	0.000000	0.000000	0.672500	0.000000	3.700000	32.555772	-10.000000	0.000000	-138.111084	18.287245	-5.000000	0.000000
0.274770	22.004466	0.000000	0.000000	0.000000	0.672500	0.000000	3.700000	33.698989	-10.000000	0.000000	-138.506941	19.409945	-5.000000	0.000000
0.276705	21.862392	0.000000	0.000000	0.000000	0.672500	0.000000	3.700000	34.846373	-10.000000	0.000000	-138.853054	20.512491	-5.000000	0.000000
0.278640	21.720137	0.000000	0.000000	0.000000	0.672500	0.000000	3.700000	35.995770	-10.000000	0.000000	-139.146207	21.588016	-5.000000	0.000000
0.280575	21.578400	0.000000	0.000000	0.000000	0.672500	0.000000	3.700000	37.145000	-10.000000	0.000000	-139.383393	22.629716	-5.000000	0.000000
0.282510	21.437881	0.000000	0.000000	0.000000	0.672500	0.000000	3.700000	38.291869	-10.000000	0.000000	-139.561844	23.630931	-5.000000	0.000000
0.284445	21.299278	0.000000	0.000000	0.000000	0.672500	0.000000	3.700000	39.434195	-10.000000	0.000000	-139.679075	24.585233	-5.000000	0.000000
0.286380	21.163291	0.000000	0.000000	0.000000	0.672500	0.000000	3.700000	40.569822	-10.000000	0.000000	-139.732920	25.486507	-5.000000	0.000000
0.288315	21.030618	0.000000	0.000000	0.000000	0.672500	0.000000	3.700000	41.696640	-10.000000	0.000000	-139.721568	26.329026	-5.000000	0.000000
0.290250	20.901959	0.000000	0.000000	0.000000	0.672500	0.000000	3.700000	42.812603	-10.000000	0.000000	-139.643591	27.107520	-5.000000	0.000000
0.292185	20.778013	0.000000	0.000000	0.000000	0.672500	0.000000	3.700000	43.915738	-10.000000	0.000000	-139.497981	27.817239	-5.000000	0.000000
0.294120	20.659479	0.000000	0.000000	0.000000	0.672500	0.000000	3.700000	45.004157	-10.000000	0.000000	-139.284165	28.454001	-5.000000	0.000000
0.296055	20.547056	0.000000	0.000000	0.000000	0.672500	0.000000	3.700000	46.076064	-10.000000	0.000000	-139.002031	29.014231	-5.000000	0.000000
0.297990	20.441444	0.000000	0.000000	0.000000	0.672500	0.000000	3.700000	47.129754	-10.000000	0.000000	-138.651938	29.494993	-5.000000	0.000000
0.299925	20.343341	0.000000	0.000000	0.000000	0.672500	0.000000	3.700000	48.163618	-10.000000	0.000000	-138.234720	29.894004	-5.000000	0.000000
0.301860	20.253447	0.000000	0.000000	0.000000	0.672500	0.000000	3.700000	49.176135	-10.000000	0.000000	-137.751695	30.209638	-5.000000	0.000000
0.303795	20.172460	0.000000	0.000000	0.000000	0.672500	0.000000	3.700000	50.165867	-10.000000	0.000000	-137.204650	30.440928	-5.000000	0.000000
0.305730	20.101080	0.000000	0.000000	0.000000	0.672500	0.000000	3.700000	51.131455	-10.000000	0.000000	-136.595833	30.587544	-5.000000	0.000000
0.307665	20.040007	0.000000	0.000000	0.000000	0.672500	0.000000	3.700000	52.071611	-10.000000	0.000000	-135.927936	30.649774	-5.000000	0.000000
0.309600	19.989938	0.000000	0.000000	0.000000	0.672500	0.000000	3.700000	52.985110	-10.000000	0.000000	-135.204066	30.628496	-5.000000	0.000000
0.311535	19.951574	0.000000	0.000000	0.000000	0.672500	0.000000	3.700000	53.870785	-10.000000	0.000000	-134.427721	30.525139	-5.000000	0.000000
0.313470	19.925613	0.000000	0.000000	0.000000	0.672500	0.000000	3.700000	54.727527	-10.000000	0.000000	-133.602750	30.341647	-5.000000	0.000000
0.315405	19.912755	0.000000	0.000000	0.000000	0.672500	0.000000	3.700000	55.554277	-10.000000	0.000000	-132.733323	30.080438	-5.000000	0.000000
0.317340	19.913698	0.000000	0.000000	0.000000	0.672500	0.000000	3.700000	56.350037	-10.000000	0.000000	-131.823882	29.744362	-5.000000	0.000000
0.319275	19.929140	0.000000	0.000000	0.000000	0.672500	0.000000	3.700000	57.113866	-10.000000	0.000000	-130.879104	29.336662	-5.000000	0.000000
0.321210	19.959371	0.000000	0.000000	0.000000	0.672500	0.000000	3.700000	57.844892	-10.000000	0.000000	-129.903853	28.860936	-5.000000	0.000000
0.323145	20.003774	0.000000	0.000000	0.000000	0.672500	0.000000	3.700000	58.542317	-10.000000	0.000000	-128.903136	28.321106	-5.000000	0.000000
0.325080	20.061609	0.000000	0.000000	0.000000	0.672500	0.000000	3.700000	59.205432	-10.000000	0.000000	-127.882054	27.721386	-5.000000	0.000000
0.327015	20.132134	0.000000	0.000000	0.000000	0.672500	0.000000	3.700000	59.833621	-10.000000	0.000000	-126.845759	27.066265	-5.000000	0.000000
0.328950	20.214610	0.000000	0.000000	0.000000	0.672500	0.000000	3.700000	60.426383	-10.000000	0.000000	-125.799407	26.360479	-5.000000	0.000000
0.330885	20.308297	0.000000	0.000000	0.000000	0.672500	0.000000	3.700000	60.983340	-10.000000	0.000000	-124.748116	25.609001	-5.000000	0.000000
0.332820	20.412454	0.000000	0.000000	0.000000	0.672500	0.000000	3.700000	61.504253	-10.000000	0.000000	-123.696924	24.817017	-5.000000	0.000000
0.334755	20.526341	0.000000	0.000000	0.000000	0.672500	0.000000	3.700000	61.989033	-10.000000	0.000000	-122.650754	23.989913	-5.000000	0.000000
0.336690	20.649218	0.000000	0.000000	0.000000	0.672500	0.000000	3.700000	62.437757	-10.000000	0.000000	-121.614376	23.133248	-5.000000	0.000000
0.338625	20.780344	0.000000	0.000000	0.000000	0.672500	0.000000	3.700000	62.850677	-10.000000	0.000000	-120.592381	22.252723	-5.000000	0.000000
0.340560	20.918979	0.000000	0.000000	0.000000	0.672500	0.000000	3.700000	63.228226	-10.000000	0.000000	-119.589150	21.354145	-5.000000	0.000000
0.342495	21.064383	0.000000	0.000000	0.000000	0.672500	0.000000	3.700000	63.571021	-10.000000	0.000000	-118.608831	20.443383	-5.000000	0.000000
0.344430	21.215815	0.000000	0.000000	0.000000	0.672500	0.000000	3.700000	63.879867	-10.000000	0.000000	-117.655323	19.526319	-5.000000	0.000000
0.346365	21.372535	0.000000	0.000000	0.000000	0.672500	0.000000	3.700000	64.155750	-10.000000	0.000000	-116.732255	18.608792	-5.000000	0.000000
0.348300	21.533803	0.000000	0.000000	0.000000	0.672500	0.000000	3.700000	64.399823	-10.000000	0.000000	-115.842977	17.696540	-5.000000	0.000000
0.350235	21.698879	0.000000	0.000000	0.000000	0.672500	0.000000	3.700000	64.613393	-10.000000	0.000000	-114.990547	16.795145	-5.000000	0.000000
0.352170	21.867022	0.000000	0.000000	0.000000	0.672500	0.000000	3.700000	64.797897	-10.000000	0.000000	-114.177727	15.909970	-5.000000	0.000000
0.354105	22.037492	0.000000	0.000000	0.000000	0.672500	0.000000	3.700000	64.954875	-10.000000	0.000000	-113.406979	15.046108	-5.000000	0.000000
0.356040	22.209549	0.000000	0.000000	0.000000	0.672500	0.000000	3.700000	65.085940	-10.000000	0.000000	-112.680462	14.208331	-5.000000	0.000000
0.357975	22.382451	0.000000	0.000000	0.000000	0.672500	0.000000	3.700000	65.192744	-10.000000	0.000000	-112.000031	13.401047	-5.000000	0.000000
0.359910	22.555460	0.000000	0.000000	0.000000	0.672500	0.000000	3.700000	65.276940	-10.000000	0.000000	-111.367239	12.628257	-5.000000	0.000000
0.361845	22.727835	0.000000	0.000000	0.000000	0.672500	0.000000	3.700000	65.340146	-10.000000	0.000000	-110.783336	11.893531	-5.000000	0.000000
0.363780	22.898835	0.000000	0.000000	0.000000	0.672500	0.000000	3.700000	65.383911	-10.000000	0.000000	-110.249275	11.199985	-5.000000	0.000000
0.365715	23.067721	0.000000	0.000000	0.000000	0.672500	0.000000	3.700000	65.409679	-10.000000	0.000000	-109.765710	10.550267	-5.000000	0.000000
0.367650	23.233751	0.000000	0.000000	0.000000	0.672500	0.000000	3.700000	65.418760	-10.000000	0.000000	-109.333001	9.946551	-5.000000	0.000000
0.369585	23.396185	0.000000	0.000000	0.000000	0.672500	0.000000	3.700000	65.412307	-10.000000	0.000000	-108.951219	9.390545	-5.000000	0.000000
0.371520	23.554284	0.000000	0.000000	0.000000	0.672500	0.000000	3.700000	65.391292	-10.000000	0.000000	-108.620152	8.883498	-5.000000	0.000000
0.373455	23.707307	0.000000	0.000000	0.000000	0.672500	0.000000	3.700000	65.356499	-10.000000	0.000000	-108.339314	8.426218	-5.000000	0.000000
0.375390	23.854514	0.000000	0.000000	0.000000	0.672500	0.000000	3.700000	65.308513	-10.000000	0.000000	-108.107953	8.019097	-5.000000	0.000000
0.377325	23.995164	0.000000	0.000000	0.000000	0.672500	0.000000	3.700000	65.247726	-10.000000	0.000000	-107.925071	7.662137	-5.000000	0.000000
0.379260	24.128517	0.000000	0.000000	0.000000	0.672500	0.000000	3.700000	65.174344	-10.000000	0.000000	-107.789441	7.354984	-5.000000	0.000000
0.381195	24.253833	0.000000	0.000000	0.000000	0.672500	0.000000	3.700000	65.088404	-10.000000	0.000000	-107.699629	7.096961	-5.000000	0.000000
0.383130	24.370371	0.000000	0.000000	0.000000	0.672500	0.000000	3.700000	64.989798	-10.000000	0.000000	-107.654022	6.887103	-5.000000	0.000000
0.385065	24.477392	0.000000	0.000000	0.000000	0.672500	0.000000	3.700000	64.878299	-10.000000	0.000000	-107.650863	6.724200	-5.000000	0.000000
0.387000	24.574154	0.000000	0.000000	0.000000	0.672500	0.000000	3.700000	64.753595	-10.000000	0.000000	-107.688280	6.606829	-5.000000	0.000000
